usgs_id,state_code,huc_cd,huc_code,huc_region,nws_id,goes_id,nws_hsa,latitude_decimal,longitude_decimal,drainage_area,station_name,latitude_dms,longitude_dms,data_source
12301250,MT,17010101,17,1701,TBAM8,16E912E8,MSO,48.877947,-115.054461,396.2,TOBACCO RIVER AT EUREKA MT,48 52 40.61,115 03 16.06,NOAA_HADS
12301933,MT,17010101,17,1701,KBDM8,CE11B438,MSO,48.400664,-115.318719,8999.0,KOOTENAI RIVER BL LIBBY DAM NR LIBBY MT,48 24 02.39,115 19 07.39,NOAA_HADS
12302055,MT,17010102,17,1701,FISM8,DE08A108,MSO,48.355603,-115.31465,842.0,FISHER RIVER NEAR LIBBY MT,48 21 20.17,115 18 52.74,NOAA_HADS
12304500,MT,17010103,17,1701,TRYM8,DE06A560,MSO,48.561722,-115.970158,792.0,YAAK RIVER NEAR TROY MT,48 33 42.20,115 58 12.57,NOAA_HADS
12305000,ID,17010104,17,1701,LEOI1,D104D1A8,OTX,48.616883,-116.049194,11740.0,KOOTENAI RIVER AT LEONIA ID,48 37 00.78,116 02 57.10,NOAA_HADS
12321500,ID,17010104,17,1701,BDCI1,DE33175E,OTX,48.997222,-116.569167,97.0,BOUNDARY CREEK NR PORTHILL ID,48 59 50,116 34 09,NOAA_HADS
12322000,ID,17010104,17,1701,PORI1,DD71B368,OTX,48.996389,-116.5075,13700.0,KOOTENAI RIVER AT PORTHILL ID,48 59 47,116 30 27,NOAA_HADS
12306500,ID,17010105,17,1701,EASI1,D1135216,OTX,48.999167,-116.179722,570.0,MOYIE RIVER AT EASTPORT ID,48 59 57,116 10 47,NOAA_HADS
12323233,MT,17010201,17,1701,BKCM8,D10F31F2,MSO,45.991269,-112.527358,90.1,BLACKTAIL CREEK ABOVE GROVE GULCH AT BUTTE MT,45 59 28.57,112 31 38.49,NOAA_HADS
12323250,MT,17010201,17,1701,SLVM8,DDE5601C,MSO,45.999167,-112.577322,124.75,SILVER BOW CR BL BLACKTAIL CR AT BUTTE MT,45 59 57,112 34 38.36,NOAA_HADS
12323600,MT,17010201,17,1701,OPPM8,DD6F536C,MSO,46.107758,-112.805283,343.0,SILVER BOW CREEK AT OPPORTUNITY MT,46 06 27.93,112 48 19.02,NOAA_HADS
12323670,MT,17010201,17,1701,MCAM8,DD7893D8,MSO,46.082972,-112.917189,39.5,MILL CREEK NR ANACONDA MT,46 04 58.70,112 55 01.88,NOAA_HADS
12323710,MT,17010201,17,1701,WCAM8,DD78A642,MSO,46.064511,-112.893531,13.7,WILLOW CREEK NR ANACONDA MT,46 03 52.24,112 53 36.71,NOAA_HADS
12323750,MT,17010201,17,1701,WMSM8,DDD072DA,MSO,46.179497,-112.780561,473.0,SILVER BOW CREEK AT WARM SPRINGS MT,46 10 46.19,112 46 50.02,NOAA_HADS
12323760,MT,17010201,17,1701,ANDM8,DDD553F6,MSO,46.133667,-112.903153,156.0,WARM SPRINGS CREEK NEAR ANACONDA MT,46 08 01.20,112 54 11.35,NOAA_HADS
12323770,MT,17010201,17,1701,WSPM8,DE063002,MSO,46.180375,-112.785078,160.0,WARM SPRINGS CREEK AT WARM SPRINGS MT,46 10 49.35,112 47 06.28,NOAA_HADS
12323800,MT,17010201,17,1701,GALM8,DDD5666C,MSO,46.208242,-112.76735,656.0,CLARK FORK NEAR GALEN MT,46 12 29.67,112 46 02.46,NOAA_HADS
12323850,MT,17010201,17,1701,LCGM8,DD60C09C,MSO,46.218572,-112.774167,60.5,LOST CREEK NEAR GALEN MT,46 13 06.86,112 46 27.00,NOAA_HADS
12324200,MT,17010201,17,1701,DLGM8,17397556,MSO,46.39765,-112.742539,1001.0,CLARK FORK AT DEER LODGE MT,46 23 51.54,112 44 33.14,NOAA_HADS
12324590,MT,17010201,17,1701,LBFM8,163F52D6,MSO,46.519483,-112.793172,414.0,LITTLE BLACKFOOT RIVER NEAR GARRISON MT,46 31 10.14,112 47 35.42,NOAA_HADS
12325500,MT,17010202,17,1701,FTCM8,DE0AB78A,MSO,46.232667,-113.299872,54.0,FLINT CREEK NEAR SOUTHERN CROSS MT,46 13 57.60,113 17 59.54,NOAA_HADS
12329500,MT,17010202,17,1701,FLNM8,DE0AC11A,MSO,46.463758,-113.240278,206.0,FLINT CREEK AT MAXVILLE MT,46 27 49.53,113 14 25.00,NOAA_HADS
12330000,MT,17010202,17,1701,BMXM8,164012E2,MSO,46.471653,-113.235769,70.5,BOULDER CREEK AT MAXVILLE MT,46 28 17.95,113 14 08.77,NOAA_HADS
12331500,MT,17010202,17,1701,FCKM8,DDD09128,MSO,46.628728,-113.150692,490.0,FLINT CREEK NEAR DRUMMOND MT,46 37 43.42,113 09 02.49,NOAA_HADS
12331800,MT,17010202,17,1701,DRMM8,DDCDE340,MSO,46.711914,-113.330781,2516.0,CLARK FORK NEAR DRUMMOND MT,46 42 42.89,113 19 50.81,NOAA_HADS
12332000,MT,17010202,17,1701,MFRM8,DD342216,MSO,46.184569,-113.501569,121.0,MIDDLE FORK ROCK CR NR PHILIPSBURG MT,46 11 04.45,113 30 05.65,NOAA_HADS
12334510,MT,17010202,17,1701,RCCM8,DE089492,MSO,46.722336,-113.683061,889.0,ROCK CREEK NEAR CLINTON MT,46 43 20.41,113 40 59.02,NOAA_HADS
12335100,MT,17010203,17,1701,BLAM8,DDD7B5F0,MSO,46.918794,-113.014986,498.0,BLACKFOOT R AB NEVADA CR NR HELMVILLE MT,46 55 07.66,113 00 53.95,NOAA_HADS
12340000,MT,17010203,17,1701,BONM8,D10F4762,MSO,46.899411,-113.756319,2287.0,BLACKFOOT RIVER NEAR BONNER MT,46 53 57.88,113 45 22.75,NOAA_HADS
12340500,MT,17010204,17,1701,ABOM8,DD116732,MSO,46.876764,-113.932119,6021.0,CLARK FORK ABOVE MISSOULA MT,46 52 36.35,113 55 55.63,NOAA_HADS
12354500,MT,17010204,17,1701,SRGM8,DE08E202,MSO,47.301639,-115.086869,10728.0,CLARK FORK AT ST. REGIS MT,47 18 05.90,115 05 12.73,NOAA_HADS
12342500,MT,17010205,17,1701,WFBM8,DE3AA28C,MSO,45.724828,-114.282294,317.0,WEST FORK BITTERROOT RIVER NR CONNER MT,45 43 29.38,114 16 56.26,NOAA_HADS
12344000,MT,17010205,17,1701,DARM8,DE39C064,MSO,45.97205,-114.141233,1050.0,BITTERROOT RIVER NEAR DARBY MT,45 58 19.38,114 08 28.44,NOAA_HADS
12350250,MT,17010205,17,1701,VICM8,D10F171E,MSO,46.4432,-114.123767,1944.0,BITTERROOT RIVER AT BELL CROSSING NR VICTOR MT,46 26 35.52,114 07 25.56,NOAA_HADS
12352500,MT,17010205,17,1701,BITM8,DDF7320A,MSO,46.831739,-114.054861,2824.0,BITTERROOT RIVER NEAR MISSOULA MT,46 49 54.26,114 03 17.50,NOAA_HADS
12355500,MT,17010206,17,1701,FCFM8,345CE6FA,MSO,48.495797,-114.126764,1556.0,N F FLATHEAD RIVER NR COLUMBIA FALLS MT,48 29 44.87,114 07 36.35,NOAA_HADS
12358500,MT,17010207,17,1701,WGCM8,345D81E6,MSO,48.495517,-114.010208,1125.0,M F FLATHEAD RIVER NEAR WEST GLACIER MT,48 29 43.86,114 00 36.75,NOAA_HADS
12363000,MT,17010208,17,1701,CFMM8,345D3268,MSO,48.361811,-114.18495,4473.0,FLATHEAD RIVER AT COLUMBIA FALLS MT,48 21 42.52,114 11 05.82,NOAA_HADS
12359800,MT,17010209,17,1701,TNCM8,345D211E,MSO,47.979097,-113.560683,1159.0,S F FLATHEAD R AB TWIN C NR HUNGRY HORSE MT,47 58 44.75,113 33 38.46,NOAA_HADS
12362500,MT,17010209,17,1701,SFCM8,3461860A,MSO,48.356578,-114.037858,1668.0,S F FLATHEAD RIVER NR COLUMBIA FALLS MT,48 21 23.68,114 02 16.29,NOAA_HADS
12365700,MT,17010210,17,1701,SRLM8,DE08B27E,MSO,48.21725,-114.313736,596.0,STILLWATER RIVER AT LAWRENCE PARK AT KALISPELL,48 13 02.10,114 18 49.45,NOAA_HADS
12366000,MT,17010210,17,1701,WHRM8,DE08C4EE,MSO,48.320186,-114.278594,170.0,WHITEFISH RIVER NEAR KALISPELL MT,48 19 12.67,114 16 42.94,NOAA_HADS
12370000,MT,17010211,17,1701,SWRM8,DE348008,MSO,48.024231,-113.978819,672.0,SWAN RIVER NEAR BIGFORK MT,48 01 27.23,113 58 43.75,NOAA_HADS
12372000,MT,17010212,17,1701,FPOM8,F0034686,MSO,47.680286,-114.246728,7079.0,FLATHEAD RIVER NEAR POLSON MT,47 40 49.03,114 14 48.22,NOAA_HADS
12377150,MT,17010212,17,1701,MSNM8,DE3A8460,MSO,47.320192,-113.987892,13.5,MISSION CREEK AB RESERVOIR NR ST. IGNATIUS MT,47 19 12.69,113 59 16.41,NOAA_HADS
12381400,MT,17010212,17,1701,ARLM8,DE3A9716,MSO,47.19555,-113.850736,57.6,SOUTH FORK JOCKO RIVER NEAR ARLEE MT,47 11 43.98,113 51 02.65,NOAA_HADS
12388700,MT,17010212,17,1701,PERM8,DDD5751A,MSO,47.366792,-114.585,9024.0,FLATHEAD RIVER AT PERMA MT,47 22 00.45,114 35 06.00,NOAA_HADS
12389000,MT,17010213,17,1701,PLNM8,DDF93662,MSO,47.4292,-114.856533,19964.0,CLARK FORK NEAR PLAINS MT,47 25 45.12,114 51 23.52,NOAA_HADS
12389500,MT,17010213,17,1701,THRM8,DDF940F2,MSO,47.591858,-115.229536,638.0,THOMPSON RIVER NEAR THOMPSON FALLS MT,47 35 30.69,115 13 46.33,NOAA_HADS
12390700,MT,17010213,17,1701,PRCM8,DE39A582,MSO,47.586061,-115.3551,182.0,PROSPECT CREEK AT THOMPSON FALLS MT,47 35 09.82,115 21 18.36,NOAA_HADS
12391950,ID,17010213,17,1701,CBBI1,DE0A470E,OTX,48.088056,-116.072778,22067.0,CLARK FORK RIVER BELOW CABINET GORGE DAM ID,48 05 17,116 04 22,NOAA_HADS
12392155,ID,17010213,17,1701,LTCI1,D113678C,OTX,48.151667,-116.181667,118.0,LIGHTNING CREEK AT CLARK FORK ID,48 09 06,116 10 54,NOAA_HADS
12395000,ID,17010215,17,1701,PRTI1,DDFB3396,OTX,48.208611,-116.913611,902.0,PRIEST RIVER NEAR PRIEST RIVER ID,48 12 31,116 54 49,NOAA_HADS
12395500,WA,17010216,17,1701,ATGW1,DE0A5478,OTX,48.182222,-117.034167,24200.0,PEND OREILLE RIVER AT NEWPORT WA,48 10 56,117 02 03,NOAA_HADS
12396500,WA,17010216,17,1701,BCAW1,DD7602D2,OTX,48.781111,-117.415278,24900.0,PEND OREILLE RIVER BELOW BOX CANYON NEAR IONE WA,48 46 52,117 24 55,NOAA_HADS
12398600,WA,17010216,17,1701,BDYW1,DE61730E,OTX,48.998889,-117.3525,25200.0,PEND OREILLE RIVER AT INTERNATIONAL BOUNDARY,48 59 56,117 21 09,NOAA_HADS
12411000,ID,17010301,17,1701,PRCI1,16DCE3DC,OTX,47.706111,-115.979167,335.0,NF COEUR D ALENE R AB SHOSHONE CK NR PRICHARD ID,47 42 22,115 58 45,NOAA_HADS
12413000,ID,17010301,17,1701,ENVI1,DDD6C19A,OTX,47.5722,-116.2528,895.0,NF COEUR D ALENE RIVER AT ENAVILLE ID,47 34 19.92,116 15 10.08,NOAA_HADS
12413860,ID,17010303,17,1701,HARI1,DDDBB46C,OTX,47.478611,-116.733056,1453.0,COEUR D ALENE RIVER NR HARRISON ID,47 28 43,116 43 59,NOAA_HADS
12413875,ID,17010304,17,1701,SJII1,173707AE,OTX,47.056111,-115.352222,108.0,ST JOE RIVER AT RED IVES RANGER STATION ID,47 03 22,115 21 08,NOAA_HADS
12414500,ID,17010304,17,1701,CLDI1,DDDBA71A,OTX,47.274444,-116.188889,1025.0,ST JOE RIVER AT CALDER ID,47 16 28,116 11 20,NOAA_HADS
12414900,ID,17010304,17,1701,SATI1,F0077626,OTX,47.176111,-116.493333,273.0,ST MARIES RIVER NR SANTA ID,47 10 34,116 29 36,NOAA_HADS
12415135,ID,17010304,17,1701,SJRI1,DD71E314,OTX,47.352222,-116.675556,1721.0,ST JOE RIVER AT RAMSDELL NR ST MARIES ID,47 21 08,116 40 32,NOAA_HADS
12417650,ID,17010305,17,1701,SRBI1,16DC863A,OTX,47.694722,-116.815278,3702.0,SPOKANE RIVER BLW BLACKWELL NR COEUR D ALENE ID,47 41 41,116 48 55,NOAA_HADS
12419000,ID,17010305,17,1701,PTFI1,DDDDA7D4,OTX,47.703056,-116.976944,3840.0,SPOKANE RIVER NEAR POST FALLS ID,47 42 11,116 58 37,NOAA_HADS
12422000,WA,17010305,17,1701,SGRW1,15D610EC,OTX,47.679167,-117.363611,4220.0,SPOKANE RIVER BELOW N GREENE ST AT SPOKANE WA,47 40 45,117 21 49,NOAA_HADS
12422500,WA,17010305,17,1701,SPOW1,DDEB3408,OTX,47.659444,-117.448056,4290.0,SPOKANE RIVER AT SPOKANE WA,47 39 34,117 26 53,NOAA_HADS
12422990,WA,17010306,17,1701,HCTW1,DDDBC2FC,OTX,47.202778,-117.039722,127.0,HANGMAN CREEK AT STATE LINE ROAD NEAR TEKOA WA,47 12 10,117 02 23,NOAA_HADS
12424000,WA,17010306,17,1701,HAGW1,DD70116A,OTX,47.652778,-117.448611,689.0,HANGMAN CREEK AT SPOKANE WA,47 39 10,117 26 55,NOAA_HADS
12433200,WA,17010307,17,1701,CHKW1,DDF083B0,OTX,47.863333,-117.857222,179.0,CHAMOKANE CREEK BELOW FALLS NEAR LONG LAKE WA,47 51 48,117 51 26,NOAA_HADS
12431000,WA,17010308,17,1701,LSDW1,DD3830FC,OTX,47.784722,-117.403333,665.0,LITTLE SPOKANE RIVER AT DARTFORD WA,47 47 05,117 24 12,NOAA_HADS
12431500,WA,17010308,17,1701,LSRW1,16DED3B2,OTX,47.781111,-117.495278,698.0,LITTLE SPOKANE RIVER NEAR DARTFORD WA,47 46 52,117 29 43,NOAA_HADS
12399500,WA,17020001,17,1702,IBCW1,DDC5E7E6,OTX,49.000833,-117.628333,59700.0,COLUMBIA RIVER AT INTERNATIONAL BOUNDARY,49 00 03,117 37 42,NOAA_HADS
12399510,WA,17020001,17,1702,CIBW1,3483436A,OTX,48.971389,-117.64,59700.0,COLUMBIA RIVER AUX GAGE AT INTERNATIONAL BOUNDARY,48 58 17,117 38 24,NOAA_HADS
12401500,WA,17020002,17,1702,FRYW1,DD8C0194,OTX,48.981389,-118.765278,2200.0,KETTLE RIVER NEAR FERRY WA,48 58 53,118 45 55,NOAA_HADS
12404500,WA,17020002,17,1702,LAUW1,DD8C12E2,OTX,48.984444,-118.215278,3800.0,KETTLE RIVER NEAR LAURIER WA,48 59 04,118 12 55,NOAA_HADS
12409000,WA,17020003,17,1702,KTFW1,17977768,OTX,48.594444,-118.061389,1007.0,COLVILLE RIVER AT KETTLE FALLS WA,48 35 40,118 03 41,NOAA_HADS
12434590,WA,17020004,17,1702,KLLW1,D112C58E,OTX,48.084444,-118.690278,900.0,SANPOIL RIVER ABOVE JACK CREEK AT KELLER WA,48 05 04,118 41 25,NOAA_HADS
12438000,WA,17020005,17,1702,COBW1,168996CE,OTX,48.006667,-119.664167,75700.0,COLUMBIA RIVER AT BRIDGEPORT WA,48 00 24,119 39 51,NOAA_HADS
12438905,WA,17020006,17,1702,ONMW1,DDD82600,OTX,48.970369,-119.418519,47.1,NINEMILE CREEK AT EASTLAKE RD NEAR OROVILLE WA,48 58 13.33,119 25 06.67,NOAA_HADS
12439500,WA,17020006,17,1702,OKAW1,DD763748,OTX,48.930833,-119.419167,3195.0,OKANOGAN RIVER AT OROVILLE WA,48 55 51,119 25 09,NOAA_HADS
12444290,WA,17020006,17,1702,ANTW1,169CD59A,OTX,48.759444,-119.408056,73.4,ANTOINE CREEK AT US HWY 97 NEAR ELLISFORDE WA,48 45 34,119 24 29,NOAA_HADS
12444550,WA,17020006,17,1702,BCRW1,DD09129A,OTX,48.701389,-119.441667,161.0,BONAPARTE CREEK AT TONASKET WA,48 42 05,119 26 30,NOAA_HADS
12445000,WA,17020006,17,1702,TONW1,DD5B864E,OTX,48.6325,-119.460556,7260.0,OKANOGAN RIVER NEAR TONASKET WA,48 37 57,119 27 38,NOAA_HADS
12445500,WA,17020006,17,1702,JRVW1,169CE000,OTX,48.497222,-119.525,68.2,JOHNSON CREEK NEAR RIVERSIDE WA,48 29 50,119 31 30,NOAA_HADS
12445900,WA,17020006,17,1702,OKCW1,169CF376,OTX,48.367222,-119.443889,119.0,OMAK CREEK NEAR OMAK WA,48 22 02,119 26 38,NOAA_HADS
12446150,WA,17020006,17,1702,SALW1,16924490,OTX,48.596389,-119.772778,36.7,NORTH FORK SALMON CREEK NEAR CONCONULLY WA,48 35 47,119 46 22,NOAA_HADS
12446400,WA,17020006,17,1702,SCCW1,1692627C,OTX,48.541111,-119.763056,64.6,WEST FORK SALMON CREEK NEAR CONCONULLY WA,48 32 28,119 45 47,NOAA_HADS
12446995,WA,17020006,17,1702,SADW1,16361780,OTX,48.405278,-119.620556,148.0,SALMON CREEK ABOVE DIVERSION NEAR OKANOGAN WA,48 24 19,119 37 14,NOAA_HADS
12447200,WA,17020006,17,1702,OKMW1,DDD8139A,OTX,48.281389,-119.703333,8080.0,OKANOGAN RIVER AT MALOTT WA,48 16 53,119 42 12,NOAA_HADS
12447285,WA,17020006,17,1702,LLPW1,16363FBE,OTX,48.283333,-119.707222,64.8,LOUP LOUP CREEK AT MALOTT WA,48 17 00,119 42 26,NOAA_HADS
12442500,WA,17020007,17,1702,NITW1,DE04E39E,OTX,48.984722,-119.617222,3550.0,SIMILKAMEEN RIVER NEAR NIGHTHAWK WA,48 59 05,119 37 02,NOAA_HADS
12447383,WA,17020008,17,1702,MZMW1,DE050296,OTX,48.57425,-120.385861,373.0,METHOW RIVER ABOVE GOAT CREEK NEAR MAZAMA WA,48 34 27.3,120 23 09.1,NOAA_HADS
12447390,WA,17020008,17,1702,ACMW1,163647FC,OTX,48.823056,-120.144722,22.1,ANDREWS CREEK NEAR MAZAMA WA,48 49 23,120 08 41,NOAA_HADS
12448000,WA,17020008,17,1702,WINW1,DE0511E0,OTX,48.477222,-120.185278,525.0,CHEWUCH RIVER AT WINTHROP WA,48 28 38,120 11 07,NOAA_HADS
12448500,WA,17020008,17,1702,WTHW1,DD5B9538,OTX,48.473611,-120.176111,1007.0,METHOW RIVER AT WINTHROP WA,48 28 25,120 10 34,NOAA_HADS
12448998,WA,17020008,17,1702,TWIW1,DE05247A,OTX,48.37,-120.1475,245.0,TWISP RIVER NEAR TWISP WA,48 22 12,120 08 51,NOAA_HADS
12449500,WA,17020008,17,1702,MOTW1,16DEB654,OTX,48.365278,-120.115,1301.0,METHOW RIVER AT TWISP WA,48 21 55,120 06 54,NOAA_HADS
12449950,WA,17020008,17,1702,PATW1,DD0AB56C,OTX,48.0775,-119.983889,1772.0,METHOW RIVER NEAR PATEROS WA,48 04 39,119 59 02,NOAA_HADS
12451000,WA,17020009,17,1702,STHW1,DDDEC53C,OTX,48.329722,-120.690556,321.0,STEHEKIN RIVER AT STEHEKIN WA,48 19 47,120 41 26,NOAA_HADS
12452800,WA,17020010,17,1702,ARDW1,DD09A114,OTX,47.818611,-120.421944,203.0,ENTIAT RIVER NEAR ARDENVOIR WA,47 49 07,120 25 19,NOAA_HADS
12452890,WA,17020010,17,1702,MRAW1,1739F342,OTX,47.736944,-120.3675,92.4,MAD RIVER AT ARDENVOIR WA,47 44 13,120 22 03,NOAA_HADS
12452990,WA,17020010,17,1702,ENRW1,DE6607AA,OTX,47.663333,-120.249444,419.0,ENTIAT RIVER NEAR ENTIAT WA,47 39 48,120 14 58,NOAA_HADS
12456500,WA,17020011,17,1702,CHIW1,DE04F0E8,OTX,47.8375,-120.661111,170.0,CHIWAWA RIVER NEAR PLAIN WA,47 50 15,120 39 40,NOAA_HADS
12457000,WA,17020011,17,1702,WPLW1,DE00A5AE,OTX,47.763056,-120.665,591.0,WENATCHEE RIVER AT PLAIN WA,47 45 47,120 39 54,NOAA_HADS
12458000,WA,17020011,17,1702,ICIW1,173AF44C,OTX,47.541111,-120.718889,193.0,ICICLE CREEK ABOVE SNOW CREEK NEAR LEAVENWORTH WA,47 32 28,120 43 08,NOAA_HADS
12459000,WA,17020011,17,1702,PESW1,16392488,OTX,47.583333,-120.618333,1000.0,WENATCHEE RIVER AT PESHASTIN WA,47 35 00,120 37 06,NOAA_HADS
12462500,WA,17020011,17,1702,MONW1,DE0114DA,OTX,47.499444,-120.423333,1301.0,WENATCHEE RIVER AT MONITOR WA,47 29 58,120 25 24,NOAA_HADS
12465000,WA,17020013,17,1702,CRBW1,DE05370C,OTX,47.360556,-118.848889,1042.0,CRAB CREEK AT IRBY WA,47 21 38,118 50 56,NOAA_HADS
12467000,WA,17020015,17,1702,MSLW1,1636AADC,OTX,47.189444,-119.264722,2228.0,CRAB CREEK NEAR MOSES LAKE WA,47 11 22,119 15 53,NOAA_HADS
12472600,WA,17020015,17,1702,CCBW1,1714F1CA,OTX,46.83,-119.83,4840.0,CRAB CREEK NEAR BEVERLY WA,46 49 48,119 49 48,NOAA_HADS
12472800,WA,17020016,17,1702,PRDW1,DD0E03D8,PDT,46.628889,-119.863611,96000.0,COLUMBIA RIVER BELOW PRIEST RAPIDS DAM WA,46 37 44,119 51 49,NOAA_HADS
12484500,WA,17030001,17,1703,UMTW1,DD00322A,PDT,46.862778,-120.478889,1594.0,YAKIMA RIVER AT UMTANUM WA,46 51 46,120 28 44,NOAA_HADS
12488500,WA,17030002,17,1703,AMRW1,DDDE26CE,PDT,46.977778,-121.1675,78.9,AMERICAN RIVER NEAR NILE WA,46 58 40,121 10 03,NOAA_HADS
12500450,WA,17030003,17,1703,YUNW1,DDD596E8,PDT,46.534444,-120.466111,3479.0,YAKIMA RIVER ABOVE AHTANUM CREEK AT UNION GAP WA,46 32 04,120 27 58,NOAA_HADS
12502500,WA,17030003,17,1703,AHUW1,345B62DA,PDT,46.536111,-120.472222,173.0,AHTANUM CREEK AT UNION GAP WA,46 32 10,120 28 20,NOAA_HADS
12506000,WA,17030003,17,1703,TOPW1,171193EC,PDT,46.311111,-120.786944,122.0,TOPPENISH CREEK NEAR FORT SIMCOE WA,46 18 40,120 47 13,NOAA_HADS
12510500,WA,17030003,17,1703,KIOW1,162A41FE,PDT,46.253611,-119.476944,5615.0,YAKIMA RIVER AT KIONA WA,46 15 13,119 28 37,NOAA_HADS
13032500,ID,17040104,17,1704,PALI1,347DD074,PIH,43.350833,-111.218889,5225.0,SNAKE RIVER NR IRWIN ID,43 21 03,111 13 08,NOAA_HADS
13037500,ID,17040104,17,1704,HEII1,347DC302,PIH,43.6125,-111.66,5752.0,SNAKE RIVER NR HEISE ID,43 36 45,111 39 36,NOAA_HADS
13038000,ID,17040201,17,1704,DRYI1,3443DCBE,PIH,43.638889,-111.716111,,DRY BED NR RIRIE ID,43 38 20,111 42 58,NOAA_HADS
13057000,ID,17040201,17,1704,MENI1,D10BE2A0,PIH,43.752778,-111.979167,,SNAKE RIVER NR MENAN ID,43 45 10,111 58 45,NOAA_HADS
13057132,ID,17040201,17,1704,GWSI1,D10BC44C,PIH,43.600833,-112.061944,,GREAT WESTERN SPILLBACK NR IDAHO FALLS ID,43 36 03,112 03 43,NOAA_HADS
13057155,ID,17040201,17,1704,SIFI1,D104E432,PIH,43.604722,-112.058611,9533.0,SNAKE RIVER AB EAGLE ROCK NR IDAHO FALLS ID,43 36 17,112 03 31,NOAA_HADS
13058520,ID,17040201,17,1704,WBFI1,344DC572,PIH,43.576389,-111.913056,,WILLOW CREEK FLOODWAY CHANNEL NR UCON ID,43 34 35,111 54 47,NOAA_HADS
13058529,ID,17040201,17,1704,WFWI1,DDE0114C,PIH,43.574722,-112.048056,,WILLOW CR FLOODWAY CHANNEL AT MOUTH NR ID FALLS ID,43 34 29,112 02 53,NOAA_HADS
13039500,ID,17040202,17,1704,HENI1,344F2374,PIH,44.594444,-111.349722,94.6,HENRYS FORK NR LAKE ID,44 35 40,111 20 59,NOAA_HADS
13046000,ID,17040203,17,1704,HFAI1,34432C3A,PIH,44.069722,-111.510556,1097.0,HENRYS FORK NR ASHTON ID,44 04 11,111 30 38,NOAA_HADS
13046995,ID,17040203,17,1704,FAYI1,D111818A,PIH,44.061944,-111.151944,323.0,FALL RIVER AB YELLOWSTONE CANAL NR SQUIRREL ID,44 03 43,111 09 07,NOAA_HADS
13047500,ID,17040203,17,1704,FALI1,34405DA4,PIH,44.068611,-111.241389,329.0,FALL RIVER NR SQUIRREL ID,44 04 07,111 14 29,NOAA_HADS
13047600,ID,17040203,17,1704,FRAI1,DD71D68E,PIH,44.056111,-111.358611,337.0,FALL RIVER NR ASHTON ID,44 03 22,111 21 31,NOAA_HADS
13049500,ID,17040203,17,1704,CHEI1,344361E2,PIH,44.018333,-111.566667,503.0,FALL RIVER NR CHESTER ID,44 01 06,111 34 00,NOAA_HADS
13050500,ID,17040203,17,1704,ANTI1,34405376,PIH,43.966944,-111.6725,1770.0,HENRYS FORK AT ST ANTHONY ID,43 58 01,111 40 21,NOAA_HADS
13056500,ID,17040203,17,1704,REXI1,34426DCA,PIH,43.825833,-111.905,2920.0,HENRYS FORK NR REXBURG ID,43 49 33,111 54 18,NOAA_HADS
13055000,ID,17040204,17,1704,TEAI1,34430AD6,PIH,43.927222,-111.613889,876.0,TETON RIVER NR ST ANTHONY ID,43 55 38,111 36 50,NOAA_HADS
13057940,ID,17040205,17,1704,WTXI1,3440BE56,PIH,43.441944,-111.728333,568.0,WILLOW CREEK BL TEX CREEK NR RIRIE ID,43 26 31,111 43 42,NOAA_HADS
13058000,ID,17040205,17,1704,RIRI1,DE05419C,PIH,43.583333,-111.746111,627.0,WILLOW CREEK NR RIRIE ID,43 35 00,111 44 46,NOAA_HADS
13060000,ID,17040206,17,1704,SHYI1,34411C54,PIH,43.413056,-112.135,9790.0,SNAKE RIVER NR SHELLEY ID,43 24 47,112 08 06,NOAA_HADS
13062500,ID,17040206,17,1704,SNAI1,34410F22,PIH,43.1975,-112.369167,9950.0,SNAKE RIVER AT BLACKFOOT ID,43 11 51,112 22 09,NOAA_HADS
13069500,ID,17040206,17,1704,BFTI1,3440B084,PIH,43.125278,-112.518889,11310.0,SNAKE RIVER NR BLACKFOOT ID,43 07 31,112 31 08,NOAA_HADS
13063000,ID,17040207,17,1704,BKHI1,D111710E,PIH,42.815278,-111.506667,333.0,BLACKFOOT RIVER AB RESERVOIR NR HENRY ID,42 48 55,111 30 24,NOAA_HADS
13066000,ID,17040207,17,1704,SHLI1,D10BB2DC,PIH,43.262778,-112.047778,897.0,BLACKFOOT RIVER NR SHELLEY ID,43 15 46,112 02 52,NOAA_HADS
13068495,ID,17040207,17,1704,BBYI1,D10C9604,PIH,43.170833,-112.387778,,BLACKFOOT RIVER BYPASS NR BLACKFOOT ID,43 10 15,112 23 16,NOAA_HADS
13068500,ID,17040207,17,1704,BLFI1,DDDFF25C,PIH,43.130556,-112.476667,1295.0,BLACKFOOT RIVER NR BLACKFOOT ID,43 07 50,112 28 36,NOAA_HADS
13073000,ID,17040208,17,1704,TOPI1,15D6858E,PIH,42.624722,-112.088056,576.0,PORTNEUF RIVER AT TOPAZ ID,42 37 29,112 05 17,NOAA_HADS
13075983,ID,17040208,17,1704,SPSI1,F0059020,PIH,43.0425,-112.55,18.0,SPRING CREEK AT SHEEPSKIN RD NR FORT HALL ID,43 02 33,112 33 00,NOAA_HADS
13077000,ID,17040209,17,1704,AMFI1,3443D26C,PIH,42.7675,-112.879444,13600.0,SNAKE RIVER AT NEELEY ID,42 46 03,112 52 46,NOAA_HADS
13081500,ID,17040209,17,1704,MDMI1,34B01268,PIH,42.672778,-113.500278,15700.0,SNAKE R NR MINIDOKA ID AT HOWELLS FERRY,42 40 22,113 30 01,NOAA_HADS
13078000,ID,17040210,17,1704,RRVI1,DD6413CE,PIH,42.063611,-113.451389,409.0,RAFT RIVER AB ONEMILE CREEK NR MALTA ID,42 03 49,113 27 05,NOAA_HADS
13079300,ID,17040210,17,1704,CCBI1,1733419E,PIH,42.277669,-113.496342,,CASSIA CREEK BELOW BLACKSMITH CK ID,42 16 39.61,113 29 46.83,NOAA_HADS
13082500,ID,17040211,17,1704,GOSI1,D10BD73A,PIH,42.126111,-113.935556,631.0,GOOSE CREEK AB TRAPPER CREEK NR OAKLEY ID,42 07 34,113 56 08,NOAA_HADS
13087995,ID,17040212,17,1704,MILI1,344960B0,BOI,42.528056,-114.018333,,SNAKE RIVER GAGING STATION AT MILNER ID,42 31 41,114 01 06,NOAA_HADS
13105000,NV,17040213,17,1704,SFLN2,DD6CA4E6,LKN,41.944722,-114.688611,1401.0,SALMON FALLS CREEK NR SAN JACINTO NV,41 56 41,114 41 19,NOAA_HADS
13112000,ID,17040214,17,1704,CCCI1,D10CA39E,PIH,44.002778,-112.221111,384.0,CAMAS CREEK AT CAMAS ID,44 00 10,112 13 16,NOAA_HADS
13116500,ID,17040215,17,1704,MEDI1,DE001620,PIH,44.259167,-112.410278,261.0,MEDICINE LODGE CREEK NR SMALL ID,44 15 33,112 24 37,NOAA_HADS
13118700,ID,17040217,17,1704,LLRI1,D10D51E0,PIH,44.138611,-113.245278,436.0,LITTLE LOST RIVER BL WET CREEK NR HOWE ID,44 08 19,113 14 43,NOAA_HADS
13118975,ID,17040217,17,1704,LLDI1,16E6719C,PIH,43.884825,-113.097008,,LITTLE LOST RIVER AB FLOOD DIVERSION NR HOWE ID,43 53 05.37,113 05 49.23,NOAA_HADS
13119000,ID,17040217,17,1704,LLHI1,16DC002E,PIH,43.870278,-113.088056,697.0,LITTLE LOST RIVER NR HOWE ID,43 52 13,113 05 17,NOAA_HADS
13120500,ID,17040218,17,1704,HWRI1,DD0987F8,PIH,43.998333,-114.021111,440.0,BIG LOST RIVER AT HOWELL RANCH NR CHILLY ID,43 59 54,114 01 16,NOAA_HADS
13127000,ID,17040218,17,1704,MAKI1,DDE1355A,PIH,43.939167,-113.648333,801.0,BIG LOST RIVER BL MACKAY RES NR MACKAY ID,43 56 21,113 38 54,NOAA_HADS
13131000,ID,17040218,17,1704,ACKI1,17B150A4,PIH,43.733611,-113.514722,218.0,ANTELOPE CREEK NR DARLINGTON ID,43 44 01,113 30 53,NOAA_HADS
13135520,ID,17040219,17,1704,NFBI1,162A1182,PIH,43.786111,-114.419167,40.0,NF BIG WOOD RIVER NR SAWTOOTH NRA HQ NR KETCHUM ID,43 47 10,114 25 09,NOAA_HADS
13138000,ID,17040219,17,1704,EFGI1,163F2446,PIH,43.603056,-114.330278,86.1,EAST FORK BIG WOOD RIVER AT GIMLET ID,43 36 11,114 19 49,NOAA_HADS
13142500,ID,17040219,17,1704,BWMI1,DDEDD734,PIH,43.248056,-114.356667,1611.0,BIG WOOD RIVER BL MAGIC DAM NR RICHFIELD ID,43 14 53,114 21 24,NOAA_HADS
13141500,ID,17040220,17,1704,CMCI1,D1132486,BOI,43.332778,-114.541944,626.0,CAMAS CREEK NR BLAINE ID,43 19 58,114 32 31,NOAA_HADS
13147900,ID,17040221,17,1704,LWOI1,345DC2EC,PIH,43.493056,-114.057222,248.0,LITTLE WOOD RIVER AB HIGH FIVE CREEK NR CAREY ID,43 29 35,114 03 26,NOAA_HADS
13148500,ID,17040221,17,1704,WODI1,345AA53E,PIH,43.39,-113.999722,310.0,LITTLE WOOD RIVER NR CAREY ID,43 23 24,113 59 59,NOAA_HADS
13154500,ID,17050101,17,1705,SKHI1,D113111C,BOI,43.002222,-115.2025,35800.0,SNAKE RIVER AT KING HILL ID,43 00 08,115 12 09,NOAA_HADS
13161500,NV,17050102,17,1705,BRON2,DE94BD16,LKN,41.933333,-115.673611,382.0,BRUNEAU RV AT ROWLAND NV,41 56 00,115 40 25,NOAA_HADS
13162225,NV,17050102,17,1705,JBGN2,DE94B3C4,LKN,41.890556,-115.427778,30.6,JARBIDGE RV BLW JARBIDGE NV,41 53 26,115 25 40,NOAA_HADS
13168500,ID,17050102,17,1705,HOTI1,DD558226,BOI,42.771111,-115.720278,2686.0,BRUNEAU RIVER NR HOT SPRING ID,42 46 16,115 43 13,NOAA_HADS
13172500,ID,17050103,17,1705,SWAI1,16DCD646,BOI,43.254814,-116.390639,41900.0,SNAKE RIVER NR MURPHY ID,43 15 17.33,116 23 26.30,NOAA_HADS
13174500,NV,17050104,17,1705,OGCN2,DE94D8F0,LKN,41.688889,-115.843889,209.0,OWYHEE RV NR GOLD CK NV,41 41 20,115 50 38,NOAA_HADS
13175100,NV,17050104,17,1705,OMCN2,DE954F68,LKN,41.860556,-115.988333,391.0,OWYHEE RV NR MOUNTAIN CITY NV,41 51 38,115 59 18,NOAA_HADS
13176400,ID,17050104,17,1705,ORCI1,DE34B592,BOI,42.261369,-116.868442,2140.0,EF OWYHEE RIVER AT CRUTCHER CROSSING ID,42 15 40.93,116 52 06.39,NOAA_HADS
13181000,OR,17050107,17,1705,ROMO3,347EB29C,BOI,42.866389,-117.649167,8000.0,OWYHEE RIVER NR ROME OR,42 51 59,117 38 57,NOAA_HADS
13183000,OR,17050110,17,1705,OWYO3,347CF462,BOI,43.654444,-117.255833,11160.0,OWYHEE RIVER BELOW OWYHEE DAM OR,43 39 16,117 15 21,NOAA_HADS
13185000,ID,17050112,17,1705,BTSI1,347D937E,BOI,43.668056,-115.725278,832.0,BOISE RIVER NR TWIN SPRINGS ID,43 40 05,115 43 31,NOAA_HADS
13200000,ID,17050112,17,1705,MORI1,344FE66A,BOI,43.648056,-115.989722,397.0,MORES CREEK AB ROBIE CREEK NR ARROWROCK DAM ID,43 38 53,115 59 23,NOAA_HADS
13186000,ID,17050113,17,1705,BRFI1,347DA6E4,BOI,43.495833,-115.308056,641.0,SF BOISE RIVER NR FEATHERVILLE ID,43 29 45,115 18 29,NOAA_HADS
13190500,ID,17050113,17,1705,ANDI1,16E6C212,BOI,43.343611,-115.4775,978.0,SF BOISE RIVER AT ANDERSON RANCH DAM ID,43 20 37,115 28 39,NOAA_HADS
13192200,ID,17050113,17,1705,SFNI1,163B6276,BOI,43.550556,-115.721944,1172.0,SF BOISE RIVER AT NEAL BRIDGE NR ARROWROCK DAM ID,43 33 02,115 43 19,NOAA_HADS
13206000,ID,17050114,17,1705,BIGI1,34748654,BOI,43.660556,-116.279167,2773.0,BOISE RIVER AT GLENWOOD BRIDGE NR BOISE ID,43 39 38,116 16 45,NOAA_HADS
13215000,OR,17050116,17,1705,WARO3,3484C74A,BOI,43.574444,-118.209722,1100.0,MALHEUR RIVER BEL WARMSPRINGS RES NR RIVERSIDE OR,43 34 28,118 12 35,NOAA_HADS
13217500,OR,17050116,17,1705,BEUO3,3484A2AC,BOI,43.9075,-118.153333,440.0,NORTH FORK MALHEUR RIVER AT BEULAH OR,43 54 27,118 09 12,NOAA_HADS
13233300,OR,17050117,17,1705,VALO3,347EA1EA,BOI,43.9875,-117.218889,3880.0,MALHEUR RIVER BELOW NEVADA DAM NEAR VALE OR,43 59 15,117 13 08,NOAA_HADS
13235000,ID,17050120,17,1705,PRLI1,347D63FA,BOI,44.085278,-115.622222,446.0,SOUTH FORK PAYETTE RIVER AT LOWMAN ID,44 05 07,115 37 20,NOAA_HADS
13236500,ID,17050120,17,1705,DRBI1,34614314,BOI,44.291944,-115.641944,109.0,DEADWOOD RIVER BL DEADWOOD RES NR LOWMAN ID,44 17 31,115 38 31,NOAA_HADS
13247500,ID,17050122,17,1705,HRSI1,347D708C,BOI,43.943333,-116.196667,2220.0,PAYETTE RIVER NR HORSESHOE BEND ID,43 56 36,116 11 48,NOAA_HADS
13251000,ID,17050122,17,1705,PRPI1,347D3386,BOI,44.042222,-116.925278,3240.0,PAYETTE RIVER NR PAYETTE ID,44 02 32,116 55 31,NOAA_HADS
13239000,ID,17050123,17,1705,PAYI1,347D5660,BOI,44.907222,-116.119167,144.0,NF PAYETTE RIVER AT MCCALL ID,44 54 26,116 07 09,NOAA_HADS
13240000,ID,17050123,17,1705,LFPI1,1676F7AE,BOI,44.913611,-115.997222,48.9,LAKE FORK PAYETTE RIVER AB JUMBO CR NR MCCALL ID,44 54 49,115 59 50,NOAA_HADS
13246000,ID,17050123,17,1705,BNKI1,DE3322C4,BOI,44.114167,-116.107222,921.0,NF PAYETTE RIVER NR BANKS ID,44 06 51,116 06 26,NOAA_HADS
13258500,ID,17050124,17,1705,CAMI1,163F2A94,BOI,44.579444,-116.643333,597.0,WEISER RIVER NR CAMBRIDGE ID,44 34 46,116 38 36,NOAA_HADS
13265500,ID,17050124,17,1705,CRWI1,DD55A4CA,BOI,44.291811,-116.782631,288.0,CRANE CREEK AT MOUTH NR WEISER ID,44 17 30.52,116 46 57.47,NOAA_HADS
13266000,ID,17050124,17,1705,WSRI1,DD55B7BC,BOI,44.27,-116.772222,1450.0,WEISER RIVER NR WEISER ID,44 16 12,116 46 20,NOAA_HADS
13290450,ID,17060101,17,1706,HCDI1,347F85FC,BOI,45.254444,-116.696944,73300.0,SNAKE RIVER AT HELLS CANYON DAM ID-OR STATE LINE,45 15 16,116 41 49,NOAA_HADS
13317660,ID,17060103,17,1706,SNMI1,DD6FE0E2,OTX,46.003056,-116.916944,,SNAKE RIVER AT MCDUFF RAPIDS AT CHINA GARDEN ID,46 00 11,116 55 01,NOAA_HADS
13334300,WA,17060103,17,1706,ANAW1,DD5CA296,OTX,46.097222,-116.976667,92960.0,SNAKE RIVER NEAR ANATONE WA,46 05 50,116 58 36,NOAA_HADS
13335050,WA,17060103,17,1706,ACAW1,17B9A486,OTX,46.340833,-117.055,323.0,ASOTIN CREEK AT ASOTIN WA,46 20 27,117 03 18,NOAA_HADS
13331500,OR,17060105,17,1706,MNMO3,DD56104A,PDT,45.62,-117.725556,240.0,MINAM RIVER AT MINAM OR,45 37 12,117 43 32,NOAA_HADS
13333000,OR,17060106,17,1706,TRYO3,175FC424,PDT,45.945833,-117.45,3275.0,GRANDE RONDE RIVER AT TROY OR,45 56 45,117 27 00,NOAA_HADS
13344500,WA,17060107,17,1706,TUCW1,172F310C,PDT,46.505556,-118.065278,431.0,TUCANNON RIVER NEAR STARBUCK WA,46 30 20,118 03 55,NOAA_HADS
13346800,ID,17060108,17,1706,PACI1,DE0A319E,OTX,46.731944,-117.024167,17.7,PARADISE CR AT UNIVERSITY OF IDAHO AT MOSCOW ID,46 43 55,117 01 27,NOAA_HADS
13348000,WA,17060108,17,1706,PULW1,DE3A417E,OTX,46.7325,-117.18,132.0,SOUTH FORK PALOUSE RIVER AT PULLMAN WA,46 43 57,117 10 48,NOAA_HADS
13351000,WA,17060108,17,1706,HOPW1,DE00F5D2,OTX,46.758611,-118.147778,2500.0,PALOUSE RIVER AT HOOPER WA,46 45 31,118 08 52,NOAA_HADS
13296000,ID,17060201,17,1706,YFSI1,16EA0690,PIH,44.275556,-114.734444,189.0,YANKEE FORK SALMON RIVER NR CLAYTON ID,44 16 32,114 44 04,NOAA_HADS
13296500,ID,17060201,17,1706,SRYI1,D1116278,MSO,44.268333,-114.732778,807.0,SALMON RIVER BL YANKEE FORK NR CLAYTON ID,44 16 06,114 43 58,NOAA_HADS
13297330,ID,17060201,17,1706,TOMI1,D11157E2,PIH,44.270278,-114.516667,29.1,THOMPSON CREEK NR CLAYTON ID,44 16 13,114 31 00,NOAA_HADS
13297355,ID,17060201,17,1706,PNBI1,D10A03A8,PIH,44.290833,-114.471667,71.6,PAASASIKWANA NAOKWAIDE BL BRUNO CK,44 17 27,114 28 18,NOAA_HADS
13302005,ID,17060202,17,1706,PAHI1,1734264C,MSO,44.691667,-114.046944,830.0,PAHSIMEROI RIVER AT ELLIS ID,44 41 30,114 02 49,NOAA_HADS
13307000,ID,17060203,17,1706,SALI1,D10E15E4,MSO,45.3225,-114.44,6239.0,SALMON RIVER NR SHOUP ID,45 19 21,114 26 24,NOAA_HADS
13309220,ID,17060205,17,1706,MIDI1,DDE113B6,BOI,44.721519,-115.014347,1042.0,MF SALMON RIVER AT MF LODGE NR YELLOW PINE ID,44 43 17.47,115 00 51.65,NOAA_HADS
13310199,ID,17060206,17,1706,MSSI1,DD9E969C,BOI,45.293611,-114.596389,2876.0,MF SALMON RIVER AT MOUTH NR SHOUP ID,45 17 37,114 35 47,NOAA_HADS
13310700,ID,17060208,17,1706,KRSI1,D113026A,BOI,44.986944,-115.725,330.0,SF SALMON RIVER NR KRASSEL RANGER STATION ID,44 59 13,115 43 30,NOAA_HADS
13311000,ID,17060208,17,1706,SFSI1,1717C35E,BOI,44.905722,-115.3295,19.3,EF OF SF SALMON RIVER AT STIBNITE ID,44 54 20.6,115 19 46.2,NOAA_HADS
13311450,ID,17060208,17,1706,SUGI1,16EA207C,BOI,44.936361,-115.337222,,SUGAR CREEK NR STIBNITE ID,44 56 10.9,115 20 14.0,NOAA_HADS
13313000,ID,17060208,17,1706,JOHI1,DD09F168,BOI,44.961667,-115.5,218.0,JOHNSON CREEK AT YELLOW PINE ID,44 57 42,115 30 00,NOAA_HADS
13317000,ID,17060209,17,1706,WHBI1,F0032360,MSO,45.750278,-116.323889,13421.0,SALMON RIVER AT WHITE BIRD ID,45 45 01,116 19 26,NOAA_HADS
13316500,ID,17060210,17,1706,RIGI1,DDC6E0E8,MSO,45.413056,-116.325278,576.0,LITTLE SALMON RIVER AT RIGGINS ID,45 24 47,116 19 31,NOAA_HADS
13336500,ID,17060302,17,1706,SELI1,DD0BC106,MSO,46.086667,-115.513889,1915.0,SELWAY RIVER NR LOWELL ID,46 05 12,115 30 50,NOAA_HADS
13337000,ID,17060303,17,1706,LOCI1,1789D466,MSO,46.150833,-115.587222,1178.0,LOCHSA RIVER NR LOWELL ID,46 09 03,115 35 14,NOAA_HADS
13338500,ID,17060305,17,1706,STII1,17CE539A,MSO,46.086389,-115.976667,1168.0,SF CLEARWATER RIVER AT STITES ID,46 05 11,115 58 36,NOAA_HADS
13340000,ID,17060306,17,1706,ORFI1,DD6400B8,MSO,46.478333,-116.2575,5507.0,CLEARWATER RIVER AT OROFINO ID,46 28 42,116 15 27,NOAA_HADS
13341050,ID,17060306,17,1706,PEKI1,D10D3406,OTX,46.500278,-116.3925,7976.0,CLEARWATER RIVER NR PECK ID,46 30 01,116 23 33,NOAA_HADS
13342500,ID,17060306,17,1706,SPDI1,17B1653E,OTX,46.448333,-116.8275,9283.0,CLEARWATER RIVER AT SPALDING ID,46 26 54,116 49 39,NOAA_HADS
13340600,ID,17060307,17,1706,CRSI1,F00316FA,MSO,46.840556,-115.621111,1296.0,NF CLEARWATER RIVER NR CANYON RANGER STATION ID,46 50 26,115 37 16,NOAA_HADS
14013000,WA,17070102,17,1707,MLKW1,DDEB8786,PDT,46.008056,-118.1175,59.6,MILL CREEK NEAR WALLA WALLA WA,46 00 29,118 07 03,NOAA_HADS
14013700,WA,17070102,17,1707,FMBW1,DDF1075E,PDT,46.085833,-118.227222,92.7,MILL CREEK AT FIVE MILE RD BR NR WALLA WALLA WA,46 05 09,118 13 38,NOAA_HADS
14015000,WA,17070102,17,1707,MLLW1,DE5545DE,PDT,46.076389,-118.2725,95.7,MILL CREEK AT WALLA WALLA WA,46 04 35,118 16 21,NOAA_HADS
14016820,WA,17070102,17,1707,TGAW1,DDF48858,PDT,46.277042,-118.111572,259.9,TOUCHET RIVER AT GALLAHER RD NEAR WAITSBURG WA,46 16 37.35,118 06 41.66,NOAA_HADS
14018500,WA,17070102,17,1707,TCHW1,DDD5859E,PDT,46.027778,-118.728611,1657.0,WALLA WALLA RIVER NEAR TOUCHET WA,46 01 40,118 43 43,NOAA_HADS
14020000,OR,17070103,17,1707,GIBO3,DDD031D0,PDT,45.719722,-118.322222,131.0,UMATILLA RIVER ABOVE MEACHAM CREEK NR GIBBON OR,45 43 11,118 19 20,NOAA_HADS
14020300,OR,17070103,17,1707,MCGO3,169CC6EC,PDT,45.689125,-118.354447,176.0,MEACHAM CREEK AT GIBBON OR,45 41 20.85,118 21 16.01,NOAA_HADS
14020850,OR,17070103,17,1707,PDUO3,DDD04740,PDT,45.671667,-118.735556,441.0,UMATILLA R AT W RESERVATION BNDY NR PENDLETON OR,45 40 18,118 44 08,NOAA_HADS
14033500,OR,17070103,17,1707,UMAO3,16E6F788,PDT,45.902694,-119.327083,2290.0,UMATILLA RIVER NEAR UMATILLA OR,45 54 09.7,119 19 37.5,NOAA_HADS
14034470,OR,17070104,17,1707,HWLO3,CE7B0A04,PDT,45.340833,-119.514722,67.9,WILLOW CREEK ABV WILLOW CR LAKE NR HEPPNER OR,45 20 27,119 30 53,NOAA_HADS
14034480,OR,17070104,17,1707,BLMO3,CE36910E,PDT,45.332222,-119.54,26.3,BALM FORK NEAR HEPPNER OR,45 19 56,119 32 24,NOAA_HADS
14113200,OR,17070105,17,1707,MSRO3,16E85318,PDT,45.649167,-121.376111,41.5,MOSIER CREEK NEAR MOSIER OR,45 38 57,121 22 34,NOAA_HADS
14120000,OR,17070105,17,1707,HODO3,DD9901CA,PQR,45.6545,-121.5488,279.0,HOOD RIVER AT TUCKER BRIDGE NEAR HOOD RIVER OR,45 39 16.20,121 32 55.68,NOAA_HADS
14123500,WA,17070105,17,1707,UNDW1,DD799122,PQR,45.752222,-121.525833,386.0,WHITE SALMON RIVER NEAR UNDERWOOD WA,45 45 08,121 31 33,NOAA_HADS
14128500,WA,17070105,17,1707,WCNW1,16DCB3A0,PQR,45.726944,-121.793611,225.0,WIND RIVER NEAR CARSON WA,45 43 37,121 47 37,NOAA_HADS
14107000,WA,17070106,17,1707,KLCW1,DD5DB31A,PDT,46.265,-121.243889,151.0,KLICKITAT RIVER ABOVE WEST FORK NEAR GLENWOOD WA,46 15 54,121 14 38,NOAA_HADS
14111400,WA,17070106,17,1707,KCKW1,DE3A5208,PDT,45.9625,-121.101111,759.0,KLICKITAT RIVER BL SUMMIT CREEK NEAR GLENWOOD WA,45 57 45,121 06 04,NOAA_HADS
14113000,WA,17070106,17,1707,PITW1,178924E2,PDT,45.756667,-121.208889,1297.0,KLICKITAT RIVER NEAR PITT WA,45 45 24,121 12 32,NOAA_HADS
14036860,OR,17070201,17,1707,JBMO3,DD9705A2,PDT,44.358056,-118.575,40.14,JOHN DAY R AT BLUE MTN HOT SPGS NR PRAIRIE CITYOR,44 21 29,118 34 30,NOAA_HADS
14038530,OR,17070201,17,1707,JHNO3,DDC561F2,PDT,44.418611,-118.905278,386.0,JOHN DAY RIVER NEAR JOHN DAY OR,44 25 07,118 54 19,NOAA_HADS
14046000,OR,17070202,17,1707,MONO3,DD97234E,PDT,44.814917,-119.432,2520.0,NORTH FORK JOHN DAY RIVER AT MONUMENT OR,44 48 53.7,119 25 55.2,NOAA_HADS
14044000,OR,17070203,17,1707,RTRO3,DDC57284,PDT,44.888889,-119.140278,515.0,MIDDLE FORK JOHN DAY RIVER AT RITTER OR,44 53 20,119 08 25,NOAA_HADS
14046500,OR,17070204,17,1707,SERO3,DDD4F1F4,PDT,44.794014,-120.007019,5090.0,JOHN DAY RIVER AT SERVICE CREEK OR,44 47 38.45,120 00 25.27,NOAA_HADS
14046778,OR,17070204,17,1707,BDGO3,DDD510FC,PDT,44.726872,-120.301917,267.0,BRIDGE CR ABV COYOTE CANYON NR MITCHELL OR,44 43 36.74,120 18 06.9,NOAA_HADS
14048000,OR,17070204,17,1707,JDMO3,F0050542,PDT,45.587778,-120.408333,7580.0,JOHN DAY RIVER AT MCDONALD FERRY OR,45 35 16,120 24 30,NOAA_HADS
14076500,OR,17070301,17,1707,DECO3,D1002416,PDT,44.498889,-121.32,2705.0,DESCHUTES RIVER NEAR CULVER OR,44 29 56,121 19 12,NOAA_HADS
14091500,OR,17070301,17,1707,METO3,DDC6850E,PDT,44.626389,-121.482778,316.0,METOLIUS RIVER NEAR GRANDVIEW OR,44 37 35,121 28 58,NOAA_HADS
14087400,OR,17070305,17,1707,CROO3,D1003760,PDT,44.4925,-121.297222,4557.0,CROOKED RIVER BELOW OPAL SPRINGS NEAR CULVER OR,44 29 33,121 17 50,NOAA_HADS
14092750,OR,17070306,17,1707,SHIO3,DD88B720,PDT,44.750556,-121.632222,22.9,SHITIKE CRK AT PETERS PASTURE NR WARM SPRINGS OR,44 45 02,121 37 56,NOAA_HADS
14096850,OR,17070306,17,1707,BCQO3,DDC5A4EC,PDT,44.958889,-121.393056,145.0,BEAVER CREEK BELOW QUARTZ CREEK NR SIMNASHO OR,44 57 32,121 23 35,NOAA_HADS
14097100,OR,17070306,17,1707,KAHO3,17B8C39A,PDT,44.856667,-121.148611,526.0,WARM SPRINGS RIVER NEAR KAHNEETA HOT SPRINGS OR,44 51 24,121 08 55,NOAA_HADS
14103000,OR,17070306,17,1707,MODO3,DD7207E8,PDT,45.622222,-120.904444,10500.0,DESCHUTES RIVER AT MOODY NEAR BIGGS OR,45 37 20,120 54 16,NOAA_HADS
14137000,OR,17080001,17,1708,SRMO3,DD092700,PQR,45.399722,-122.136111,264.0,SANDY RIVER NEAR MARMOT OR,45 23 59,122 08 10,NOAA_HADS
14138720,OR,17080001,17,1708,BFLO3,DDC666FC,PQR,45.471111,-121.864167,5.08,BULL RUN RIVER AT LOWER FLUME NR BRIGHTWOOD OR,45 28 16,121 51 51,NOAA_HADS
14138800,OR,17080001,17,1708,BLZO3,DD9B22D2,PQR,45.452778,-121.890278,8.17,BLAZED ALDER CREEK NEAR RHODODENDRON OR,45 27 10,121 53 25,NOAA_HADS
14138850,OR,17080001,17,1708,BMFO3,D113847E,PQR,45.498333,-122.011111,47.9,BULL RUN RIVER NEAR MULTNOMAH FALLS OR,45 29 54,122 00 40,NOAA_HADS
14138870,OR,17080001,17,1708,FCBO3,D111F71A,PQR,45.480278,-122.024444,5.46,FIR CREEK NEAR BRIGHTWOOD OR,45 28 49,122 01 28,NOAA_HADS
14138900,OR,17080001,17,1708,NBRO3,D111E46C,PQR,45.494444,-122.034722,8.32,NORTH FORK BULL RUN RIVER NEAR MULTNOMAH FALLS OR,45 29 40,122 02 05,NOAA_HADS
14139800,OR,17080001,17,1708,SBRO3,D111D1F6,PQR,45.444722,-122.108333,15.7,SOUTH FORK BULL RUN RIVER NEAR BULL RUN OR,45 26 41,122 06 30,NOAA_HADS
14140000,OR,17080001,17,1708,RUNO3,D111B410,PQR,45.4373,-122.179656,107.0,BULL RUN RIVER NEAR BULL RUN (RIVER ONLY) OR,45 26 14.28,122 10 46.76,NOAA_HADS
14141500,OR,17080001,17,1708,LSNO3,DD88C1B0,PQR,45.415556,-122.170278,23.1,LITTLE SANDY RIVER NEAR BULL RUN OR,45 24 56,122 10 13,NOAA_HADS
14142500,OR,17080001,17,1708,SNDO3,DD9C3390,PQR,45.449167,-122.243889,436.0,SANDY RIVER BLW BULL RUN RIVER NR BULL RUN OR,45 26 57,122 14 38,NOAA_HADS
14142800,OR,17080001,17,1708,KCPO3,DE02F026,PQR,45.519444,-122.389278,11.1,BEAVER CREEK AT TROUTDALE OR,45 31 10,122 23 21.4,NOAA_HADS
14216000,WA,17080002,17,1708,LRCW1,DDD2B230,PQR,46.060556,-121.983333,227.0,LEWIS RIVER ABOVE MUDDY RIVER NEAR COUGAR WA,46 03 38,121 59 00,NOAA_HADS
14216500,WA,17080002,17,1708,MUDW1,DD78635C,PQR,46.075833,-121.9975,135.0,MUDDY RIVER BELOW CLEAR CREEK NEAR COUGAR WA,46 04 33,121 59 51,NOAA_HADS
14219000,WA,17080002,17,1708,CCAW1,DDD52566,PQR,45.94,-122.315833,64.1,CANYON CREEK NEAR AMBOY WA,45 56 24,122 18 57,NOAA_HADS
14219800,WA,17080002,17,1708,SYCW1,DE613004,PQR,46.004722,-122.343056,12.6,SPEELYAI CREEK NEAR COUGAR WA,46 00 17,122 20 35,NOAA_HADS
14220500,WA,17080002,17,1708,MERW1,DE910958,PQR,45.951944,-122.562778,731.0,LEWIS RIVER AT ARIEL WA,45 57 07,122 33 46,NOAA_HADS
14222500,WA,17080002,17,1708,HSSW1,DD78702A,PQR,45.836944,-122.465,125.0,EAST FORK LEWIS RIVER NEAR HEISSON WA,45 50 13,122 27 54,NOAA_HADS
14246900,OR,17080003,17,1708,CBAO3,DDE30534,PQR,46.181389,-123.182222,256900.0,COLUMBIA RIVER AT PORT WESTWARD NEAR QUINCY OR,46 10 53,123 10 56,NOAA_HADS
14226500,WA,17080004,17,1708,PACW1,DDC8B4FC,SEW,46.613056,-121.678056,287.0,COWLITZ RIVER AT PACKWOOD WA,46 36 47,121 40 41,NOAA_HADS
14231000,WA,17080004,17,1708,RAWW1,DDEB277E,SEW,46.531944,-121.956944,541.0,COWLITZ RIVER AT RANDLE WA,46 31 55,121 57 25,NOAA_HADS
14231900,WA,17080004,17,1708,CIYW1,DD55D25A,SEW,46.444167,-121.838889,250.0,CISPUS RIVER AB YELLOWJACKET CREEK NEAR RANDLE WA,46 26 39,121 50 20,NOAA_HADS
14233500,WA,17080005,17,1708,COKW1,DE641128,SEW,46.466389,-122.107778,1040.0,COWLITZ RIVER NEAR KOSMOS WA,46 27 59,122 06 28,NOAA_HADS
14236200,WA,17080005,17,1708,TILW1,17BE70DA,SEW,46.595556,-122.458333,141.0,TILTON RIVER AB BEAR CANYON CREEK NEAR CINEBAR WA,46 35 44,122 27 30,NOAA_HADS
14238000,WA,17080005,17,1708,MAYW1,DE539378,PQR,46.510556,-122.615,1400.0,COWLITZ RIVER BELOW MAYFIELD DAM WA,46 30 38,122 36 54,NOAA_HADS
14240525,WA,17080005,17,1708,SRBW1,17D581C4,PQR,46.371944,-122.577778,146.0,NF TOUTLE RIVER BELOW SRS NEAR KID VALLEY WA,46 22 19,122 34 40,NOAA_HADS
14242580,WA,17080005,17,1708,TOTW1,D110F5E0,PQR,46.335,-122.840833,496.0,TOUTLE RIVER AT TOWER ROAD NEAR SILVER LAKE WA,46 20 06,122 50 27,NOAA_HADS
14243000,WA,17080005,17,1708,CASW1,171A73B6,PQR,46.275,-122.913333,2238.0,COWLITZ RIVER AT CASTLE ROCK WA,46 16 30,122 54 48,NOAA_HADS
14144800,OR,17090001,17,1709,MFOO3,CE71B8D8,PQR,43.601944,-122.456389,264.0,MIDDLE FORK WILLAMETTE RIVER NR OAKRIDGE OR,43 36 07,122 27 23,NOAA_HADS
14145500,OR,17090001,17,1709,MFSO3,CE80056A,PQR,43.721111,-122.436667,392.0,MF WILLAMETTE RIVER ABV SALT CRK NEAR OAKRIDGEOR,43 43 16,122 26 12,NOAA_HADS
14147500,OR,17090001,17,1709,NMFO3,CE7A8038,PQR,43.756944,-122.504167,246.0,N FK OF M FK WILLAMETTE R NR OAKRIDGE OR,43 45 25,122 30 15,NOAA_HADS
14148000,OR,17090001,17,1709,OAKO3,CE72BFD6,PQR,43.801389,-122.559722,924.0,MF WILLAMETTE RIVER BLW N FORK NR OAKRIDGE OR.,43 48 05,122 33 35,NOAA_HADS
14150000,OR,17090001,17,1709,DEXO3,CE52AD4E,PQR,43.945833,-122.836111,1001.0,MIDDLE FORK WILLAMETTE RIVER NEAR DEXTER OR,43 56 45,122 50 10,NOAA_HADS
14150800,OR,17090001,17,1709,WCLO3,CE8BA63A,PQR,43.914444,-122.6875,43.9,WINBERRY CREEK NEAR LOWELLOR,43 54 52,122 41 15,NOAA_HADS
14151000,OR,17090001,17,1709,FABO3,CE747A06,PQR,43.944444,-122.773611,186.0,FALL CREEK BLW WINBERRY CREEK NEAR FALL CREEK OR,43 56 40,122 46 25,NOAA_HADS
14152000,OR,17090001,17,1709,JASO3,CE7550C2,PQR,43.998333,-122.904722,1340.0,MIDDLE FORK WILLAMETTE RIVER AT JASPER OR,43 59 54,122 54 17,NOAA_HADS
14152500,OR,17090002,17,1709,LONO3,CE712DBA,PQR,43.641667,-123.084722,72.1,COAST FORK WILLAMETTE AT LONDON OR,43 38 30,123 05 05,NOAA_HADS
14153500,OR,17090002,17,1709,COTO3,CE761A14,PQR,43.720833,-123.048611,104.0,COAST FORK WILLAMETTE R BLW COTTAGE GROVE DAM OR,43 43 15,123 02 55,NOAA_HADS
14154500,OR,17090002,17,1709,DRRO3,DDCE92DE,PQR,43.735278,-122.874444,211.0,ROW RIVER ABOVE PITCHER CREEK NEAR DORENA OR,43 44 07,122 52 28,NOAA_HADS
14157500,OR,17090002,17,1709,GOSO3,CE73284E,PQR,43.980556,-122.965278,642.0,COAST FORK WILLAMETTE RIVER NEAR GOSHEN OR,43 58 50,122 57 55,NOAA_HADS
14166000,OR,17090003,17,1709,HARO3,CE762F8E,PQR,44.270556,-123.1725,3420.0,WILLAMETTE RIVER AT HARRISBURG OR,44 16 14,123 10 21,NOAA_HADS
14166500,OR,17090003,17,1709,NOTO3,CE728A4C,PQR,44.05,-123.425,89.3,LONG TOM RIVER NEAR NOTI OR,44 03 00,123 25 30,NOAA_HADS
14169000,OR,17090003,17,1709,FRNO3,CE767120,PQR,44.122611,-123.300306,252.0,LONG TOM RIVER NEAR ALVADORE OR,44 07 21.4,123 18 01.1,NOAA_HADS
14170000,OR,17090003,17,1709,MNRO3,CE734DA8,PQR,44.312833,-123.296361,391.0,LONG TOM RIVER AT MONROE OR,44 18 46.2,123 17 46.9,NOAA_HADS
14171000,OR,17090003,17,1709,PHIO3,DD59733E,PQR,44.525,-123.334,159.0,MARYS RIVER NEAR PHILOMATH OR,44 31 30.00,123 20 02.40,NOAA_HADS
14173500,OR,17090003,17,1709,CPAO3,162CC9F6,PQR,44.620028,-123.128472,372.0,CALAPOOIA RIVER AT ALBANY OR,44 37 12.1,123 07 42.5,NOAA_HADS
14174000,OR,17090003,17,1709,ALBO3,CE76BAEC,PQR,44.638889,-123.105556,4840.0,WILLAMETTE RIVER AT ALBANY OR,44 38 20,123 06 20,NOAA_HADS
14190500,OR,17090003,17,1709,SUVO3,CE72ACA0,PQR,44.783333,-123.233333,240.0,LUCKIAMUTE RIVER NEAR SUVER OR,44 47 00,123 14 00,NOAA_HADS
14158500,OR,17090004,17,1709,MOCO3,DD5FF5E4,PQR,44.361111,-121.994444,92.4,MCKENZIE RIVER AT OUTLET OF CLEAR LAKE OR,44 21 40,121 59 40,NOAA_HADS
14158740,OR,17090004,17,1709,MUSO3,DD596048,PQR,44.286389,-122.036806,160.0,MCKENZIE RIVER BL PAYNE CR NR BELKNAP SPRINGS OR,44 17 11.0,122 02 12.5,NOAA_HADS
14158798,OR,17090004,17,1709,SUSO3,DD79A4B8,PQR,44.289889,-122.048583,21.4,SMITH RIVER ABV TRAIL BRDG RESV NR BELKNAP SPRINGS,44 17 23.6,122 02 54.9,NOAA_HADS
14158850,OR,17090004,17,1709,TRBO3,DD600582,PQR,44.268056,-122.048611,184.0,MCKENZIE R BLW TRAIL BR DAM NR BELKNAP SPRINGS OR,44 16 05,122 02 55,NOAA_HADS
14159110,OR,17090004,17,1709,CMRO3,DD2693F2,PQR,44.166528,-122.255361,525.96,MCKENZIE RIVER ABOVE SOUTH FORK NEAR RAINBOW OR,44 09 59.5,122 15 19.3,NOAA_HADS
14159200,OR,17090004,17,1709,SFCO3,CE58A2CE,PQR,44.047222,-122.216667,160.0,SO FK MCKENZIE RIVER ABV COUGAR LAKE NR RAINBOW OR,44 02 50,122 13 00,NOAA_HADS
14159500,OR,17090004,17,1709,CGRO3,CE76F9E6,PQR,44.136111,-122.247222,208.0,SOUTH FORK MCKENZIE RIVER NEAR RAINBOW OR,44 08 10,122 14 50,NOAA_HADS
14161100,OR,17090004,17,1709,BRTO3,CE58AC1C,PQR,44.218056,-122.263889,45.8,BLUE RIVER BELOW TIDBITS CREEK NR BLUE RIVER OR,44 13 05,122 15 50,NOAA_HADS
14161500,OR,17090004,17,1709,LOCO3,CE70E48C,PQR,44.209722,-122.255556,24.1,LOOKOUT CREEK NEAR BLUE RIVER OR,44 12 35,122 15 20,NOAA_HADS
14162200,OR,17090004,17,1709,BLUO3,CE778D8C,PQR,44.1625,-122.331944,87.7,BLUE RIVER AT BLUE RIVER OR,44 09 45,122 19 55,NOAA_HADS
14162500,OR,17090004,17,1709,VIDO3,CE73BD2C,PQR,44.125,-122.469444,930.0,MCKENZIE RIVER NEAR VIDA OR,44 07 30,122 28 10,NOAA_HADS
14163000,OR,17090004,17,1709,GCVO3,DE66C2B4,PQR,44.146086,-122.573033,47.6,GATE CREEK AT VIDA OR,44 08 45.91,122 34 22.92,NOAA_HADS
14163150,OR,17090004,17,1709,MKLO3,DE662146,PQR,44.123889,-122.626389,1030.0,MCKENZIE RIVER BLW LEABURG DAM NR LEABURG OR,44 07 26,122 37 35,NOAA_HADS
14164900,OR,17090004,17,1709,MRHO3,DDCC74D8,PQR,44.071389,-122.963333,1140.0,MCKENZIE RIVER ABV HAYDEN BR AT SPRINGFIELDOR,44 04 17,122 57 48,NOAA_HADS
14165000,OR,17090004,17,1709,SPRO3,DD74F7A2,PQR,44.093056,-122.956111,177.0,MOHAWK RIVER NEAR SPRINGFIELD OR,44 05 35,122 57 22,NOAA_HADS
14165500,OR,17090004,17,1709,MRGO3,CE5298D4,PQR,44.113056,-123.046972,1337.0,MCKENZIE RIVER NEAR COBURG OR,44 06 47.0,123 02 49.1,NOAA_HADS
14178000,OR,17090005,17,1709,BCKO3,CE582A08,PQR,44.706944,-122.1,216.0,NO SANTIAM R BLW BOULDER CRK NR DETROIT OR,44 42 25,122 06 00,NOAA_HADS
14179000,OR,17090005,17,1709,BRBO3,CE588422,PQR,44.752778,-122.127778,108.0,BREITENBUSH R ABV FRENCH CR NR DETROIT OR.,44 45 10,122 07 40,NOAA_HADS
14180300,OR,17090005,17,1709,DEQO3,D10624D8,PQR,44.653056,-122.129722,26.0,BLOWOUT CREEK NEAR DETROIT OR,44 39 11,122 07 47,NOAA_HADS
14181500,OR,17090005,17,1709,BCLO3,CE779EFA,PQR,44.753778,-122.297444,453.0,NORTH SANTIAM RIVER AT NIAGARA OR,44 45 13.6,122 17 50.8,NOAA_HADS
14181900,OR,17090005,17,1709,LNEO3,DD2594FC,PQR,44.835803,-122.35495,53.1,LITTLE N SANTIAM RIVER ABV EVANS CR AT ELKHORNOR,44 50 08.89,122 21 17.82,NOAA_HADS
14183000,OR,17090005,17,1709,MEHO3,CE798736,PQR,44.78925,-122.618806,654.35,NORTH SANTIAM RIVER AT MEHAMA OR,44 47 21.3,122 37 07.7,NOAA_HADS
14184100,OR,17090005,17,1709,NSGO3,DDC58200,PQR,44.707944,-122.973111,736.0,NORTH SANTIAM R AT GREENS BRIDGE NR JEFFERSON OR,44 42 28.6,122 58 23.2,NOAA_HADS
14189000,OR,17090005,17,1709,JFFO3,CE75762E,PQR,44.714722,-123.01425,1790.0,SANTIAM RIVER AT JEFFERSON OR,44 42 53.0,123 00 51.3,NOAA_HADS
14185800,OR,17090006,17,1709,MSCO3,CE589754,PQR,44.515278,-122.370833,104.0,MIDDLE SANTIAM R NEAR CASCADIA OR,44 30 55,122 22 15,NOAA_HADS
14185900,OR,17090006,17,1709,QCCO3,CE736596,PQR,44.540278,-122.434722,99.2,QUARTZVILLE CREEK NEAR CASCADIA OR,44 32 25,122 26 05,NOAA_HADS
14187200,OR,17090006,17,1709,SSFO3,CE77AB60,PQR,44.4125,-122.6875,557.0,SOUTH SANTIAM RIVER NEAR FOSTER OR,44 24 45,122 41 15,NOAA_HADS
14187500,OR,17090006,17,1709,WTLO3,CE75B330,PQR,44.498611,-122.822222,640.0,SOUTH SANTIAM RIVER AT WATERLOO OR,44 29 55,122 49 20,NOAA_HADS
14188610,OR,17090006,17,1709,SLCO3,DD72F76C,PQR,44.619722,-122.464722,1.03,SCHAFER CREEK NEAR LACOMB OR,44 37 11,122 27 53,NOAA_HADS
14188800,OR,17090006,17,1709,TRSO3,DD5493AA,PQR,44.712222,-122.768889,109.73,THOMAS CREEK NEAR SCIO OR,44 42 44,122 46 08,NOAA_HADS
14191000,OR,17090007,17,1709,SLMO3,CE77CE86,PQR,44.944444,-123.041667,7280.0,WILLAMETTE RIVER AT SALEM OR,44 56 40,123 02 30,NOAA_HADS
14198400,OR,17090009,17,1709,BLWO3,D1061142,PQR,44.9609,-122.385,0.78,BULL CREEK NEAR WILHOIT OR,44 57 39.24,122 23 06.00,NOAA_HADS
14200000,OR,17090009,17,1709,CANO3,DD58F7D0,PQR,45.243917,-122.687444,323.0,MOLALLA RIVER NEAR CANBY OR,45 14 38.1,122 41 14.8,NOAA_HADS
14201340,OR,17090009,17,1709,PUWO3,DDF046AE,PQR,45.151389,-122.803056,314.0,PUDDING RIVER NEAR WOODBURN OR,45 09 05,122 48 11,NOAA_HADS
14201500,OR,17090009,17,1709,BUMO3,169BA13E,PQR,45.101667,-122.745,58.7,BUTTE CREEK AT MONITOR OR,45 06 06,122 44 42,NOAA_HADS
14202000,OR,17090009,17,1709,AURO3,DD5480DC,PQR,45.233278,-122.750917,479.0,PUDDING RIVER AT AURORA OR,45 13 59.8,122 45 03.3,NOAA_HADS
14203500,OR,17090010,17,1709,DLLO3,CE75C5A0,PQR,45.475,-123.123056,125.0,TUALATIN RIVER NEAR DILLEY OR,45 28 30,123 07 23,NOAA_HADS
14205350,OR,17090010,17,1709,EFDO3,DDC6B094,PQR,45.693856,-123.070019,27.6,EF DAIRY CR ABV MURTAUGH CR NR MEACHAM CORNER OR,45 41 37.88,123 04 12.07,NOAA_HADS
14206752,OR,17090010,17,1709,CKCO3,DF09E15A,PQR,45.385417,-122.837056,,CHICKEN CREEK ABV SEASONAL TRAIL NR SHERWOOD OR,45 23 07.5,122 50 13.4,NOAA_HADS
14206950,OR,17090010,17,1709,DURO3,F002A78E,PQR,45.403611,-122.753611,31.5,FANNO CREEK AT DURHAM OR,45 24 13,122 45 13,NOAA_HADS
14207500,OR,17090010,17,1709,WSLO3,CE58DA8C,PQR,45.350833,-122.675,706.0,TUALATIN RIVER AT WEST LINN OR,45 21 03,122 40 30,NOAA_HADS
14208700,OR,17090011,17,1709,OGCO3,DDC65366,PQR,45.113889,-121.813889,54.4,OAK GROVE FORK NEAR GOVERNMENT CAMP OR,45 06 50,121 48 50,NOAA_HADS
14209000,OR,17090011,17,1709,OKPO3,DD891522,PQR,45.071389,-121.939444,124.0,OAK GROVE FORK ABOVE POWERPLANT INTAKE OR.,45 04 17,121 56 22,NOAA_HADS
14209250,OR,17090011,17,1709,OGRO3,17144244,PQR,45.079814,-122.042858,141.0,OAK GROVE FORK AT RIPPLEBROOK CAMPGROUND OR,45 04 47.33,122 02 34.29,NOAA_HADS
14209500,OR,17090011,17,1709,TLYO3,173A82DC,PQR,45.125,-122.072222,479.0,CLACKAMAS RIVER ABOVE THREE LYNX CREEK OR,45 07 30,122 04 20,NOAA_HADS
14210000,OR,17090011,17,1709,ESTO3,DDF87792,PQR,45.3,-122.352778,671.0,CLACKAMAS RIVER AT ESTACADA OR,45 18 00,122 21 10,NOAA_HADS
14211315,OR,17090012,17,1709,TYCO3,DDC69678,PQR,45.430833,-122.6725,6.28,TRYON CREEK NEAR LAKE OSWEGO OR,45 25 51,122 40 21,NOAA_HADS
14211400,OR,17090012,17,1709,GREO3,1731A798,PQR,45.486333,-122.421833,15.36,JOHNSON CREEK AT REGNER ROAD AT GRESHAM OR,45 29 10.8,122 25 18.6,NOAA_HADS
14211500,OR,17090012,17,1709,SYCO3,172E4566,PQR,45.477456,-122.508019,26.8,JOHNSON CREEK AT SYCAMORE OR,45 28 38.84,122 30 28.87,NOAA_HADS
14211550,OR,17090012,17,1709,MIWO3,DDDDE4DE,PQR,45.453056,-122.641944,53.17,JOHNSON CREEK AT MILWAUKIE OR,45 27 11,122 38 31,NOAA_HADS
12041200,WA,17100101,17,1710,HORW1,DD8C2778,SEW,47.806944,-124.249722,253.0,HOH RIVER AT US HIGHWAY 101 NEAR FORKS WA,47 48 25,124 14 59,NOAA_HADS
12042800,WA,17100101,17,1710,BGFW1,DE63D602,SEW,47.894419,-124.357089,111.0,BOGACHIEL RIVER NEAR FORKS WA,47 53 39.91,124 21 25.52,NOAA_HADS
12043000,WA,17100101,17,1710,CALW1,DD61F7FC,SEW,47.960278,-124.391667,129.0,CALAWAH RIVER NEAR FORKS WA,47 57 37,124 23 30,NOAA_HADS
12043015,WA,17100101,17,1710,BOGW1,DE63B3E4,SEW,47.903056,-124.544167,288.0,BOGACHIEL RIVER NEAR LA PUSH WA,47 54 11,124 32 39,NOAA_HADS
12039500,WA,17100102,17,1710,QLTW1,166AB2A6,SEW,47.457778,-123.888056,264.0,QUINAULT RIVER AT QUINAULT LAKE WA,47 27 28,123 53 17,NOAA_HADS
1203951610,WA,17100102,17,1710,QTHW1,163EFE06,SEW,47.357778,-124.184444,412.0,QUINAULT RIVER NEAR TAHOLAH WA,47 21 28,124 11 04,NOAA_HADS
12040500,WA,17100102,17,1710,QUEW1,DD620076,SEW,47.538056,-124.314444,445.0,QUEETS RIVER NEAR CLEARWATER WA,47 32 17,124 18 52,NOAA_HADS
12020000,WA,17100103,17,1710,DOTW1,DD9942C0,SEW,46.6175,-123.276389,113.0,CHEHALIS RIVER NEAR DOTY WA,46 37 03,123 16 35,NOAA_HADS
12020525,WA,17100103,17,1710,ELCW1,1735E1A8,SEW,46.634722,-123.295556,58.0,ELK CREEK BELOW DEER CREEK NEAR DOTY WA,46 38 05,123 17 44,NOAA_HADS
12020800,WA,17100103,17,1710,SCWW1,DD1C87A6,SEW,46.445,-123.0825,27.0,SOUTH FORK CHEHALIS RIVER NEAR WILDWOOD WA,46 26 42,123 04 57,NOAA_HADS
12021800,WA,17100103,17,1710,ADNW1,DE595734,SEW,46.625833,-123.100556,340.0,CHEHALIS RIVER NEAR ADNA WA,46 37 33,123 06 02,NOAA_HADS
12024000,WA,17100103,17,1710,SFNW1,DE63C574,SEW,46.575833,-122.683889,42.4,SOUTH FORK NEWAUKUM RIVER NEAR ONALASKA WA,46 34 33,122 41 02,NOAA_HADS
12024400,WA,17100103,17,1710,NFFW1,178770F6,SEW,46.6675,-122.768889,29.6,NF NEWAUKUM RIVER ABOVE BEAR CREEK NEAR FOREST WA,46 40 03,122 46 08,NOAA_HADS
12025000,WA,17100103,17,1710,NEWW1,DDFA548A,SEW,46.620278,-122.943889,155.0,NEWAUKUM RIVER NEAR CHEHALIS WA,46 37 13,122 56 38,NOAA_HADS
12025700,WA,17100103,17,1710,VALW1,178CD3A6,SEW,46.772778,-122.592778,40.0,SKOOKUMCHUCK RIVER NEAR VAIL WA,46 46 22,122 35 34,NOAA_HADS
12026150,WA,17100103,17,1710,SKMW1,DD6FF394,SEW,46.790278,-122.734167,65.9,SKOOKUMCHUCK RIVER BL BLDY RUN CR NR CENTRALIA WA,46 47 25,122 44 03,NOAA_HADS
12026400,WA,17100103,17,1710,BCDW1,DDFA6110,SEW,46.772222,-122.923056,112.0,SKOOKUMCHUCK RIVER NEAR BUCODA WA,46 46 20,122 55 23,NOAA_HADS
12027500,WA,17100103,17,1710,CGMW1,DD0901EC,SEW,46.776111,-123.034444,895.0,CHEHALIS RIVER NEAR GRAND MOUND WA,46 46 34,123 02 04,NOAA_HADS
12031000,WA,17100103,17,1710,CRPW1,173714D8,SEW,46.939444,-123.313056,1294.0,CHEHALIS RIVER AT PORTER WA,46 56 22,123 18 47,NOAA_HADS
12035000,WA,17100104,17,1710,SATW1,17D9C352,SEW,47.000833,-123.493611,299.0,SATSOP RIVER NEAR SATSOP WA,47 00 03,123 29 37,NOAA_HADS
12035100,WA,17100104,17,1710,CMTW1,16CB301E,SEW,46.9625,-123.603333,1780.0,CHEHALIS RIVER NEAR MONTESANO WA,46 57 45,123 36 12,NOAA_HADS
12035400,WA,17100104,17,1710,WYNW1,F001E38A,SEW,47.380556,-123.608611,41.3,WYNOOCHEE RIVER NEAR GRISDALE WA,47 22 50,123 36 31,NOAA_HADS
12035450,WA,17100104,17,1710,BIGW1,16F5079C,SEW,47.374444,-123.635556,9.57,BIG CREEK NEAR GRISDALE WA,47 22 28,123 38 08,NOAA_HADS
12036000,WA,17100104,17,1710,WYAW1,F001F0FC,SEW,47.299167,-123.651944,74.1,WYNOOCHEE RIVER ABOVE SAVE CREEK NEAR ABERDEEN WA,47 17 57,123 39 07,NOAA_HADS
12037400,WA,17100104,17,1710,MNSW1,F0020776,SEW,47.011667,-123.654167,155.0,WYNOOCHEE RIVER ABOVE BLACK CREEK NR MONTESANO WA,47 00 42,123 39 15,NOAA_HADS
12039005,WA,17100105,17,1710,HMRW1,DD6FD578,SEW,47.231667,-123.972778,132.0,HUMPTULIPS RIVER BELOW HWY 101 NR HUMPTULIPS WA,47 13 54,123 58 22,NOAA_HADS
12010000,WA,17100106,17,1710,NASW1,DDF33730,PQR,46.374167,-123.742222,54.8,NASELLE RIVER NEAR NASELLE WA,46 22 27,123 44 32,NOAA_HADS
12013500,WA,17100106,17,1710,WILW1,DDE0D452,PQR,46.651111,-123.651389,130.0,WILLAPA RIVER NEAR WILLAPA WA,46 39 04,123 39 05,NOAA_HADS
14299800,OR,17100202,17,1710,VENO3,DE52317A,PQR,45.807222,-123.281944,69.78,NEHALEM RIVER NEAR VERNONIA OR,45 48 26,123 16 55,NOAA_HADS
14301000,OR,17100202,17,1710,FSSO3,16FE72A4,PQR,45.704167,-123.754167,667.0,NEHALEM RIVER NEAR FOSS OR,45 42 15,123 45 15,NOAA_HADS
14301340,OR,17100202,17,1710,NRNO3,DE5AF0C2,PQR,45.717833,-123.88975,838.0,NEHALEM RIVER AT NEHALEM OR,45 43 04.2,123 53 23.1,NOAA_HADS
14301500,OR,17100203,17,1710,TLMO3,DD67E444,PQR,45.476111,-123.723889,161.0,WILSON RIVER NEAR TILLAMOOK OR,45 28 34,123 43 26,NOAA_HADS
14302480,OR,17100203,17,1710,TRAO3,DDCAD4EE,PQR,45.446389,-123.709167,156.0,TRASK RIVER ABOVE CEDAR CREEK NEAR TILLAMOOK OR,45 26 47,123 42 33,NOAA_HADS
14302900,OR,17100203,17,1710,DCSO3,169BC4D8,PQR,45.310639,-123.413528,6.2,NESTUCCA RIVER NEAR FAIRDALE OR,45 18 38.3,123 24 48.7,NOAA_HADS
14303200,OR,17100203,17,1710,TUCO3,DD9F64E2,PQR,45.324444,-123.545278,3.09,TUCCA CREEK NEAR BLAINE OR.,45 19 28,123 32 43,NOAA_HADS
14303600,OR,17100203,17,1710,BEAO3,DD25F11A,PQR,45.266667,-123.845833,180.0,NESTUCCA RIVER NEAR BEAVER OR,45 16 00,123 50 45,NOAA_HADS
14305500,OR,17100204,17,1710,SILO3,DDDE9540,PQR,44.715278,-123.886111,202.0,SILETZ RIVER AT SILETZ OR,44 42 55,123 53 10,NOAA_HADS
14306340,OR,17100205,17,1710,LOBO3,DD72149E,PQR,44.248056,-123.635278,5.7,EAST FORK LOBSTER CREEK NEAR ALSEA OR.,44 14 53,123 38 07,NOAA_HADS
14306500,CA,17100205,17,1710,TIDO3,DD27827E,PQR,44.386111,-123.830556,334.0,ALSEA RIVER NEAR TIDEWATER OR,44 23 10,123 49 50,NOAA_HADS
14307620,OR,17100206,17,1710,MPLO3,DD55F4B6,PQR,44.0625,-123.881944,588.0,SIUSLAW RIVER NEAR MAPLETON OR,44 03 45,123 52 55,NOAA_HADS
14313200,OR,17100301,17,1710,MULO3,DD96E4AA,MFR,43.324167,-122.195833,170.0,N.UMPQUA R ABV WHITE MULE CK NR TOKETEE FALLS OR,43 19 27,122 11 45,NOAA_HADS
14313700,OR,17100301,17,1710,NUWO3,DD96D130,MFR,43.355,-122.250833,199.0,N.UMPQUA R BLW WARM SPRINGS CK NR TOKETEE FALLSOR,43 21 18,122 15 03,NOAA_HADS
14314500,OR,17100301,17,1710,CWRO3,DDA0C4F8,MFR,43.244444,-122.286111,41.6,CLEARWATER RIVER ABV TRAP CK NR TOKETEE FALLS OR,43 14 40,122 17 10,NOAA_HADS
14314700,OR,17100301,17,1710,CRMO3,DD96F7DC,MFR,43.251111,-122.337222,60.4,CLEARWATER R BLW MOWICH CREEK NR TOKETEE FALLSOR,43 15 04,122 20 14,NOAA_HADS
14315500,OR,17100301,17,1710,TKTO3,DD88F42A,MFR,43.263889,-122.420556,334.8,NORTH UMPQUA RIVER AT TOKETEE FALLS OR,43 15 50,122 25 14,NOAA_HADS
14315700,OR,17100301,17,1710,NUSO3,DD8CD7FC,MFR,43.276417,-122.449972,336.77,N.UMPQUA R BLW SLIDE CK DAM NR TOKETEE FALLS OR,43 16 35.1,122 26 59.9,NOAA_HADS
14315950,OR,17100301,17,1710,FHCO3,DD890654,MFR,43.211389,-122.426389,61.6,FISH CREEK ABV SLIPPER CREEK NR TOKETEE FALLS OR,43 12 41,122 25 35,NOAA_HADS
14316455,OR,17100301,17,1710,SSPO3,DDA0B268,MFR,43.303889,-122.497778,435.1,N.UMPQUA R BLW SODA SPGS RESV NR TOKETEE FALLSOR,43 18 14,122 29 52,NOAA_HADS
14316495,OR,17100301,17,1710,BODO3,DD59A556,MFR,43.303611,-122.529167,30.4,BOULDER CREEK NEAR TOKETEE FALLS OR,43 18 13,122 31 45,NOAA_HADS
14316500,OR,17100301,17,1710,NUMO3,162E57B2,MFR,43.296111,-122.535556,475.0,N UMPQUA RIVER ABV COPELAND CK NR TOKETEE FALLSOR,43 17 46,122 32 08,NOAA_HADS
14316700,OR,17100301,17,1710,SCRO3,DD9B72AE,MFR,43.35,-122.727778,227.0,STEAMBOAT CREEK NEAR GLIDE OR,43 21 00,122 43 40,NOAA_HADS
14318000,OR,17100301,17,1710,LRPO3,D111C280,MFR,43.252778,-123.025,177.0,LITTLE RIVER AT PEEL OR,43 15 10,123 01 30,NOAA_HADS
14319500,OR,17100301,17,1710,WNRO3,DD680124,MFR,43.270967,-123.411544,1344.0,NORTH UMPQUA RIVER AT WINCHESTER OR,43 16 15.48,123 24 41.56,NOAA_HADS
14308000,OR,17100302,17,1710,TILO3,DD67F732,MFR,42.930556,-122.947222,449.0,SOUTH UMPQUA RIVER AT TILLER OR,42 55 50,122 56 50,NOAA_HADS
14308990,OR,17100302,17,1710,COGO3,DE52549C,MFR,42.823333,-123.124722,64.7,COW CREEK ABV GALESVILLE RES NR AZALEA OR.,42 49 24,123 07 29,NOAA_HADS
14309000,OR,17100302,17,1710,AZAO3,DD422774,MFR,42.825,-123.177778,78.0,COW CREEK NEAR AZALEA OR,42 49 30,123 10 40,NOAA_HADS
14309500,OR,17100302,17,1710,GLNO3,DD98E0C2,MFR,42.804167,-123.609722,86.9,WEST FORK COW CREEK NEAR GLENDALE OR,42 48 15,123 36 35,NOAA_HADS
14310000,OR,17100302,17,1710,RDLO3,1637CDC0,MFR,42.923611,-123.427778,456.0,COW CREEK NEAR RIDDLE OR,42 55 25,123 25 40,NOAA_HADS
14312000,OR,17100302,17,1710,WSNO3,DD5EB414,MFR,43.133333,-123.397222,1670.0,SOUTH UMPQUA RIVER NEAR BROCKWAY OR,43 08 00,123 23 50,NOAA_HADS
14321000,OR,17100303,17,1710,EKTO3,DD5EC284,MFR,43.586111,-123.554167,3683.0,UMPQUA RIVER NEAR ELKTON OR,43 35 10,123 33 15,NOAA_HADS
14325000,OR,17100305,17,1710,POWO3,DD5955D2,MFR,42.891667,-124.069444,169.0,SOUTH FORK COQUILLE RIVER AT POWERS OR,42 53 30,124 04 10,NOAA_HADS
14326510,OR,17100305,17,1710,MYPO3,1735025A,MFR,43.065833,-124.145833,593.0,SF COQUILLE RIVER AT MYRTLE POINT OR,43 03 57,124 08 45,NOAA_HADS
14327000,OR,17100305,17,1710,MYNO3,1694445E,MFR,43.068178,-124.107844,283.0,N FK COQUILLE R NR MYRTLE POINT OR,43 04 05.44,124 06 28.24,NOAA_HADS
14332000,OR,17100307,17,1710,SRPO3,DDDE1354,MFR,42.706389,-122.388611,83.8,SOUTH FORK ROGUE RIVER NEAR PROSPECT OR,42 42 23,122 23 19,NOAA_HADS
14335072,OR,17100307,17,1710,RFHO3,CE730EA2,MFR,42.665833,-122.686389,689.0,ROGUE R AT COLE M RIVERS F HATCHERY NR MCLEOD OR,42 39 57,122 41 11,NOAA_HADS
14337500,OR,17100307,17,1710,MLBO3,CE807D28,MFR,42.651389,-122.690278,245.0,BIG BUTTE CREEK NEAR MCLEOD OR,42 39 05,122 41 25,NOAA_HADS
14337600,OR,17100307,17,1710,MCLO3,CE8073FA,MFR,42.655556,-122.713889,938.0,ROGUE RIVER NEAR MCLEOD OR,42 39 20,122 42 50,NOAA_HADS
14338000,OR,17100307,17,1710,ELKO3,DD9716D4,MFR,42.678889,-122.740833,129.0,ELK CREEK NEAR TRAIL OR,42 40 44,122 44 27,NOAA_HADS
14339000,OR,17100307,17,1710,EGLO3,CE805BC4,MFR,42.525,-122.841667,1215.0,ROGUE RIVER AT DODGE BRIDGE NEAR EAGLE POINT OR,42 31 30,122 50 30,NOAA_HADS
14353000,OR,17100308,17,1710,ASCO3,DD5CE19C,MFR,42.148889,-122.715556,10.7,WEST FORK ASHLAND CREEK NEAR ASHLAND OR,42 08 56,122 42 56,NOAA_HADS
14353500,OR,17100308,17,1710,EFAO3,DD5CF2EA,MFR,42.152778,-122.708333,8.14,EAST FORK ASHLAND CREEK NEAR ASHLAND OR,42 09 10,122 42 30,NOAA_HADS
14354200,OR,17100308,17,1710,BCAO3,34840254,MFR,42.2185,-122.724806,179.0,BEAR CREEK BELOW ASHLAND CREEK AT ASHLAND OR,42 13 06.6,122 43 29.3,NOAA_HADS
14357500,OR,17100308,17,1710,MFDO3,3483F0E4,MFR,42.324167,-122.865556,289.0,BEAR CREEK AT MEDFORD OR,42 19 27,122 51 56,NOAA_HADS
14359000,OR,17100308,17,1710,RYGO3,DE5247EA,MFR,42.4375,-122.986111,2053.0,ROGUE RIVER AT RAYGOLD NEAR CENTRAL POINT OR,42 26 15,122 59 10,NOAA_HADS
14361500,OR,17100308,17,1710,GRAO3,CE80608C,MFR,42.430556,-123.316667,2459.0,ROGUE RIVER AT GRANTS PASS OR,42 25 50,123 19 00,NOAA_HADS
14362000,OR,17100309,17,1710,APPO3,CE804660,MFR,42.063889,-123.110278,225.0,APPLEGATE RIVER NEAR COPPER OR,42 03 50,123 06 37,NOAA_HADS
14362250,OR,17100309,17,1710,SGRO3,DDCB951E,MFR,42.154167,-123.074167,16.0,STAR GULCH NEAR RUCH OR,42 09 15,123 04 27,NOAA_HADS
14366000,OR,17100309,17,1710,APRO3,CE8048B2,MFR,42.241667,-123.138889,483.0,APPLEGATE RIVER NEAR APPLEGATE OR,42 14 30,123 08 20,NOAA_HADS
14369500,OR,17100309,17,1710,ARWO3,CE805516,MFR,42.354167,-123.405556,698.0,APPLEGATE RIVER NEAR WILDERVILLE OR,42 21 15,123 24 20,NOAA_HADS
14372300,OR,17100310,17,1710,AGNO3,DDF44394,MFR,42.592778,-124.062,3939.0,ROGUE RIVER NEAR AGNESS OR,42 35 34,124 03 43.2,NOAA_HADS
14377100,OR,17100311,17,1710,KRBO3,DD70D474,MFR,42.231944,-123.6625,380.0,ILLINOIS RIVER NEAR KERBY OR,42 13 55,123 39 45,NOAA_HADS
14378200,OR,17100311,17,1710,AGSO3,DE67C04E,MFR,42.544878,-124.051914,988.0,ILLINOIS RIVER NEAR AGNESS OR,42 32 41.56,124 03 06.89,NOAA_HADS
14400000,OR,17100312,17,1710,CHTO3,DDD5038A,MFR,42.123611,-124.186111,271.0,CHETCO RIVER NEAR BROOKINGS OR,42 07 25,124 11 10,NOAA_HADS
12214500,WA,17110001,17,1711,SUMW1,163E435A,SEW,48.975,-122.25,31.0,SUMAS RIVER NEAR SUMAS WA,48 58 30,122 15 00,NOAA_HADS
12201500,WA,17110002,17,1711,SMRW1,DD7856C6,SEW,48.546111,-122.336944,87.8,SAMISH RIVER NEAR BURLINGTON WA,48 32 46,122 20 13,NOAA_HADS
12205000,WA,17110004,17,1711,NFNW1,DD8A9438,SEW,48.906111,-121.843056,105.0,NF NOOKSACK RIVER BL CASCADE CREEK NR GLACIER WA,48 54 22,121 50 35,NOAA_HADS
12208000,WA,17110004,17,1711,MFNW1,DDC63680,SEW,48.779444,-122.105278,73.3,MF NOOKSACK RIVER NEAR DEMING WA,48 46 46,122 06 19,NOAA_HADS
12210000,WA,17110004,17,1711,NSSW1,DDC7F164,SEW,48.677778,-122.165278,129.0,SF NOOKSACK RIVER AT SAXON BRIDGE WA,48 40 40,122 09 55,NOAA_HADS
12210700,WA,17110004,17,1711,NRKW1,DDCF8352,SEW,48.841944,-122.293056,589.0,NOOKSACK RIVER AT NORTH CEDARVILLE WA,48 50 31,122 17 35,NOAA_HADS
12211200,WA,17110004,17,1711,NREW1,DD75F558,SEW,48.918056,-122.346667,628.0,NOOKSACK RIVER AT EVERSON WA,48 55 05,122 20 48,NOAA_HADS
12211500,WA,17110004,17,1711,NKLW1,163E286E,SEW,48.920556,-122.484444,648.0,NOOKSACK RIVER NEAR LYNDEN WA,48 55 14,122 29 04,NOAA_HADS
12213100,WA,17110004,17,1711,NKSW1,DD677126,SEW,48.845,-122.588056,786.0,NOOKSACK RIVER AT FERNDALE WA,48 50 42,122 35 17,NOAA_HADS
12175500,WA,17110005,17,1711,THNW1,D110E696,SEW,48.672778,-121.071667,105.0,THUNDER CREEK NEAR NEWHALEM WA,48 40 22,121 04 18,NOAA_HADS
12178000,WA,17110005,17,1711,GORW1,DE90E850,SEW,48.671944,-121.245,1175.0,SKAGIT RIVER AT NEWHALEM WA,48 40 19,121 14 42,NOAA_HADS
12178100,WA,17110005,17,1711,NEKW1,17170640,SEW,48.660278,-121.246389,26.9,NEWHALEM CREEK NEAR NEWHALEM WA,48 39 37,121 14 47,NOAA_HADS
12179900,WA,17110005,17,1711,BCNW1,1790B042,SEW,48.604722,-121.398333,49.7,BACON CREEK BELOW OAKES CREEK NEAR MARBLEMOUNT WA,48 36 17,121 23 54,NOAA_HADS
12181000,WA,17110005,17,1711,SRMW1,DE91078A,SEW,48.533889,-121.428611,1381.0,SKAGIT RIVER AT MARBLEMOUNT WA,48 32 02,121 25 43,NOAA_HADS
12182500,WA,17110005,17,1711,CSCW1,DD72D180,SEW,48.526389,-121.414167,172.0,CASCADE RIVER AT MARBLEMOUNT WA,48 31 35,121 24 51,NOAA_HADS
12190400,WA,17110005,17,1711,BABW1,DDC5F490,SEW,48.754167,-121.545833,75.4,BAKER RIVER AB BLUM CREEK NEAR CONCRETE WA,48 45 15,121 32 45,NOAA_HADS
12193400,WA,17110005,17,1711,SHAW1,DD130720,SEW,48.540556,-121.742222,297.0,BAKER RIVER AT HENRY THOMPSON BR AT CONCRETE WA,48 32 26,121 44 32,NOAA_HADS
12186000,WA,17110006,17,1711,WCHW1,DD88D2C6,SEW,48.168889,-121.469444,152.0,SAUK RIVER AB WHITE CHUCK RIVER NR DARRINGTON WA,48 10 08,121 28 10,NOAA_HADS
12187500,WA,17110006,17,1711,SKDW1,16362CC8,SEW,48.25,-121.583333,293.0,SAUK RIVER AT DARRINGTON WA,48 15 00,121 35 00,NOAA_HADS
12189500,WA,17110006,17,1711,SAKW1,DD0C63CA,SEW,48.424722,-121.567222,714.0,SAUK RIVER NEAR SAUK WA,48 25 29,121 34 02,NOAA_HADS
12194000,WA,17110007,17,1711,CONW1,DE90F5F4,SEW,48.524444,-121.769722,2737.0,SKAGIT RIVER NEAR CONCRETE WA,48 31 28,121 46 11,NOAA_HADS
12199000,WA,17110007,17,1711,SSWW1,DDD287AA,SEW,48.484167,-122.241944,3015.0,SKAGIT RIVER NEAR SEDRO WOOLLEY WA,48 29 03,122 14 31,NOAA_HADS
12200500,WA,17110007,17,1711,MVEW1,DD8AA1A2,SEW,48.445,-122.334167,3093.0,SKAGIT RIVER NEAR MOUNT VERNON WA,48 26 42,122 20 03,NOAA_HADS
12161000,WA,17110008,17,1711,GFLW1,DD5A6746,SEW,48.103889,-121.944444,119.0,SF STILLAGUAMISH RIVER NEAR GRANITE FALLS WA,48 06 14,121 56 40,NOAA_HADS
12167000,WA,17110008,17,1711,ARGW1,F0058356,SEW,48.261667,-122.046389,262.0,NF STILLAGUAMISH RIVER NEAR ARLINGTON WA,48 15 42,122 02 47,NOAA_HADS
12170300,WA,17110008,17,1711,STWW1,169D4202,SEW,48.211389,-122.336111,662.0,STILLAGUAMISH RIVER NEAR STANWOOD WA,48 12 41,122 20 10,NOAA_HADS
12131500,WA,17110009,17,1711,SSSW1,DDEF82BC,SEW,47.711042,-121.360733,243.0,SOUTH FORK SKYKOMISH RIVER AT SKYKOMISH WA,47 42 39.75,121 21 38.64,NOAA_HADS
12134500,WA,17110009,17,1711,GLBW1,DDD41206,SEW,47.8375,-121.665556,535.0,SKYKOMISH RIVER NEAR GOLD BAR WA,47 50 15,121 39 56,NOAA_HADS
12135000,WA,17110009,17,1711,WLCW1,DE02264E,SEW,47.864167,-121.681389,19.0,WALLACE RIVER AT GOLD BAR WA,47 51 51,121 40 53,NOAA_HADS
12137290,WA,17110009,17,1711,SULW1,162EF998,SEW,47.9475,-121.625556,11.6,SOUTH FORK SULTAN RIVER NEAR SULTAN WA,47 56 51,121 37 32,NOAA_HADS
12137800,WA,17110009,17,1711,SLNW1,DDF55CCA,SEW,47.959444,-121.796111,77.1,SULTAN RIVER BELOW DIVERSION DAM NEAR SULTAN WA,47 57 34,121 47 46,NOAA_HADS
12138160,WA,17110009,17,1711,SLTW1,DDF3FCFC,SEW,47.9075,-121.814167,94.2,SULTAN RIVER BELOW POWERPLANT NEAR SULTAN WA,47 54 27,121 48 51,NOAA_HADS
12141300,WA,17110010,17,1711,TANW1,DD8A122C,SEW,47.486111,-121.646667,154.0,MIDDLE FORK SNOQUALMIE RIVER NEAR TANNER WA,47 29 10,121 38 48,NOAA_HADS
12142000,WA,17110010,17,1711,SNQW1,DD8A27B6,SEW,47.615,-121.712222,64.0,NF SNOQUALMIE RIVER NEAR SNOQUALMIE FALLS WA,47 36 54,121 42 44,NOAA_HADS
12143400,WA,17110010,17,1711,GARW1,DD8A34C0,SEW,47.415278,-121.586111,41.6,SF SNOQUALMIE RIVER AB ALICE CREEK NEAR GARCIA WA,47 24 55,121 35 10,NOAA_HADS
12143600,WA,17110010,17,1711,SFSW1,DD1B96E4,SEW,47.452778,-121.716667,65.9,SF SNOQUALMIE RIVER AT EDGEWICK WA,47 27 10,121 43 00,NOAA_HADS
12143900,WA,17110010,17,1711,BOXW1,DDD434EA,SEW,47.448889,-121.730556,3.64,BOXLEY CREEK NEAR EDGEWICK WA,47 26 56,121 43 50,NOAA_HADS
12144000,WA,17110010,17,1711,SSNW1,1687D1AC,SEW,47.493056,-121.788889,81.7,SF SNOQUALMIE RIVER AT NORTH BEND WA,47 29 35,121 47 20,NOAA_HADS
12144500,WA,17110010,17,1711,SQUW1,DE6513D2,SEW,47.545278,-121.841111,375.0,SNOQUALMIE RIVER NEAR SNOQUALMIE WA,47 32 43,121 50 28,NOAA_HADS
12145500,WA,17110010,17,1711,RAGW1,DD12C0C4,SEW,47.54,-121.907778,30.6,RAGING RIVER NEAR FALL CITY WA,47 32 24,121 54 28,NOAA_HADS
12147470,WA,17110010,17,1711,TNFW1,16F1F222,SEW,47.719722,-121.743197,33.3,NF TOLT RIVER ABOVE YELLOW CREEK NR CARNATION WA,47 43 11,121 44 35.51,NOAA_HADS
12147500,WA,17110010,17,1711,NFTW1,DD8A77CA,SEW,47.7125,-121.7875,39.9,NORTH FORK TOLT RIVER NEAR CARNATION WA,47 42 45,121 47 15,NOAA_HADS
12147600,WA,17110010,17,1711,IDXW1,D10CF3E2,SEW,47.706944,-121.598889,5.34,SOUTH FORK TOLT RIVER NEAR INDEX WA,47 42 25,121 35 56,NOAA_HADS
12148000,WA,17110010,17,1711,STOW1,D10D019C,SEW,47.689444,-121.712222,19.7,SOUTH FORK TOLT RIVER NEAR CARNATION WA,47 41 22,121 42 44,NOAA_HADS
12148300,WA,17110010,17,1711,SFTW1,DD5A11D6,SEW,47.696944,-121.786111,29.6,SF TOLT RIVER BL REGULATING BASIN NR CARNATION WA,47 41 49,121 47 10,NOAA_HADS
12148500,WA,17110010,17,1711,TOLW1,DD8A4250,SEW,47.695833,-121.822778,81.4,TOLT RIVER NEAR CARNATION WA,47 41 45,121 49 22,NOAA_HADS
12149000,WA,17110010,17,1711,CRNW1,DD8A64BC,SEW,47.666111,-121.924167,603.0,SNOQUALMIE RIVER NEAR CARNATION WA,47 39 58,121 55 27,NOAA_HADS
12150800,WA,17110011,17,1711,MROW1,F00573D2,SEW,47.831111,-122.047222,1537.0,SNOHOMISH RIVER NEAR MONROE WA,47 49 52,122 02 50,NOAA_HADS
12155300,WA,17110011,17,1711,PILW1,17336772,SEW,47.935,-122.071944,127.0,PILCHUCK RIVER NEAR SNOHOMISH WA,47 56 06,122 04 19,NOAA_HADS
12155500,WA,17110011,17,1711,SNAW1,170E8196,SEW,47.912733,-122.106458,1714.0,SNOHOMISH RIVER AT SNOHOMISH WA,47 54 45.84,122 06 23.25,NOAA_HADS
12114500,WA,17110012,17,1711,CBCW1,DDCF0546,SEW,47.342222,-121.547778,25.4,CEDAR RIVER BELOW BEAR CREEK NEAR CEDAR FALLS WA,47 20 32,121 32 52,NOAA_HADS
12115000,WA,17110012,17,1711,CRRW1,DDCF1630,SEW,47.370278,-121.623889,40.7,CEDAR RIVER NEAR CEDAR FALLS WA,47 22 13,121 37 26,NOAA_HADS
12115500,WA,17110012,17,1711,REXW1,DDCF23AA,SEW,47.350833,-121.661944,13.4,REX RIVER NEAR CEDAR FALLS WA,47 21 03,121 39 43,NOAA_HADS
12115700,WA,17110012,17,1711,BLCW1,DD3AF016,SEW,47.366389,-121.691667,4.64,BOULDER CREEK NEAR CEDAR FALLS WA,47 21 59,121 41 30,NOAA_HADS
12116400,WA,17110012,17,1711,CDVW1,DD26207C,SEW,47.418889,-121.780278,83.9,CEDAR RIVER AT POWERPLANT AT CEDAR FALLS WA,47 25 08,121 46 49,NOAA_HADS
12116500,WA,17110012,17,1711,CDRW1,DD75C0C2,SEW,47.417222,-121.790833,84.2,CEDAR RIVER AT CEDAR FALLS WA,47 25 02,121 47 27,NOAA_HADS
12117000,WA,17110012,17,1711,TAYW1,DDCF30DC,SEW,47.386667,-121.845,17.2,TAYLOR CREEK NEAR SELLECK WA,47 23 12,121 50 42,NOAA_HADS
12117500,WA,17110012,17,1711,LNDW1,DE955C1E,SEW,47.393889,-121.953333,121.0,CEDAR RIVER NEAR LANDSBURG WA,47 23 38,121 57 12,NOAA_HADS
12117600,WA,17110012,17,1711,CDPW1,DD75E62E,SEW,47.379722,-121.982222,134.0,CEDAR RIVER BELOW DIVERSION NEAR LANDSBURG WA,47 22 47,121 58 56,NOAA_HADS
12118400,WA,17110012,17,1711,RCCW1,DD26330A,SEW,47.3625,-122.009722,11.2,ROCK CREEK AT HIGHWAY 516 NEAR RAVENSDALE WA,47 21 45,122 00 35,NOAA_HADS
12119000,WA,17110012,17,1711,RNTW1,17D9A6B4,SEW,47.482778,-122.202222,184.0,CEDAR RIVER AT RENTON WA,47 28 58,122 12 08,NOAA_HADS
12120600,WA,17110012,17,1711,ISQW1,DDD843E6,SEW,47.4575,-122.003889,17.6,ISSAQUAH CREEK NEAR HOBART WA,47 27 27,122 00 14,NOAA_HADS
12121600,WA,17110012,17,1711,ISSW1,DDCF464C,SEW,47.5525,-122.046667,56.6,ISSAQUAH CREEK NEAR MOUTH NEAR ISSAQUAH WA,47 33 09,122 02 48,NOAA_HADS
12106700,WA,17110013,17,1711,GPUW1,179085D8,SEW,47.305278,-121.849444,231.0,GREEN RIVER AT PURIFICATION PLANT NEAR PALMER WA,47 18 19,121 50 58,NOAA_HADS
12112600,WA,17110013,17,1711,BSKW1,DDCEF738,SEW,47.3125,-122.164167,66.7,BIG SOOS CREEK ABOVE HATCHERY NEAR AUBURN WA,47 18 45,122 09 51,NOAA_HADS
12113000,WA,17110013,17,1711,AUBW1,DDD83576,SEW,47.3125,-122.202778,399.0,GREEN RIVER NEAR AUBURN WA,47 18 45,122 12 10,NOAA_HADS
12113344,WA,17110013,17,1711,GRKW1,DE5FC298,SEW,47.423056,-122.264167,451.0,GREEN RIVER AT 200TH STREET AT KENT WA,47 25 23,122 15 51,NOAA_HADS
12113346,WA,17110013,17,1711,SBKW1,17B9826A,SEW,47.431389,-122.226389,8.44,SPRINGBROOK CREEK AT ORILLIA WA,47 25 53,122 13 35,NOAA_HADS
12113347,WA,17110013,17,1711,MKEW1,17B7B398,SEW,47.383333,-122.223611,2.49,MILL CREEK AT EARTHWORKS PARK AT KENT WA,47 23 00,122 13 25,NOAA_HADS
12113349,WA,17110013,17,1711,MCOW1,17B9D216,SEW,47.430278,-122.241944,5.63,MILL CREEK NEAR MOUTH AT ORILLIA WA,47 25 49,122 14 31,NOAA_HADS
12113350,WA,17110013,17,1711,TUKW1,DD0C155A,SEW,47.465278,-122.247222,440.0,GREEN RIVER AT TUKWILA WA,47 27 55,122 14 50,NOAA_HADS
12113390,WA,17110013,17,1711,DWTW1,DD2656EC,SEW,47.478986,-122.258733,461.0,DUWAMISH RIVER AT GOLF COURSE AT TUKWILA WA,47 28 44.35,122 15 31.44,NOAA_HADS
12092000,WA,17110014,17,1711,ELEW1,DD8AF1DE,SEW,46.903889,-122.033889,92.8,PUYALLUP RIVER NEAR ELECTRON WA,46 54 14,122 02 02,NOAA_HADS
12093500,WA,17110014,17,1711,ORTW1,DE90E682,SEW,47.039444,-122.206667,172.0,PUYALLUP RIVER NEAR ORTING WA,47 02 22,122 12 24,NOAA_HADS
12094000,WA,17110014,17,1711,FFXW1,17891178,SEW,47.028056,-122.031389,78.9,CARBON RIVER NEAR FAIRFAX WA,47 01 41,122 01 53,NOAA_HADS
12095000,WA,17110014,17,1711,SPEW1,17B88090,SEW,47.139722,-122.091389,79.5,SOUTH PRAIRIE CREEK AT SOUTH PRAIRIE WA,47 08 23,122 05 29,NOAA_HADS
12096500,WA,17110014,17,1711,ALDW1,DDF76276,SEW,47.185278,-122.228333,438.0,PUYALLUP RIVER AT ALDERTON WA,47 11 07,122 13 42,NOAA_HADS
12096505,WA,17110014,17,1711,PMNW1,DD3AD6FA,SEW,47.196944,-122.249722,443.0,PUYALLUP RIVER AT E MAIN BRIDGE AT PUYALLUP WA,47 11 49,122 14 59,NOAA_HADS
12096865,WA,17110014,17,1711,HBCW1,DD26B51E,SEW,47.060556,-121.604444,35.1,HUCKLEBERRY CREEK NEAR GREENWATER WA,47 03 38,121 36 16,NOAA_HADS
12097500,WA,17110014,17,1711,GRNW1,17BED022,SEW,47.153611,-121.634444,73.5,GREENWATER RIVER AT GREENWATER WA,47 09 13,121 38 04,NOAA_HADS
12097820,WA,17110014,17,1711,CLWW1,DE63F0EE,SEW,47.1275,-121.801389,34.3,CLEARWATER RIVER NEAR BUCKLEY WA,47 07 39,121 48 05,NOAA_HADS
12097850,WA,17110014,17,1711,MMIW1,DE535666,SEW,47.146944,-121.858889,375.0,WHITE RIVER BELOW CLEARWATER RIVER NR BUCKLEY WA,47 08 49,121 51 32,NOAA_HADS
12098500,WA,17110014,17,1711,MMDW1,DDC5C10A,SEW,47.151389,-121.948611,401.0,WHITE RIVER NEAR BUCKLEY WA,47 09 05,121 56 55,NOAA_HADS
12098920,WA,17110014,17,1711,WRCW1,171AE6D4,SEW,47.169722,-122.010833,,WHITE RIVER FLUME AT BUCKLEY WA,47 10 11,122 00 39,NOAA_HADS
12099200,WA,17110014,17,1711,WBCW1,17360554,SEW,47.173889,-122.008056,411.0,WHITE RIVER ABOVE BOISE CREEK AT BUCKLEY WA,47 10 26,122 00 29,NOAA_HADS
12100490,WA,17110014,17,1711,WRAW1,1682E3F6,SEW,47.275,-122.206667,474.0,WHITE RIVER AT R STREET NEAR AUBURN WA,47 16 30,122 12 24,NOAA_HADS
12100496,WA,17110014,17,1711,WABW1,17388728,SEW,47.266111,-122.228611,475.0,WHITE RIVER NEAR AUBURN WA,47 15 58,122 13 43,NOAA_HADS
12100500,WA,17110014,17,1711,WSTW1,DE6424B2,SEW,47.250278,-122.2425,477.0,WHITE RIVER NEAR SUMNER WA,47 15 01,122 14 33,NOAA_HADS
12101100,WA,17110014,17,1711,LTDW1,1736A5AC,SEW,47.238333,-122.226944,,LAKE TAPPS DIVERSION AT DIERINGER WA,47 14 18,122 13 37,NOAA_HADS
12101470,WA,17110014,17,1711,PFSW1,170EF706,SEW,47.198889,-122.286111,943.0,PUYALLUP RIVER AT 5TH ST BRIDGE AT PUYALLUP WA,47 11 56,122 17 10,NOAA_HADS
12101500,WA,17110014,17,1711,PUYW1,DD9B822A,SEW,47.208611,-122.325833,948.0,PUYALLUP RIVER AT PUYALLUP WA,47 12 31,122 19 33,NOAA_HADS
12102078,WA,17110014,17,1711,CKCW1,DE65353E,SEW,47.201111,-122.340556,14.9,CLARKS CREEK AT STEWART AVENUE NEAR PUYALLUP WA,47 12 04,122 20 26,NOAA_HADS
12082500,WA,17110015,17,1711,NISW1,17893794,SEW,46.752778,-122.0825,133.0,NISQUALLY RIVER NEAR NATIONAL WA,46 45 10,122 04 57,NOAA_HADS
12083000,WA,17110015,17,1711,MCMW1,DD0B3182,SEW,46.744444,-122.143333,75.2,MINERAL CREEK NEAR MINERAL WA,46 44 40,122 08 36,NOAA_HADS
12086000,WA,17110015,17,1711,NLGW1,D10D12EA,SEW,46.822778,-122.303056,289.0,NISQUALLY RIVER AT LA GRANDE DAM WA,46 49 22,122 18 11,NOAA_HADS
12086500,WA,17110015,17,1711,LGRW1,DD75D3B4,SEW,46.839444,-122.328056,292.0,NISQUALLY RIVER AT LA GRANDE WA,46 50 22,122 19 41,NOAA_HADS
12087000,WA,17110015,17,1711,MLGW1,DDFA7266,SEW,46.856944,-122.301389,80.7,MASHEL RIVER NEAR LA GRANDE WA,46 51 25,122 18 05,NOAA_HADS
12088000,WA,17110015,17,1711,OHCW1,16E88570,SEW,46.881111,-122.277778,34.5,OHOP CREEK NEAR EATONVILLE WA,46 52 52,122 16 40,NOAA_HADS
12089208,WA,17110015,17,1711,CPCW1,DE56B254,SEW,46.900278,-122.497222,,CENTRALIA POWER CANAL NEAR MCKENNA WA,46 54 01,122 29 50,NOAA_HADS
12089500,WA,17110015,17,1711,MKNW1,DDEF7238,SEW,46.933611,-122.559722,517.0,NISQUALLY RIVER AT MCKENNA WA,46 56 01,122 33 35,NOAA_HADS
12079000,WA,17110016,17,1711,DSRW1,DDF6837E,SEW,46.852222,-122.6675,89.8,DESCHUTES RIVER NEAR RAINIER WA,46 51 08,122 40 03,NOAA_HADS
12080010,WA,17110016,17,1711,DSEW1,17C16092,SEW,47.011944,-122.901944,162.0,DESCHUTES RIVER AT E ST BRIDGE AT TUMWATER WA,47 00 43,122 54 07,NOAA_HADS
12056500,WA,17110017,17,1711,SKOW1,15E35C84,SEW,47.514444,-123.328611,57.2,NF SKOKOMISH R BL STAIRCASE RPDS NR HOODSPORT WA,47 30 52,123 19 43,NOAA_HADS
12058790,WA,17110017,17,1711,SKBW1,D10BF1D6,SEW,47.396667,-123.202222,97.9,NF SKOKOMISH R NR LWR CUSHMAN DAM NR POTLATCH WA,47 23 48,123 12 08,NOAA_HADS
12059500,WA,17110017,17,1711,NSPW1,DE6474CE,SEW,47.33,-123.241944,117.0,NORTH FORK SKOKOMISH RIVER NEAR POTLATCH WA,47 19 48,123 14 31,NOAA_HADS
12060500,WA,17110017,17,1711,SSUW1,17233090,SEW,47.340556,-123.278889,76.3,SOUTH FORK SKOKOMISH RIVER NEAR UNION WA,47 20 26,123 16 44,NOAA_HADS
12061500,WA,17110017,17,1711,SRPW1,DE645222,SEW,47.31,-123.175833,227.0,SKOKOMISH RIVER NEAR POTLATCH WA,47 18 36,123 10 33,NOAA_HADS
12052210,WA,17110018,17,1711,BQCW1,16E7D39E,SEW,47.784722,-122.978333,49.4,BIG QUILCENE RIVER BELOW DIVERSION NR QUILCENE WA,47 47 05,122 58 42,NOAA_HADS
12054000,WA,17110018,17,1711,DKBW1,17BE153C,SEW,47.684167,-123.010278,66.5,DUCKABUSH RIVER NEAR BRINNON WA,47 41 03,123 00 37,NOAA_HADS
12073500,WA,17110019,17,1711,HUGW1,DD8A015A,SEW,47.389444,-122.697778,6.47,HUGE CREEK NEAR WAUNA WA,47 23 22,122 41 52,NOAA_HADS
12076800,WA,17110019,17,1711,GBCW1,DDC8A78A,SEW,47.211944,-123.111667,54.9,GOLDSBOROUGH CREEK ABOVE 7TH STREET AT SHELTON WA,47 12 43,123 06 42,NOAA_HADS
12090400,WA,17110019,17,1711,CCKW1,173537C0,SEW,47.134722,-122.413889,6.25,NORTH FORK CLOVER CREEK NEAR PARKLAND WA,47 08 05,122 24 50,NOAA_HADS
12091200,WA,17110019,17,1711,LEHW1,165E37F8,SEW,47.221667,-122.508056,4.73,LEACH CREEK NEAR FIRCREST WA,47 13 18,122 30 29,NOAA_HADS
12091290,WA,17110019,17,1711,LSTW1,DD2DE6CA,SEW,47.198611,-122.519722,6.54,LEACH CR AT MEADOW PARK GC AT UNIVERSITY PLACE WA,47 11 55,122 31 11,NOAA_HADS
12157250,WA,17110019,17,1711,MNCW1,DDCF60A0,SEW,48.058611,-122.266111,7.92,MISSION CREEK NEAR TULALIP WA,48 03 31,122 15 58,NOAA_HADS
12158040,WA,17110019,17,1711,TLCW1,DDCF553A,SEW,48.068611,-122.286667,15.4,TULALIP CREEK NEAR TULALIP WA,48 04 07,122 17 12,NOAA_HADS
12045500,WA,17110020,17,1711,ELWW1,1794568A,SEW,48.055,-123.581944,269.0,ELWHA RIVER AT MCDONALD BR NEAR PORT ANGELES WA,48 03 18,123 34 55,NOAA_HADS
12048000,WA,17110020,17,1711,DRSW1,DDCED1D4,SEW,48.014444,-123.131389,156.0,DUNGENESS RIVER NEAR SEQUIM WA,48 00 52,123 07 53,NOAA_HADS
12043300,WA,17110021,17,1711,HOKW1,DDD40170,SEW,48.241667,-124.3825,51.2,HOKO RIVER NEAR SEKIU WA,48 14 30,124 22 57,NOAA_HADS
10396000,OR,17120003,17,1712,DONO3,179263DE,BOI,42.790833,-118.8675,200.0,DONNER UND BLITZEN RIVER NR FRENCHGLEN OR,42 47 27,118 52 03,NOAA_HADS
13038500,ID,170402010102,17,1704,LORI1,3442DE44,PIH,43.735278,-111.878056,5810.0,SNAKE RIVER AT LORENZO ID,43 44 07,111 52 41,NOAA_HADS
13072400,ID,170402080207,17,1704,PBLI1,DDC916FE,PIH,42.743536,-112.001636,261.0,PORTNEUF RIVER AT PEBBLE ID,42 44 36.73,112 00 05.89,NOAA_HADS
13250000,ID,170501220903,17,1705,PLEI1,347D4516,BOI,43.901719,-116.633297,2760.0,PAYETTE RIVER NR LETHA ID,43 54 06.19,116 37 59.87,NOAA_HADS
14102000,OR,170703061108,17,1707,CRHO3,DDD6E776,PQR,45.261028,-121.036361,10200.0,DESCHUTES RIVER AT SHERARS BRIDGE OR,45 15 39.7,121 02 10.9,NOAA_HADS
