usgs_id,nws_id,goes_id,nws_hsa,state_code,latitude_decimal,longitude_decimal,latitude_dms,longitude_dms,station_name,data_source
10251290,BHSC1,DD8C429E,VEF,CA,35.885694,-116.23425,35 53 08.5,116 14 03.3,BOREHOLE SPG CHANNEL NR TECOPA HOT SPGS CA,NOAA_HADS
10251300,TCPC1,DE03D430,VEF,CA,35.849444,-116.230833,35 50 58,116 13 51,AMARGOSA RV AT TECOPA CA,NOAA_HADS
10251330,AMCC1,DD99A132,VEF,CA,35.790528,-116.207639,35 47 25.9,116 12 27.5,AMARGOSA RV ABV CHINA RANCH WASH NR TECOPA CA,NOAA_HADS
10251335,WLWC1,163FDA10,VEF,CA,35.800944,-116.194417,35 48 03.4,116 11 39.9,WILLOW CK AT CHINA RANCH CA,NOAA_HADS
10254005,ZSSC1,DD74575A,PSR,CA,33.1925,-115.833056,33 11 33,115 49 59,SALTON SEA NR WESTMORLAND CA,NOAA_HADS
10254050,ZSCC1,DDFAF472,PSR,CA,33.446944,-115.8425,33 26 49,115 50 33,SALT C NR MECCA,NOAA_HADS
10254730,ZANC1,163F02AA,PSR,CA,33.198889,-115.596111,33 11 56,115 35 46,ALAMO R NR NILAND CA,NOAA_HADS
10254970,IBCC1,16C85C24,PSR,CA,32.665833,-115.502222,32 39 57,115 30 08,NEW R AT INTERNATIONAL BOUNDARY AT CALEXICO CA,NOAA_HADS
10255550,ZNRC1,DDF6161C,PSR,CA,33.104722,-115.663611,33 06 17,115 39 49,NEW R NR WESTMORLAND CA,NOAA_HADS
10255810,BPCC1,172C667E,SGX,CA,33.279167,-116.430556,33 16 45,116 25 50,BORREGO PALM C NR BORREGO SPRINGS CA,NOAA_HADS
10256500,NCKC1,1790F348,SGX,CA,33.870556,-116.680278,33 52 14,116 40 49,SNOW C NR WHITE WATER CA,NOAA_HADS
10257500,FACC1,17933158,SGX,CA,33.869444,-116.670833,33 52 10,116 40 15,FALLS C NR WHITE WATER CA,NOAA_HADS
10257548,WIPC1,DDF6056A,SGX,CA,33.898889,-116.620278,33 53 56,116 37 13,WHITEWATER R A WINDY POINT MAIN CHANNEL CA,NOAA_HADS
10257549,WWPC1,DE313446,SGX,CA,33.898889,-116.620278,33 53 56,116 37 13,WHITEWATER R A WINDY POINT OVERFLOW CHANNEL CA,NOAA_HADS
10257720,CCCC1,1793A43A,SGX,CA,33.84385,-116.605808,33 50 37.86,116 36 20.91,CHINO CYN C BL TRAMWAY NR PALM SPRINGS CA,NOAA_HADS
10258000,TQUC1,DDF81274,SGX,CA,33.805,-116.558333,33 48 18,116 33 30,TAHQUITZ C NR PALM SPRINGS CA,NOAA_HADS
10258500,PCNC1,DDF5B1EA,SGX,CA,33.745,-116.534722,33 44 42,116 32 05,PALM CYN C NR PALM SPRINGS CA,NOAA_HADS
10258700,MYNC1,DD5D0094,SGX,CA,33.752778,-116.544444,33 45 10,116 32 40,MURRAY CYN C NR PALM SPRINGS CA,NOAA_HADS
10259000,ANRC1,DDF090C6,SGX,CA,33.76,-116.549167,33 45 36,116 32 57,ANDREAS C NR PALM SPRINGS CA,NOAA_HADS
10259050,PMYC1,DE076284,SGX,CA,33.797222,-116.481111,33 47 50,116 28 52,PALM CYN WASH NR CATHEDRAL CITY CA,NOAA_HADS
10259100,WWIC1,1735A2A2,SGX,CA,33.749444,-116.421944,33 44 58,116 25 19,WHITEWATER R A RANCHO MIRAGE CA,NOAA_HADS
10259200,DEPC1,DE078176,SGX,CA,33.631111,-116.391389,33 37 52,116 23 29,DEEP C NR PALM DESERT CA,NOAA_HADS
10259300,WTIC1,DE079200,SGX,CA,33.737222,-116.235278,33 44 14,116 14 07,WHITEWATER R A INDIO CA,NOAA_HADS
10259540,WHWC1,173D631A,SGX,CA,33.524722,-116.076667,33 31 29,116 04 36,WHITEWATER R NR MECCA,NOAA_HADS
10260200,PWHC1,16F52170,SGX,CA,34.171944,-116.546667,34 10 19,116 32 48,PIPES WASH NR YUCCA VALLEY CA,NOAA_HADS
10260400,CUXC1,16F514EA,SGX,CA,34.347778,-116.845833,34 20 52,116 50 45,CUSHENBURY CANYON C NR LUCERNE VALLEY CA,NOAA_HADS
10260500,DKHC1,17D6B350,SGX,CA,34.343056,-117.225556,34 20 35,117 13 32,DEEP C NR HESPERIA CA,NOAA_HADS
10260855,GVVC1,1792D050,SGX,CA,34.26,-117.204444,34 15 36,117 12 16,GRASS VALLEY LK TUNNEL OUTLET A LAKE ARROWHEAD CA,NOAA_HADS
10260950,WFMC1,17178054,SGX,CA,34.338889,-117.256944,34 20 20,117 15 25,WF MOJAVE R AB MOJAVE R FORKS RES NR HESPERIA CA,NOAA_HADS
10261500,MVVC1,DDF77100,SGX,CA,34.573056,-117.319722,34 34 23,117 19 11,MOJAVE R A LO NARROWS NR VICTORVILLE CA,NOAA_HADS
10262000,XMHC1,16EDC1BA,VEF,CA,34.835517,-117.191678,34 50 07.86,117 11 30.04,MOJAVE R NR HODGE CA,NOAA_HADS
10262500,MBRC1,DD98403A,VEF,CA,34.906944,-117.021944,34 54 25,117 01 19,MOJAVE R A BARSTOW CA,NOAA_HADS
10262700,MXDC1,DE616078,VEF,CA,34.869661,-116.887658,34 52 10.78,116 53 15.57,MOJAVE R A DAGGETT CA,NOAA_HADS
10263000,MJRC1,1792B5B6,VEF,CA,35.037222,-116.383333,35 02 14,116 23 00,MOJAVE R A AFTON CA,NOAA_HADS
10263500,BRQC1,17108260,LOX,CA,34.420833,-117.838611,34 25 15,117 50 19,BIG ROCK C NR VALYERMO CA,NOAA_HADS
10265100,DCJC1,D100C7E4,REV,CA,37.750278,-118.939444,37 45 01,118 56 22,DEADMAN C A BIG SPRINGS NR CRESTVIEW CA,NOAA_HADS
10265150,HFCC1,D100D492,REV,CA,37.668889,-118.816667,37 40 08,118 49 00,HOT C A FLUME NR MAMMOTH LAKES CA,NOAA_HADS
10289000,VCBC1,16298D3C,REV,CA,38.191944,-119.209167,38 11 31,119 12 33,VIRGINIA CK NR BRIDGEPORT CA,NOAA_HADS
10289500,GCBC1,DD7A75DE,REV,CA,38.173889,-119.232778,38 10 26,119 13 58,GREEN CK NR BRIDGEPORT CA,NOAA_HADS
10290500,RBNC1,DD272286,REV,CA,38.172222,-119.323611,38 10 20,119 19 25,ROBINSON CK AT TWIN LKS OUTLET NR BRIDGEPORT CA,NOAA_HADS
10291500,BKIC1,DE6AF6B2,REV,CA,38.238889,-119.325,38 14 20,119 19 30,BUCKEYE CK NR BRIDGEPORT CA,NOAA_HADS
10292500,BPRC1,DD9994A8,REV,CA,38.325,-119.211111,38 19 30,119 12 40,BRIDGEPORT RE NR BRIDGEPORT CA,NOAA_HADS
10293000,EWBC1,DE94C554,REV,CA,38.327778,-119.213889,38 19 40,119 12 50,E WALKER RV NR BRIDGEPORT CA,NOAA_HADS
10296000,WWBC1,DD63A274,REV,CA,38.379722,-119.449167,38 22 47,119 26 57,W WALKER RV BLW L WALKER RV NR COLEVILLE CA,NOAA_HADS
10296500,CLEC1,DE91C294,REV,CA,38.513333,-119.448889,38 30 48,119 26 56,W WALKER RV NR COLEVILLE CA,NOAA_HADS
10296750,TPZC1,D10262E8,REV,CA,38.636667,-119.5075,38 38 12,119 30 27,TOPAZ CANAL BLW DIV W WALKER RVR NR TOPAZ CA,NOAA_HADS
10308200,CEMC1,DE91BAD6,REV,CA,38.714722,-119.763889,38 42 53,119 45 50,E FK CARSON RV BLW MARKLEEVILLE CK NR MARKLEEVILLE,NOAA_HADS
10308783,LVCC1,DDF311DC,REV,CA,38.701389,-119.655556,38 42 05,119 39 20,LEVIATHAN C AB MINE NR MARKLEEVILLE CA,NOAA_HADS
10308789,LVIC1,17E2B01A,REV,CA,38.716944,-119.659167,38 43 01,119 39 33,LEVIATHAN C AB ASPEN C NR MARKLEEVILLE CA,NOAA_HADS
10308794,BBMC1,1738B2B2,REV,CA,38.735833,-119.644444,38 44 09,119 38 40,BRYANT C BL MOUNTAINEER C NR MARKLEEVILLE CA,NOAA_HADS
10310000,WOOC1,DE91CC46,REV,CA,38.769722,-119.832778,38 46 11,119 49 58,W FK CARSON RV AT WOODFORDS CA,NOAA_HADS
103366092,UTHC1,DE947808,REV,CA,38.848611,-120.026111,38 50 55,120 01 34,UPPER TRUCKEE RV AT HWY 50 ABV MEYERS CA,NOAA_HADS
10336610,UTRC1,DE91F9DC,REV,CA,38.9225,-119.990556,38 55 21,119 59 26,UPPER TRUCKEE RV AT SOUTH LAKE TAHOE CA,NOAA_HADS
10336645,GNRC1,DDF43BD6,REV,CA,39.051944,-120.1175,39 03 07,120 07 03,GENERAL C NR MEEKS BAY CA,NOAA_HADS
10336660,BKDC1,DDF44D46,REV,CA,39.1075,-120.161111,39 06 27,120 09 40,BLACKWOOD C NR TAHOE CITY CA,NOAA_HADS
10336674,WCBC1,DD722FD6,REV,CA,39.140833,-120.211111,39 08 27,120 12 40,WARD C BL CONFLUENCE NR TAHOE CITY CA,NOAA_HADS
10336676,WDKC1,DDF45E30,REV,CA,39.132222,-120.156667,39 07 56,120 09 24,WARD C AT HWY 89 NR TAHOE PINES CA,NOAA_HADS
10336780,TTVC1,DE920084,REV,CA,38.92,-119.971389,38 55 12,119 58 17,TROUT CK NR TAHOE VALLEY CA,NOAA_HADS
10337000,THLC1,DD54D0A0,REV,CA,39.180833,-120.118333,39 10 51,120 07 06,LAKE TAHOE A TAHOE CITY CA,NOAA_HADS
10337500,TRTC1,DDEC03A6,REV,CA,39.166389,-120.143333,39 09 59,120 08 36,TRUCKEE R A TAHOE CITY CA,NOAA_HADS
10337810,OVCC1,DD5522DE,REV,CA,39.198775,-120.241111,39 11 55.59,120 14 28,NF WASHESHU C A OLYMPIC VALLEY CA,NOAA_HADS
10338000,TRCC1,DE900570,REV,CA,39.296389,-120.204444,39 17 47,120 12 16,TRUCKEE R NR TRUCKEE CA,NOAA_HADS
10338400,DNRC1,DD5531A8,REV,CA,39.325,-120.281389,39 19 30,120 16 53,DONNER LK NR TRUCKEE CA,NOAA_HADS
10338500,DCKC1,DE54823A,REV,CA,39.323611,-120.233333,39 19 25,120 14 00,DONNER C A DONNER LK NR TRUCKEE CA,NOAA_HADS
10338700,DCHC1,DD70DAA6,REV,CA,39.321111,-120.206944,39 19 16,120 12 25,DONNER C AT HWY 89 NR TRUCKEE CA,NOAA_HADS
10339410,TBMC1,DDEBF116,REV,CA,39.353056,-120.119444,39 21 11,120 07 10,TRUCKEE R BL MARTIS C NR TRUCKEE CA,NOAA_HADS
10340300,PSRC1,DD5787D2,REV,CA,39.379444,-120.136667,39 22 46,120 08 12,PROSSER C RES NR TRUCKEE CA,NOAA_HADS
10340500,PROC1,DE903E38,REV,CA,39.373333,-120.130556,39 22 24,120 07 50,PROSSER C BL PROSSER C DAM NR TRUCKEE CA,NOAA_HADS
10341100,PZCC1,17139618,REV,CA,39.454861,-120.391222,39 27 17.5,120 23 28.4,PERAZZO C NR SODA SPRINGS CA,NOAA_HADS
10342900,ILAC1,DD54E53A,REV,CA,39.451944,-120.289722,39 27 07,120 17 23,INDEPENDENCE LK NR TRUCKEE CA,NOAA_HADS
10343000,ICRC1,DD54F64C,REV,CA,39.456667,-120.286111,39 27 24,120 17 10,INDEPENDENCE C NR TRUCKEE CA,NOAA_HADS
10343500,SGNC1,DD54A630,REV,CA,39.431667,-120.236944,39 25 54,120 14 13,SAGEHEN C NR TRUCKEE CA,NOAA_HADS
10344300,STPC1,DD5751BA,REV,CA,39.470556,-120.103056,39 28 14,120 06 11,STAMPEDE RES NR BOCA CA,NOAA_HADS
10344400,LITC1,DD551744,REV,CA,39.435833,-120.083333,39 26 09,120 05 00,LITTLE TRUCKEE R AB BOCA RES NR TRUCKEE CA,NOAA_HADS
10344490,BCVC1,DDDE4328,REV,CA,39.388889,-120.095278,39 23 20,120 05 43,BOCA RES NR TRUCKEE CA,NOAA_HADS
10344500,BCAC1,DD576420,REV,CA,39.386944,-120.094444,39 23 13,120 05 40,LITTLE TRUCKEE R BL BOCA DAM NR TRUCKEE CA,NOAA_HADS
10344505,TBBC1,DDEC10D0,REV,CA,39.385278,-120.086667,39 23 07,120 05 12,TRUCKEE R A BOCA BRIDGE NR TRUCKEE CA,NOAA_HADS
10346000,FARC1,DDEC7536,REV,CA,39.428056,-120.033056,39 25 41,120 01 59,TRUCKEE R A FARAD CA,NOAA_HADS
11012500,CPOC1,16CA077E,SGX,CA,32.591111,-116.524722,32 35 28,116 31 29,CAMPO C NR CAMPO CA,NOAA_HADS
11014000,JMLC1,DE0771F2,SGX,CA,32.6375,-116.883333,32 38 15,116 53 00,JAMUL C NR JAMUL CA,NOAA_HADS
11015000,SWCC1,DD9F5178,SGX,CA,32.834722,-116.622222,32 50 05,116 37 20,SWEETWATER R NR DESCANSO CA,NOAA_HADS
11016200,DEHC1,DDCCE1BA,SGX,CA,32.774167,-116.850278,32 46 27,116 51 01,SWEETWATER R A DEHESA CA,NOAA_HADS
11020600,CPNC1,DD725794,SGX,CA,32.882222,-116.808333,32 52 56,116 48 30,EL CAPITAN RES NR LAKESIDE CA,NOAA_HADS
11022100,VCTC1,DD7244E2,SGX,CA,32.913333,-116.927222,32 54 48,116 55 38,SAN VICENTE RES NR LAKESIDE CA,NOAA_HADS
11022200,LCCC1,173090F8,SGX,CA,32.836111,-116.899444,32 50 10,116 53 58,LOS COCHES C NR LAKESIDE CA,NOAA_HADS
11022480,SDGC1,DDCCC756,SGX,CA,32.840278,-117.025,32 50 25,117 01 30,SAN DIEGO R A MAST RD NR SANTEE CA,NOAA_HADS
11022830,AVDC1,162E2FF0,SGX,CA,32.778325,-117.063397,32 46 41.97,117 03 48.23,ALVARADO C NR LA MESA CA,NOAA_HADS
11023000,FSNC1,DDCCD420,SGX,CA,32.765,-117.167778,32 45 54,117 10 04,SAN DIEGO R A FASHION VALLEY AT SAN DIEGO CA,NOAA_HADS
11023100,TFBC1,169B7756,SGX,CA,32.789528,-117.188111,32 47 22.3,117 11 17.2,TECOLOTE C AB FOOTBRIDGE NR SAN DIEGO CA,NOAA_HADS
11023340,PNQC1,173D939E,SGX,CA,32.943056,-117.120833,32 56 35,117 07 15,LOS PENASQUITOS C NR POWAY CA,NOAA_HADS
11025500,SYBC1,DDF827EE,SGX,CA,33.106944,-116.865278,33 06 25,116 51 55,SANTA YSABEL C NR RAMONA CA,NOAA_HADS
11027000,GTOC1,DD727178,SGX,CA,33.115833,-116.952222,33 06 57,116 57 08,GUEJITO C NR SAN PASQUAL CA,NOAA_HADS
11028500,SMKC1,17B1C5C6,SGX,CA,33.052222,-116.944722,33 03 08,116 56 41,SANTA MARIA C NR RAMONA CA,NOAA_HADS
11042000,SLOC1,DD804302,SGX,CA,33.218056,-117.359444,33 13 05,117 21 34,SAN LUIS REY R A OCEANSIDE CA,NOAA_HADS
11042400,TEKC1,17B1B356,SGX,CA,33.459167,-116.922778,33 27 33,116 55 22,TEMECULA C NR AGUANGA CA,NOAA_HADS
11042510,VLKC1,DDF2D638,SGX,CA,33.495556,-116.975833,33 29 44,116 58 33,VAIL LK NR TEMECULA CA,NOAA_HADS
11042631,PHGC1,DD3BA290,SGX,CA,33.464167,-117.123889,33 27 51,117 07 26,PECHANGA C NR TEMECULA CA,NOAA_HADS
11042700,MUCC1,1767A314,SGX,CA,33.555556,-117.230556,33 33 20,117 13 50,MURRIETA C NR MURRIETA CA,NOAA_HADS
11042800,WRSC1,DDFAE704,SGX,CA,33.532222,-117.176111,33 31 56,117 10 34,WARM SPRINGS C NR MURRIETA CA,NOAA_HADS
11042900,GRTC1,17302376,SGX,CA,33.524444,-117.163889,33 31 28,117 09 50,SANTA GERTRUDIS C NR TEMECULA CA,NOAA_HADS
11043000,MUTC1,17975184,SGX,CA,33.479722,-117.143056,33 28 47,117 08 35,MURRIETA C A TEMECULA CA,NOAA_HADS
11044000,SMHC1,17B1A020,SGX,CA,33.473889,-117.141389,33 28 26,117 08 29,SANTA MARGARITA R NR TEMECULA CA,NOAA_HADS
11044250,RNKC1,DD7FF40A,SGX,CA,33.4075,-117.2,33 24 27,117 12 00,RAINBOW C NR FALLBROOK CA,NOAA_HADS
11044300,SMFC1,DD3BD400,SGX,CA,33.413611,-117.240278,33 24 49,117 14 25,SANTA MARGARITA R A FPUD SUMP NR FALLBROOK CA,NOAA_HADS
11044350,SDQC1,173EB27C,SGX,CA,33.424444,-117.248333,33 25 28,117 14 54,SANDIA C NR FALLBROOK CA,NOAA_HADS
11044800,DLZC1,DD35B58E,SGX,CA,33.419722,-117.320833,33 25 11,117 19 15,DE LUZ C NR DE LUZ CA,NOAA_HADS
11045300,FABC1,DD7FE77C,SGX,CA,33.346944,-117.316944,33 20 49,117 19 01,FALLBROOK C NR FALLBROOK CA,NOAA_HADS
11045600,ONEC1,DDF5D40C,SGX,CA,33.325,-117.324722,33 19 30,117 19 29,ONEILL LAKE OUTLET CH NR FALLBROOK CA,NOAA_HADS
11045700,OSPC1,173FB086,SGX,CA,33.328889,-117.326389,33 19 44,117 19 35,ONEILL LK SPILL CH NR FALLBROOK CA,NOAA_HADS
11046000,YDRC1,DDCD00B2,SGX,CA,33.311111,-117.346389,33 18 40,117 20 47,SANTA MARGARITA R A YSIDORA CA,NOAA_HADS
11046050,SXMC1,DDE4E4F2,SGX,CA,33.237806,-117.395306,33 14 16.1,117 23 43.1,SANTA MARGARITA R A MOUTH NR OCEANSIDE CA,NOAA_HADS
11046325,XSMC1,DD803592,SGX,CA,33.419333,-117.537056,33 25 09.60,117 32 13.40,SAN MATEO C A SAN MATEO RD NR SAN ONOFRE CA,NOAA_HADS
11046360,CRIC1,17B1E32A,SGX,CA,33.426389,-117.569444,33 25 35,117 34 10,CRISTIANITOS C AB SAN MATEO C NR SAN CLEMENTE CA,NOAA_HADS
11046530,SJPC1,178FC7DE,SGX,CA,33.5025,-117.647222,33 30 09,117 38 50,SAN JUAN C AT LA NOVIA ST BR AT SAN JUAN CAPIS CA,NOAA_HADS
11047300,ARYC1,DDF2E3A2,SGX,CA,33.498333,-117.665,33 29 54,117 39 54,ARROYO TRABUCO A SAN JUAN CAPISTRANO CA,NOAA_HADS
11048175,AQCC1,DDF6D302,SGX,CA,33.687083,-117.695417,33 41 13.5,117 41 43.5,AGUA CHINON WASH A PORTOLA SPRINGS RD NR IRVINE CA,NOAA_HADS
11048600,BOKC1,DDF70790,SGX,CA,33.645,-117.860278,33 38 42,117 51 37,BONITA C A IRVINE CA,NOAA_HADS
11051499,SRWC1,172F227A,SGX,CA,34.108333,-117.099722,34 06 30,117 05 59,SANTA ANA R NR MENTONE (RIVER ONLY) CA,NOAA_HADS
11051502,SRDC1,173A612E,SGX,CA,34.108333,-117.099722,34 06 30,117 05 59,SAR SUPP GAGE NR MENTONE CA,NOAA_HADS
11055500,PGKC1,DD7EA68C,SGX,CA,34.118333,-117.140833,34 07 06,117 08 27,PLUNGE C NR EAST HIGHLANDS CA,NOAA_HADS
11055800,CITC1,DD7EB5FA,SGX,CA,34.143889,-117.187778,34 08 38,117 11 16,CITY C NR HIGHLAND CA,NOAA_HADS
11057500,TIMC1,DD364204,SGX,CA,34.061389,-117.266667,34 03 41,117 16 00,SAN TIMOTEO C NR LOMA LINDA CA,NOAA_HADS
11058500,ETCC1,1713B0F4,SGX,CA,34.179167,-117.264722,34 10 45,117 15 53,E TWIN C NR ARROWHEAD SPRINGS CA,NOAA_HADS
11058600,WERC1,DD08F392,SGX,CA,34.185833,-117.272222,34 11 09,117 16 20,WATERMAN CANYON CREEK NR ARROWHEAD SPRINGS CA,NOAA_HADS
11059300,SREC1,D1024404,SGX,CA,34.065,-117.299444,34 03 54,117 17 58,SANTA ANA R A E ST NR SAN BERNARDINO CA,NOAA_HADS
11060400,WRMC1,171031EE,SGX,CA,34.078333,-117.299444,34 04 42,117 17 58,WARM C NR SAN BERNARDINO CA,NOAA_HADS
11062000,LCFC1,DD3A95F0,SGX,CA,34.211844,-117.457867,34 12 42.64,117 27 28.32,LYTLE C NR FONTANA CA,NOAA_HADS
11063510,CJKC1,D100A202,SGX,CA,34.263333,-117.466111,34 15 48,117 27 58,CAJON C BL LONE PINE C NR KEENBROOK CA,NOAA_HADS
11063680,DCCC1,17ADB554,SGX,CA,34.208333,-117.330556,34 12 30,117 19 50,DEVIL CYN C NR SAN BERNARDINO CA,NOAA_HADS
11065000,YTLC1,173757D2,SGX,CA,34.078889,-117.304722,34 04 44,117 18 17,LYTLE C A COLTON CA,NOAA_HADS
11066320,RIXC1,DDEBC48C,SGX,CA,34.041386,-117.354569,34 02 28.99,117 21 16.45,RIX OUTFLOW A SANTA ANA R NR GRAND TERRACE CA,NOAA_HADS
11066460,MWXC1,1733A26C,SGX,CA,33.968472,-117.448222,33 58 06.50,117 26 53.60,SANTA ANA R A MWD CROSSING CA,NOAA_HADS
11069500,SJIC1,1738124A,SGX,CA,33.738056,-116.833056,33 44 17,116 49 59,SAN JACINTO R NR SAN JACINTO,NOAA_HADS
11070150,SJKC1,DD3D97C4,SGX,CA,33.821389,-116.9725,33 49 17,116 58 21,SAN JACINTO R AB STATE STREET NR SAN JACINTO CA,NOAA_HADS
11070210,SJTC1,1793D2AA,SGX,CA,33.839722,-117.135,33 50 23,117 08 06,SAN JACINTO R A RAMONA EXPRESSWAY NR LAKEVIEW CA,NOAA_HADS
11070270,PRIC1,17946310,SGX,CA,33.801111,-117.205278,33 48 04,117 12 19,PERRIS VALLEY STORM DR A NUEVO RD NR PERRIS CA,NOAA_HADS
11070365,JACC1,DDF5C77A,SGX,CA,33.746111,-117.230833,33 44 46,117 13 51,SAN JACINTO R NR SUN CITY CA,NOAA_HADS
11070465,SKEC1,DD0CB5A2,SGX,CA,33.694167,-117.204722,33 41 39,117 12 17,SALT C A MURRIETA RD NR SUN CITY CA,NOAA_HADS
11070500,SJVC1,1730A562,SGX,CA,33.664167,-117.293056,33 39 51,117 17 35,SAN JACINTO R NR ELSINORE CA,NOAA_HADS
11071760,QCCC1,171CA510,SGX,CA,33.754444,-117.495806,33 45 16,117 29 44.90,COLDWATER CANYON C NR CORONA CA,NOAA_HADS
11071900,ONAC1,DDD2F13A,SGX,CA,33.750278,-117.445833,33 45 01,117 26 45,TEMESCAL C A CORONA LK NR CORONA CA,NOAA_HADS
11072100,TSLC1,173744A4,SGX,CA,33.889167,-117.561944,33 53 21,117 33 43,TEMESCAL C AB MAIN ST A CORONA CA,NOAA_HADS
11073300,IOCC1,17ADC3C4,SGX,CA,34.018611,-117.729722,34 01 07,117 43 47,SAN ANTONIO C A RIVERSIDE DRIVE NR CHINO CA,NOAA_HADS
11073360,CHKC1,DD7EC36A,SGX,CA,34.003889,-117.726111,34 00 14,117 43 34,CHINO C A SCHAEFER AVENUE NR CHINO CA,NOAA_HADS
11073495,CCMC1,165020E6,SGX,CA,33.982778,-117.598611,33 58 58,117 35 55,CUCAMONGA C NR MIRA LOMA CA,NOAA_HADS
11074000,PDDC1,F0000282,SGX,CA,33.883333,-117.644444,33 53 00,117 38 40,SANTA ANA R BL PRADO DAM CA,NOAA_HADS
11075720,CBCC1,DE53A6E2,SGX,CA,33.913333,-117.841667,33 54 48,117 50 30,CARBON C BL CARBON CYN DAM CA,NOAA_HADS
11075800,SMJC1,17969660,SGX,CA,33.708889,-117.634722,33 42 32,117 38 05,SANTIAGO C A MODJESKA CA,NOAA_HADS
11077500,SKAC1,178D8120,SGX,CA,33.770278,-117.883611,33 46 13,117 53 01,SANTIAGO C A SANTA ANA CA,NOAA_HADS
11078000,SRVC1,DDEBB21C,SGX,CA,33.751111,-117.9075,33 45 04,117 54 27,SANTA ANA R A SANTA ANA CA,NOAA_HADS
11085000,SFHC1,17100474,LOX,CA,34.112222,-117.968611,34 06 44,117 58 07,SAN GABRIEL R BL SANTA FE DAM NR BALDWIN PK CA,NOAA_HADS
11087020,SRQC1,DD7EE586,LOX,CA,34.034167,-118.037222,34 02 03,118 02 14,SAN GABRIEL R AB WHITTIER NARROWS DAM CA,NOAA_HADS
11088500,BKBC1,DE53B594,SGX,CA,33.887778,-117.925556,33 53 16,117 55 32,BREA C BL BREA DAM NR FULLERTON CA,NOAA_HADS
11089500,FKKC1,DE53C304,SGX,CA,33.895833,-117.885278,33 53 45,117 53 07,FULLERTON C BL FULLERTON DAM NR BREA CA,NOAA_HADS
11092450,PVCC1,17ADE528,LOX,CA,34.161667,-118.465833,34 09 42,118 27 57,LOS ANGELES R A SEPULVEDA DAM CA,NOAA_HADS
11097000,TJCC1,170E14F4,LOX,CA,34.253611,-118.388056,34 15 13,118 23 17,BIG TUJUNGA C BL HANSEN DAM CA,NOAA_HADS
11098000,ASPC1,DDCCF2CC,LOX,CA,34.222222,-118.176667,34 13 20,118 10 36,ARROYO SECO NR PASADENA CA,NOAA_HADS
11101250,RHGC1,1711D0E6,LOX,CA,34.058333,-118.070833,34 03 30,118 04 15,RIO HONDO AB WHITTIER NARROWS DAM CA,NOAA_HADS
11102300,RHCC1,DD7EF6F0,LOX,CA,34.016667,-118.0875,34 01 00,118 05 15,RIO HONDO BL WHITTIER NARROWS DAM CA,NOAA_HADS
11104040,TGMC1,17E425B6,LOX,CA,34.039242,-118.583131,34 02 21.27,118 34 59.27,TOPANGA C A HWY 1 BRIDGE NR MALIBU CA,NOAA_HADS
11109000,SCPC1,17408622,LOX,CA,34.403611,-118.738333,34 24 13,118 44 18,SANTA CLARA R NR PIRU CA,NOAA_HADS
11109600,PCPC1,17385140,LOX,CA,34.523056,-118.756111,34 31 23,118 45 22,PIRU CREEK ABOVE LAKE PIRU CA,NOAA_HADS
11109700,LKPC1,17443096,LOX,CA,34.461389,-118.750556,34 27 41,118 45 02,LK PIRU NR PIRU CA,NOAA_HADS
11109800,PSFC1,DF09A250,LOX,CA,34.460278,-118.751111,34 27 37,118 45 04,PIRU CREEK BELOW SANTA FELICIA DAM CA,NOAA_HADS
11111500,SSWC1,173660B2,LOX,CA,34.577778,-119.256389,34 34 40,119 15 23,SESPE CREEK NEAR WHEELER SPRINGS CA,NOAA_HADS
11113000,SESC1,DE55334E,LOX,CA,34.441667,-118.926389,34 26 30,118 55 35,SESPE C NR FILLMORE,NOAA_HADS
11113500,SPPC1,DD7D876E,LOX,CA,34.413333,-119.081389,34 24 48,119 04 53,SANTA PAULA C NR SANTA PAULA,NOAA_HADS
11114495,MTGC1,DDF4760E,LOX,CA,34.502778,-119.356389,34 30 10,119 21 23,MATILIJA C NR RES NR MATILIJA HOT SPRINGS CA,NOAA_HADS
11118500,VRVC1,1744E6FE,LOX,CA,34.352222,-119.3075,34 21 08,119 18 27,VENTURA R NR VENTURA,NOAA_HADS
11119500,CPCC1,DE52D288,LOX,CA,34.401261,-119.487306,34 24 04.54,119 29 14.3,CARPINTERIA C NR CARPINTERIA CA,NOAA_HADS
11119745,MNOC1,173A3152,LOX,CA,34.440556,-119.710833,34 26 26,119 42 39,MISSION C A ROCKY NOOK PARK A SANTA BARBARA CA,NOAA_HADS
11119750,MSEC1,DE52C1FE,LOX,CA,34.426628,-119.723669,34 25 35.86,119 43 25.21,MISSION C NR MISSION ST NR SANTA BARBARA CA,NOAA_HADS
11119770,MGZC1,DD805EA6,LOX,CA,34.414219,-119.695847,34 24 51.19,119 41 45.05,MISSION C BL W GUTIERREZ ST BR A SANTA BARBARA CA,NOAA_HADS
11119940,LMYC1,DDEF17DE,LOX,CA,34.445,-119.802778,34 26 42,119 48 10,MARIA YGNACIO C A UNIVERSITY DRIVE NR GOLETA CA,NOAA_HADS
11120000,ATDC1,DDEF47A2,LOX,CA,34.424722,-119.810833,34 25 29,119 48 39,ATASCADERO C NR GOLETA CA,NOAA_HADS
11120500,SJEC1,DDEEF6D6,LOX,CA,34.459167,-119.808056,34 27 33,119 48 29,SAN JOSE C NR GOLETA CA,NOAA_HADS
11120520,SXPC1,DE918F4C,LOX,CA,34.448611,-119.840278,34 26 55,119 50 25,SAN PEDRO C A GOLETA CA,NOAA_HADS
11122000,GBPC1,DE533380,LOX,CA,34.526111,-119.685556,34 31 34,119 41 08,SANTA YNEZ R AB GIBRALTAR DAM NR SANTA BARBARA CA,NOAA_HADS
11123000,GBTC1,DE53156C,LOX,CA,34.524444,-119.686389,34 31 28,119 41 11,SANTA YNEZ R BL GIBRALTAR DAM NR SANTA BARBARA CA,NOAA_HADS
11123500,LLYC1,DE52F464,LOX,CA,34.543611,-119.863889,34 32 37,119 51 50,SANTA YNEZ R BL LOS LAURLS CYN NR SNTA YNEZ CA,NOAA_HADS
11124500,SCCC1,DDF46578,LOX,CA,34.596667,-119.907778,34 35 48,119 54 28,SANTA CRUZ C NR SANTA YNEZ CA,NOAA_HADS
11125600,HCCC1,17B7506A,LOX,CA,34.582222,-119.981667,34 34 56,119 58 54,HILTON CYN C NR SANTA YNEZ CA,NOAA_HADS
11125605,HBBC1,DE5320F6,LOX,CA,34.583889,-119.985,34 35 02,119 59 06,HILTON CYN C 0.25 MI BL BRADBURY DAM NR SANTA YNEZ,NOAA_HADS
11126000,SYYC1,F001130E,LOX,CA,34.589167,-119.987778,34 35 21,119 59 16,SANTA YNEZ R NR SANTA YNEZ CA,NOAA_HADS
11126400,XSYC1,17372142,LOX,CA,34.590111,-120.025361,34 35 24.40,120 01 31.30,SANTA YNEZ R A HWY 154 NR SANTA YNEZ CA,NOAA_HADS
11128250,APDC1,1639AC4E,LOX,CA,34.618333,-120.119722,34 37 06,120 07 11,ALAMO PINTADO C NR SOLVANG CA,NOAA_HADS
11128300,ALIC1,1639C77A,LOX,CA,34.548889,-120.129167,34 32 56,120 07 45,ALISAL RES NR SOLVANG CA,NOAA_HADS
11128500,SVGC1,DE05C788,LOX,CA,34.585,-120.143611,34 35 06,120 08 37,SANTA YNEZ R A SOLVANG CA,NOAA_HADS
11129800,ZCCC1,DD72C2F6,LOX,CA,34.648611,-120.183333,34 38 55,120 11 00,ZACA C NR BUELLTON CA,NOAA_HADS
11132500,SLUC1,17444606,LOX,CA,34.588611,-120.4075,34 35 19,120 24 27,SALSIPUEDES C NR LOMPOC CA,NOAA_HADS
11133000,NRWC1,DE53061A,LOX,CA,34.636111,-120.423611,34 38 10,120 25 25,SANTA YNEZ R A NARROWS NR LOMPOC CA,NOAA_HADS
11134000,SYHC1,163A8DAC,LOX,CA,34.668333,-120.456944,34 40 06,120 27 25,SANTA YNEZ R A H ST NR LOMPOC CA,NOAA_HADS
11135800,SISC1,171BE42E,LOX,CA,34.743333,-120.27,34 44 36,120 16 12,SAN ANTONIO C A LOS ALAMOS CA,NOAA_HADS
11136040,OHCC1,DDF51FC0,LOX,CA,34.777778,-120.431667,34 46 40,120 25 54,HARRIS CANYON C NR ORCUTT CA,NOAA_HADS
11136045,OSAC1,DD7CD5E8,LOX,CA,34.766919,-120.43335,34 46 00.91,120 26 00.06,SAN ANTONIO C A SAN ANTONIO RD E NR ORCUTT CA,NOAA_HADS
11136100,NRCC1,16F04356,LOX,CA,34.782222,-120.529167,34 46 56,120 31 45,SAN ANTONIO C NR CASMALIA CA,NOAA_HADS
11136500,CVPC1,16F53206,LOX,CA,34.688042,-119.358733,34 41 16.95,119 21 31.44,CUYAMA R NR VENTUCOPA CA,NOAA_HADS
11136600,SCXC1,DD9DF474,LOX,CA,34.820833,-119.556389,34 49 15,119 33 23,SANTA BARBARA CYN C NR VENTUCOPA CA,NOAA_HADS
11136710,HGHC1,DDE4577C,SGX,CA,35.056111,-119.959547,35 03 22,119 57 34.37,CUYAMA R NR NEW CUYAMA CA,NOAA_HADS
11136800,CYBC1,1710B7FA,LOX,CA,35.021944,-120.2275,35 01 19,120 13 39,CUYAMA R BL BUCKHORN CYN NR SANTA MARIA CA,NOAA_HADS
11137900,HSAC1,163A9008,LOX,CA,35.077778,-120.370833,35 04 40,120 22 15,HUASNA R NR ARROYO GRANDE CA,NOAA_HADS
11138500,SSQC1,DE52E712,LOX,CA,34.839956,-120.167169,34 50 23.84,120 10 01.81,SISQUOC R NR SISQUOC CA,NOAA_HADS
11140000,GARC1,DDEC53DA,LOX,CA,34.893889,-120.305556,34 53 38,120 18 20,SISQUOC R NR GAREY,NOAA_HADS
11140585,SUYC1,DD34A402,LOX,CA,34.968333,-120.403056,34 58 06,120 24 11,SANTA MARIA R A SUEY CROSSING NR SANTA MARIA CA,NOAA_HADS
11141050,OCKC1,171464A8,LOX,CA,34.883611,-120.493889,34 53 01,120 29 38,ORCUTT C NR ORCUTT CA,NOAA_HADS
11141280,LZCC1,DDF450E2,LOX,CA,35.235556,-120.471389,35 14 08,120 28 17,LOPEZ C NR ARROYO GRANDE CA,NOAA_HADS
11143000,BSRC1,DDF4FEC8,MTR,CA,36.245833,-121.772222,36 14 45,121 46 20,BIG SUR R NR BIG SUR CA,NOAA_HADS
11143200,RDRC1,17CF3486,MTR,CA,36.474861,-121.728889,36 28 29.50,121 43 44,CARMEL R A ROBLES DEL RIO CA,NOAA_HADS
11143250,CMEC1,179480E2,MTR,CA,36.539167,-121.879444,36 32 21,121 52 46,CARMEL R NR CARMEL CA,NOAA_HADS
11147500,PRBC1,DD7D2796,LOX,CA,35.628611,-120.683333,35 37 43,120 41 00,SALINAS R A PASO ROBLES CA,NOAA_HADS
11148500,ESRC1,D100B174,LOX,CA,35.717222,-120.639167,35 43 02,120 38 21,ESTRELLA R NR ESTRELLA CA,NOAA_HADS
11148900,NBYC1,1734C5BE,LOX,CA,35.788611,-121.092778,35 47 19,121 05 34,NACIMIENTO R BL SAPAQUE C NR BRYSON CA,NOAA_HADS
11149300,NACC1,DDDDD144,MTR,CA,35.757822,-120.884542,35 45 28.16,120 53 04.35,NACIMIENTO RES NR BRADLEY CA,NOAA_HADS
11149400,NASC1,17B0525E,LOX,CA,35.761389,-120.854444,35 45 41,120 51 16,NACIMIENTO R BL NACIMIENTO DAM NR BRADLEY CA,NOAA_HADS
11149900,LWDC1,DD3D52DA,MTR,CA,35.896667,-121.087222,35 53 48,121 05 14,SAN ANTONIO R NR LOCKWOOD CA,NOAA_HADS
11150100,SNRC1,DE683658,MTR,CA,35.796817,-120.885781,35 47 48.54,120 53 08.81,SAN ANTONIO RES NR BRADLEY CA,NOAA_HADS
11150500,BRDC1,DD7D4270,MTR,CA,35.930278,-120.867778,35 55 49,120 52 04,SALINAS R NR BRADLEY CA,NOAA_HADS
11151300,KCYC1,1737E45C,MTR,CA,36.268056,-121.065278,36 16 05,121 03 55,SAN LORENZO C BL BITTERWATER C NR KING CITY CA,NOAA_HADS
11151540,PSOC1,DD0FF1A6,LOX,CA,36.203706,-121.142489,36 12 13.34,121 08 32.96,SALINAS R NR KING CITY CA,NOAA_HADS
11151700,SDDC1,17894104,MTR,CA,36.411111,-121.318333,36 24 40,121 19 06,SALINAS R A SOLEDAD CA,NOAA_HADS
11151870,ARRC1,D10444CA,MTR,CA,36.2375,-121.480556,36 14 15,121 28 50,ARROYO SECO NR GREENFIELD CA,NOAA_HADS
11152000,SOLC1,DDF4EDBE,MTR,CA,36.280556,-121.321667,36 16 50,121 19 18,ARROYO SECO NR SOLEDAD CA,NOAA_HADS
11152050,GRFC1,DDDE505E,MTR,CA,36.399722,-121.323056,36 23 59,121 19 23,ARROYO SECO BL RELIZ C NR SOLEDAD CA,NOAA_HADS
11152300,CHLC1,1790C6D2,MTR,CA,36.553611,-121.548333,36 33 13,121 32 54,SALINAS R NR CHUALAR CA,NOAA_HADS
11152500,SPRC1,17B04128,MTR,CA,36.631111,-121.671389,36 37 52,121 40 17,SALINAS R NR SPRECKELS CA,NOAA_HADS
11152650,RDSC1,17E26672,MTR,CA,36.705,-121.703889,36 42 18,121 42 14,RECLAMATION DITCH NR SALINAS CA,NOAA_HADS
11152900,CXBC1,DDF5C9A8,MTR,CA,37.05,-121.326389,37 03 00,121 19 35,CEDAR C NR BELL STATION CA,NOAA_HADS
11153000,PHOC1,D1046226,MTR,CA,36.98,-121.380278,36 58 48,121 22 49,PACHECO C NR DUNNEVILLE CA,NOAA_HADS
11153650,LLGC1,DD3F71C2,MTR,CA,36.9875,-121.526111,36 59 15,121 31 34,LLAGAS C NR GILROY,NOAA_HADS
11156500,PIIC1,1735F2DE,MTR,CA,36.609444,-121.201944,36 36 34,121 12 07,SAN BENITO R NR WILLOW CREEK SCHOOL CA,NOAA_HADS
11157500,TESC1,17346546,MTR,CA,36.765833,-121.298611,36 45 57,121 17 55,TRES PINOS C NR TRES PINOS CA,NOAA_HADS
11158600,HOSC1,DD7D120C,MTR,CA,36.81675,-121.392681,36 49 00.30,121 23 33.65,SAN BENITO R BL HOSPITAL RD BRIDGE NR HOLLISTER CA,NOAA_HADS
11159000,AROC1,DD7D649C,MTR,CA,36.900278,-121.596667,36 54 01,121 35 48,PAJARO R A CHITTENDEN CA,NOAA_HADS
11159200,CCFC1,17B08436,MTR,CA,36.939444,-121.769444,36 56 22,121 46 10,CORRALITOS C A FREEDOM CA,NOAA_HADS
11159490,WSXC1,16F54496,MTR,CA,36.918122,-121.733611,36 55 05.24,121 44 01.00,SALSIPUEDES C NR WATSONVILLE CA,NOAA_HADS
11159500,PAJC1,17E253E8,MTR,CA,36.905611,-121.751889,36 54 20.20,121 45 06.80,PAJARO R A WATSONVILLE CA,NOAA_HADS
11159690,XAPC1,DDF5DADE,MTR,CA,37.001667,-121.905,37 00 06,121 54 18,APTOS C NR APTOS CA,NOAA_HADS
11160000,SOQC1,DDF50CB6,MTR,CA,36.991389,-121.954722,36 59 29,121 57 17,SOQUEL C A SOQUEL CA,NOAA_HADS
11160500,BTEC1,DDF4D824,MTR,CA,37.044444,-122.071389,37 02 40,122 04 17,SAN LORENZO R A BIG TREES CA,NOAA_HADS
11161000,LRRC1,DD0B61FE,MTR,CA,36.990833,-122.030833,36 59 27,122 01 51,SAN LORENZO R A SANTA CRUZ CA,NOAA_HADS
11162500,PECC1,DD36C410,MTR,CA,37.260833,-122.327778,37 15 39,122 19 40,PESCADERO C NR PESCADERO CA,NOAA_HADS
11162540,BPXC1,DDFCD250,MTR,CA,37.233825,-122.367339,37 14 01.77,122 22 02.42,BUTANO C NR PESCADERO CA,NOAA_HADS
11162570,SXGC1,D10457BC,MTR,CA,37.325833,-122.385556,37 19 33,122 23 08,SAN GREGORIO C A SAN GREGORIO CA,NOAA_HADS
11162618,PILC1,170E3218,MTR,CA,37.548889,-122.421111,37 32 56,122 25 16,PILARCITOS LK NR HILLSBOROUGH CA,NOAA_HADS
111626182,XPSC1,DE931108,MTR,CA,37.547694,-122.420889,37 32 51.7,122 25 15.2,PILARCITOS C BL SPILLWAY NR HILLSBOROUGH CA,NOAA_HADS
11162619,SDXC1,DE931FDA,MTR,CA,37.528139,-122.400083,37 31 41.3,122 24 00.3,PILARCITOS C AB STONE DAM NR HILLSBOROUGH CA,NOAA_HADS
11162620,HMOC1,17B1D6B0,MTR,CA,37.524722,-122.398333,37 31 29,122 23 54,PILARCITOS C BL STONE DAM NR HILLSBOROUGH CA,NOAA_HADS
11162630,HMNC1,17B067C4,MTR,CA,37.466667,-122.433056,37 28 00,122 25 59,PILARCITOS C A HALF MOON BAY CA,NOAA_HADS
11162730,XSAC1,DD738306,MTR,CA,37.602722,-122.428222,37 36 09.8,122 25 41.6,SAN ANDREAS LAKE A DAM NR MILLBRAE CA,NOAA_HADS
11162735,AJBC1,DE932492,MTR,CA,37.556972,-122.41825,37 33 25.1,122 25 05.7,SAN MATEO C AB JUNCTION BOX A DAM1 NR HILLSBOROUGH,NOAA_HADS
11162737,BJBC1,DE932A40,MTR,CA,37.555972,-122.417722,37 33 21.5,122 25 03.8,SAN MATEO C BL JUNCTION BOX A DAM1 NR HILLSBOROUGH,NOAA_HADS
11162750,CSRC1,DDF55218,MTR,CA,37.515278,-122.355833,37 30 55,122 21 21,LOWER CRYSTAL SPRINGS RES NR SAN MATEO CA,NOAA_HADS
11162753,MEDC1,DDEC6640,MTR,CA,37.529444,-122.358333,37 31 46,122 21 30,SAN MATEO C BL LO CRYSTAL SP RES NR SAN MATEO CA,NOAA_HADS
11164500,SFCC1,DE9030EA,MTR,CA,37.423333,-122.188333,37 25 24,122 11 18,SAN FRANCISQUITO C A STANFORD UNIVERSITY CA,NOAA_HADS
11169025,GSJC1,DE90239C,MTR,CA,37.373889,-121.931944,37 22 26,121 55 55,GUADALUPE R ABV HWY 101 A SAN JOSE CA,NOAA_HADS
11169500,SOGC1,DDCCA2B0,MTR,CA,37.254444,-122.038333,37 15 16,122 02 18,SARATOGA C A SARATOGA CA,NOAA_HADS
11169800,NRGC1,DE902D4E,MTR,CA,37.077778,-121.493333,37 04 40,121 29 36,COYOTE C NR GILROY CA,NOAA_HADS
11169860,RCCC1,DE900BA2,MTR,CA,37.123056,-121.551667,37 07 23,121 33 06,COYOTE C BL COYOTE RES NR SAN MARTIN CA,NOAA_HADS
11170000,CYTC1,DDEBA16A,MTR,CA,37.168333,-121.648611,37 10 06,121 38 55,COYOTE C NR MADRONE CA,NOAA_HADS
11172175,CMIC1,173834A6,MTR,CA,37.422222,-121.926389,37 25 20,121 55 35,COYOTE C AB HWY 237 A MILPITAS CA,NOAA_HADS
11172945,MPTC1,DE901606,MTR,CA,37.4975,-121.7725,37 29 51,121 46 21,ALAMEDA C AB DIV DAM NR SUNOL CA,NOAA_HADS
11172955,ACBC1,DE9018D4,MTR,CA,37.498611,-121.779444,37 29 55,121 46 46,ALAMEDA C BL DIV DAM NR SUNOL CA,NOAA_HADS
11173200,AHOC1,170F901A,MTR,CA,37.461667,-121.768333,37 27 42,121 46 06,ARROYO HONDO NR SAN JOSE CA,NOAA_HADS
11173490,CVQC1,16F66574,MTR,CA,37.490306,-121.828778,37 29 25.1,121 49 43.6,CALAVERAS RESERVOIR NR SUNOL CA,NOAA_HADS
11173500,CAVC1,DDEC254A,MTR,CA,37.501944,-121.818333,37 30 07,121 49 06,CALAVERAS C NR SUNOL CA,NOAA_HADS
11173510,ACZC1,17D75258,MTR,CA,37.503611,-121.823611,37 30 13,121 49 25,ALAMEDA C BL CALAVERAS C NR SUNOL CA,NOAA_HADS
11173575,AWEC1,DD97A55A,MTR,CA,37.540556,-121.855278,37 32 26,121 51 19,ALAMEDA C BL WELCH C NR SUNOL CA,NOAA_HADS
11173800,ICSC1,16DB9778,MTR,CA,37.561111,-121.796944,37 33 40,121 47 49,INDIAN C NR SUNOL CA,NOAA_HADS
11173990,ANOC1,DDD54080,MTR,CA,37.569972,-121.848706,37 34 11.90,121 50 55.34,SAN ANTONIO RESERVOIR NR SUNOL CA,NOAA_HADS
11174000,ACSC1,17D7412E,MTR,CA,37.5775,-121.856667,37 34 39,121 51 24,SAN ANTONIO C NR SUNOL CA,NOAA_HADS
11174160,ASLC1,DDE58D3C,MTR,CA,37.583628,-121.885292,37 35 01.06,121 53 07.05,ALAMEDA C A SUNOL WATER TEMPLE A SUNOL CA,NOAA_HADS
11174600,ALQC1,DD734618,MTR,CA,37.694444,-121.919444,37 41 40,121 55 10,ALAMO CN NR PLEASANTON CA,NOAA_HADS
11176340,AYLC1,17E2C68A,MTR,CA,37.668306,-121.909417,37 40 05.9,121 54 33.9,ARROYO DE LA LAGUNA A CORTE MADRID NR PLEASANTON,NOAA_HADS
11176400,YLEC1,F003B602,MTR,CA,37.561389,-121.682778,37 33 41,121 40 58,ARROYO VALLE BL LANG CYN NR LIVERMORE CA,NOAA_HADS
11176500,LVKC1,F003C092,MTR,CA,37.623333,-121.757778,37 37 24,121 45 28,ARROYO VALLE NR LIVERMORE CA,NOAA_HADS
11176900,ADLC1,DD9951B6,MTR,CA,37.626667,-121.881944,37 37 36,121 52 55,ARROYO DE LA LAGUNA A VERONA CA,NOAA_HADS
11179000,NILC1,DD5916D8,MTR,CA,37.587222,-121.959722,37 35 14,121 57 35,ALAMEDA C NR NILES CA,NOAA_HADS
11179100,ALFC1,DD0A200E,MTR,CA,37.566667,-122.000556,37 34 00,122 00 02,ALAMEDA C NR FREMONT CA,NOAA_HADS
11180500,DYUC1,171CC0F6,MTR,CA,37.606111,-122.022778,37 36 22,122 01 22,DRY C A UNION CITY CA,NOAA_HADS
11180700,PUKC1,DD5905AE,MTR,CA,37.585833,-122.047222,37 35 09,122 02 50,ALAMEDA C FLOOD CHANNEL A UNION CITY CA,NOAA_HADS
11180825,LSCC1,DD1A2790,MTR,CA,37.695278,-122.043889,37 41 43,122 02 38,SAN LORENZO C AB DON CASTRO RES NR CASTRO V CA,NOAA_HADS
11180900,KCRC1,DD70977E,MTR,CA,37.705,-122.042778,37 42 18,122 02 34,CROW C NR HAYWARD CA,NOAA_HADS
11180960,CULC1,DD72620E,MTR,CA,37.717778,-122.053333,37 43 04,122 03 12,CULL C AB CULL C RES NR CASTRO VALLEY CA,NOAA_HADS
11181000,LRZC1,DDF5EF44,MTR,CA,37.685556,-122.063333,37 41 08,122 03 48,SAN LORENZO C A HAYWARD CA,NOAA_HADS
11181008,CVCC1,171553C8,MTR,CA,37.68,-122.079444,37 40 48,122 04 46,CASTRO VALLEY C A HAYWARD CA,NOAA_HADS
11181040,SLCC1,DE0B939C,MTR,CA,37.684167,-122.138889,37 41 03,122 08 20,SAN LORENZO C A SAN LORENZO CA,NOAA_HADS
11182500,RACC1,DD704116,MTR,CA,37.773056,-121.993611,37 46 23,121 59 37,SAN RAMON C A SAN RAMON CA,NOAA_HADS
11189500,SKRC1,163A9EDA,HNX,CA,35.7375,-118.172778,35 44 15,118 10 22,SF KERN R NR ONYX CA,NOAA_HADS
11194152,KEPC1,DE57C63E,HNX,CA,35.303536,-119.251647,35 18 12.73,119 15 05.93,KERN R A ENOS PARK FOOT BR NR BAKERSFIELD CA,NOAA_HADS
11200800,DKCC1,163AA592,HNX,CA,35.941667,-118.821944,35 56 30,118 49 19,DEER C NR FOUNTAIN SPRINGS CA,NOAA_HADS
11201095,DCPC1,172C0398,HNX,CA,36.003672,-118.964364,36 00 13.22,118 57 51.71,DEER C A ROAD 272 BRIDGE NR PORTERVILLE CA,NOAA_HADS
11203580,TLRC1,F0043222,HNX,CA,36.048333,-118.653333,36 02 54,118 39 12,SF TULE R NR CHOLOLLO CAMPGROUND NR PORTERVILLE CA,NOAA_HADS
11204100,TVRC1,DDF0C0BA,HNX,CA,36.024167,-118.8125,36 01 27,118 48 45,SF TULE R NR RESERVATION BNDRY NR PORTERVILLE CA,NOAA_HADS
11206820,MBPC1,16411018,HNX,CA,36.611667,-118.701667,36 36 42,118 42 06,MARBLE FORK KAWEAH R AB HORSE C NR LODGEPOLE CA,NOAA_HADS
11212260,CKHC1,DE58235E,HNX,CA,36.211,-119.568636,36 12 39.60,119 34 07.09,CROSS C A KANSAS AVE NR HANFORD CA,NOAA_HADS
11222975,NKLC1,DE583028,HNX,CA,36.374261,-119.887247,36 22 27.34,119 53 14.09,NF KINGS R A 24TH AVE BR NR LEMOORE CA,NOAA_HADS
11224000,SJWC1,DD54C3D6,HNX,CA,37.631944,-119.086389,37 37 55,119 05 11,MF SAN JOAQUIN R NR MAMMOTH LAKES CA,NOAA_HADS
11224500,LGCC1,1794336C,HNX,CA,36.214722,-120.469722,36 12 53,120 28 11,LOS GATOS C AB NUNEZ CYN NR COALINGA CA,NOAA_HADS
11251000,SJFC1,DDF0B62A,HNX,CA,36.984444,-119.723333,36 59 04,119 43 24,SAN JOAQUIN R BL FRIANT CA,NOAA_HADS
11253310,COLC1,163AB836,HNX,CA,36.402222,-120.4325,36 24 08,120 25 57,CANTUA C NR CANTUA CREEK CA,NOAA_HADS
11255575,PNEC1,163F11DC,HNX,CA,36.6525,-120.631111,36 39 09,120 37 52,PANOCHE C A I-5 NR SILVER CREEK CA,NOAA_HADS
11261100,SSHC1,DD681252,HNX,CA,37.247778,-120.851111,37 14 52,120 51 04,SALT SLOUGH A HWY 165 NR STEVINSON CA,NOAA_HADS
11261500,FRFC1,DD3A4398,HNX,CA,37.31,-120.93,37 18 36,120 55 48,SAN JOAQUIN R A FREMONT FORD BRIDGE CA,NOAA_HADS
11262900,MUEC1,DD6827C8,HNX,CA,37.2625,-120.905556,37 15 45,120 54 20,MUD SLOUGH NR GUSTINE CA,NOAA_HADS
11264500,HPIC1,17B5C0FC,HNX,CA,37.731389,-119.558056,37 43 53,119 33 29,MERCED R A HAPPY ISLES BRIDGE NR YOSEMITE CA,NOAA_HADS
11266500,POHC1,1790662A,HNX,CA,37.716278,-119.665667,37 42 58.60,119 39 56.40,MERCED R A POHONO BRIDGE NR YOSEMITE CA,NOAA_HADS
11273400,SJDC1,DE02C5BC,HNX,CA,37.347278,-120.975139,37 20 50.2,120 58 30.5,SAN JOAQUIN R AB MERCED R NR NEWMAN CA,NOAA_HADS
11274000,NWMC1,DDE38320,HNX,CA,37.350556,-120.976111,37 21 02,120 58 34,SAN JOAQUIN R NR NEWMAN CA,NOAA_HADS
11274500,OREC1,DE009034,STO,CA,37.315556,-121.124167,37 18 56,121 07 27,ORESTIMBA C NR NEWMAN CA,NOAA_HADS
11274550,CRDC1,DD68422E,STO,CA,37.432189,-121.013344,37 25 55.88,121 00 48.04,SAN JOAQUIN R NR CROWS LANDING CA,NOAA_HADS
11274630,PTTC1,DE02A05A,STO,CA,37.486667,-121.208056,37 29 12,121 12 29,DEL PUERTO C NR PATTERSON CA,NOAA_HADS
11274790,TGCC1,DE53F69E,HNX,CA,37.916667,-119.658889,37 55 00,119 39 32,TUOLUMNE R A GRAND CYN OF TUOLUMNE AB HETCH HETCHY,NOAA_HADS
11275500,HETC1,DD7555A0,STO,CA,37.947778,-119.786944,37 56 52,119 47 13,HETCH HETCHY RES A HETCH HETCHY CA,NOAA_HADS
11276500,HEHC1,DE54042E,STO,CA,37.9375,-119.797222,37 56 15,119 47 50,TUOLUMNE R NR HETCH HETCHY CA,NOAA_HADS
11276600,TEIC1,DE9435D0,STO,CA,37.879444,-119.946111,37 52 46,119 56 46,TUOLUMNE R AB EARLY INTAKE NR MATHER CA,NOAA_HADS
11276900,EIMC1,DE944340,STO,CA,37.881667,-119.969167,37 52 54,119 58 09,TUOLUMNE R BL EARLY INTAKE NR MATHER CA,NOAA_HADS
11277200,CHVC1,1639A29C,STO,CA,37.975833,-119.913056,37 58 33,119 54 47,CHERRY LK NR HETCH HETCHY CA,NOAA_HADS
11277300,CVDC1,DE541758,HNX,CA,37.967778,-119.916389,37 58 04,119 54 59,CHERRY C BL VALLEY DAM NR HETCH HETCHY CA,NOAA_HADS
11277500,LNRC1,DDD6B70A,STO,CA,37.974167,-119.88,37 58 27,119 52 48,LK ELEANOR NR HETCH HETCHY CA,NOAA_HADS
11278000,EHHC1,DE5422C2,STO,CA,37.969167,-119.881111,37 58 09,119 52 52,ELEANOR C NR HETCH HETCHY CA,NOAA_HADS
11278300,CEIC1,DE91EAAA,STO,CA,37.894444,-119.961667,37 53 40,119 57 42,CHERRY C NR EARLY INTAKE CA,NOAA_HADS
11278400,CKMC1,DDE4A92A,STO,CA,37.890278,-119.968889,37 53 25,119 58 08,CHERRY C BL DION R HOLM PH NR MATHER CA,NOAA_HADS
11284400,BCWC1,DDF0A55C,STO,CA,37.841944,-120.183889,37 50 31,120 11 02,BIG C AB WHITES GULCH NR GROVELAND CA,NOAA_HADS
11287500,NDPC1,DE53800E,STO,CA,37.701667,-120.421111,37 42 06,120 25 16,DON PEDRO RES NR LA GRANGE CA,NOAA_HADS
11289000,MECC1,DE5431B4,STO,CA,37.6725,-120.473889,37 40 21,120 28 26,MODESTO CN NR LA GRANGE CA,NOAA_HADS
11289500,TUCC1,DE544724,STO,CA,37.665833,-120.44,37 39 57,120 26 24,TURLOCK CN NR LA GRANGE CA,NOAA_HADS
11289650,LNGC1,DE545452,STO,CA,37.666389,-120.441111,37 39 59,120 26 28,TUOLUMNE R BL LAGRANGE DAM NR LAGRANGE CA,NOAA_HADS
11289850,DRYC1,DE5472BE,STO,CA,37.711442,-120.609803,37 42 41.19,120 36 35.29,DRY C A CRABTREE RD NR LA GRANGE CA,NOAA_HADS
11290000,MDSC1,DE5461C8,STO,CA,37.627222,-120.983333,37 37 38,120 59 00,TUOLUMNE R A MODESTO CA,NOAA_HADS
11292600,DLLC1,DD72928A,STO,CA,38.329444,-119.960278,38 19 46,119 57 37,DONNELL LK NR DARDANELLE CA,NOAA_HADS
11292800,BESC1,DD723272,STO,CA,38.204722,-120.075278,38 12 17,120 04 31,BEARDSLEY LAKE NEAR STRAWBERRY CA,NOAA_HADS
11299600,BCCC1,DDFAA40E,STO,CA,37.961111,-120.614167,37 57 40,120 36 51,BLACK C NR COPPEROPOLIS CA,NOAA_HADS
11299995,TUKC1,16D012C4,STO,CA,37.876111,-120.603333,37 52 34,120 36 12,TULLOCH RES NR KNIGHTS FERRY CA,NOAA_HADS
11299997,TKFC1,D1025772,STO,CA,37.876111,-120.604167,37 52 34,120 36 15,STANISLAUS R BL TULLOCH PP NR KNIGHTS FERRY CA,NOAA_HADS
11302000,GWKC1,1731E492,STO,CA,37.851667,-120.636944,37 51 06,120 38 13,STANISLAUS R BL GOODWIN DAM NR KNIGHTS FERRY CA,NOAA_HADS
11302500,OKDC1,DE35A41E,STO,CA,37.777222,-120.851944,37 46 38,120 51 07,STANISLAUS R A OAKDALE CA,NOAA_HADS
11303000,RIPC1,169505AE,STO,CA,37.729722,-121.109444,37 43 47,121 06 34,STANISLAUS R A RIPON CA,NOAA_HADS
11303500,VNSC1,DDE5B674,STO,CA,37.676111,-121.265278,37 40 34,121 15 55,SAN JOAQUIN R NR VERNALIS CA,NOAA_HADS
11335000,MHBC1,16E9D7F6,STO,CA,38.500278,-121.044167,38 30 01,121 02 39,COSUMNES R A MICHIGAN BAR CA,NOAA_HADS
11336585,LCWC1,DE086416,STO,CA,38.423333,-121.352222,38 25 24,121 21 08,LAGUNA C NR ELK GROVE CA,NOAA_HADS
11342000,DLTC1,DDF11428,STO,CA,40.939722,-122.416111,40 56 23,122 24 58,SACRAMENTO R A DELTA CA,NOAA_HADS
11345500,PLYC1,DDE1C5DE,MFR,CA,41.230833,-120.436111,41 13 51,120 26 10,SF PIT R NR LIKELY CA,NOAA_HADS
11348500,CNBC1,DDF83498,MFR,CA,41.406111,-120.926667,41 24 22,120 55 36,PIT R NR CANBY CA,NOAA_HADS
11355010,PTRC1,DD78C3A4,STO,CA,40.983333,-121.510833,40 59 00,121 30 39,PIT R BL PIT NO 1 PH NR FALL RIVER MILLS CA,NOAA_HADS
11355500,HCUC1,162EA9E4,STO,CA,40.689111,-121.422806,40 41 20.8,121 25 22.1,HAT C NR HAT CREEK CA,NOAA_HADS
11372000,RDGC1,F00530D8,STO,CA,40.513333,-122.523056,40 30 48,122 31 23,CLEAR C NR IGO CA,NOAA_HADS
11374000,CWCC1,DDF42672,STO,CA,40.505,-122.231944,40 30 18,122 13 55,COW C NR MILLVILLE CA,NOAA_HADS
11376000,CWAC1,DDC787F4,STO,CA,40.387222,-122.2375,40 23 14,122 14 15,COTTONWOOD C NR COTTONWOOD CA,NOAA_HADS
11376550,COTC1,DDF43504,STO,CA,40.398333,-122.145278,40 23 54,122 08 43,BATTLE C BL COLEMAN FISH HATCHERY NR COTTONWOOD CA,NOAA_HADS
11377100,BDBC1,DDFA82E2,STO,CA,40.288611,-122.185556,40 17 19,122 11 08,SACRAMENTO R AB BEND BRIDGE NR RED BLUFF CA,NOAA_HADS
11379500,EDCC1,D10B64B4,STO,CA,40.023889,-122.510833,40 01 26,122 30 39,ELDER C NR PASKENTA CA,NOAA_HADS
11381500,MLMC1,DDE1D6A8,STO,CA,40.054722,-122.023056,40 03 17,122 01 23,MILL C NR LOS MOLINOS CA,NOAA_HADS
11383500,DCVC1,F00750CA,STO,CA,40.014167,-121.947222,40 00 51,121 56 50,DEER C NR VINA CA,NOAA_HADS
11389500,CLUC1,169516D8,STO,CA,39.214167,-121.999167,39 12 51,121 59 57,SACRAMENTO R A COLUSA CA,NOAA_HADS
11390000,BKCC1,17B13542,STO,CA,39.726111,-121.707778,39 43 34,121 42 28,BUTTE C NR CHICO CA,NOAA_HADS
11390500,WLKC1,163999D4,STO,CA,39.01,-121.823611,39 00 36,121 49 25,SACRAMENTO R BL WILKINS SLOUGH NR GRIMES CA,NOAA_HADS
11401920,SQUC1,172E151A,STO,CA,39.945833,-120.9425,39 56 45,120 56 33,SPANISH C A QUINCY CA,NOAA_HADS
11402000,SCBC1,DDD3A3BC,STO,CA,40.003056,-120.953333,40 00 11,120 57 12,SPANISH C AB BLACKHAWK C AT KEDDIE CA,NOAA_HADS
11413000,GYRC1,F003A574,STO,CA,39.525,-120.936944,39 31 30,120 56 13,N YUBA R BL GOODYEARS BAR CA,NOAA_HADS
11418500,DCSC1,DE359184,STO,CA,39.224444,-121.2675,39 13 28,121 16 03,DEER C NR SMARTSVILLE CA,NOAA_HADS
11421000,MRYC1,DDD31032,STO,CA,39.175833,-121.523889,39 10 33,121 31 26,YUBA R NR MARYSVILLE CA,NOAA_HADS
11424000,BRWC1,166D5360,STO,CA,39.000278,-121.405556,39 00 01,121 24 20,BEAR R NR WHEATLAND CA,NOAA_HADS
11424500,DCWC1,DDD0044A,STO,CA,39.026389,-121.436111,39 01 35,121 26 10,DRY C NR WHEATLAND CA,NOAA_HADS
11425500,VONC1,DDE5C0E4,STO,CA,38.774444,-121.597222,38 46 28,121 35 50,SACRAMENTO R A VERONA CA,NOAA_HADS
11427000,NFDC1,DD96142E,STO,CA,38.936111,-121.022778,38 56 10,121 01 22,NF AMERICAN R A NORTH FORK DAM CA,NOAA_HADS
11433790,NFAC1,DDDAD370,STO,CA,38.883056,-121.061944,38 52 59,121 03 43,NF AMERICAN R A AUBURN DAM SITE NR AUBURN CA,NOAA_HADS
11446030,PLHC1,DD2CA73A,STO,CA,38.763056,-121.007222,38 45 47,121 00 26,SF AMERICAN R NR PILOT HILL CA,NOAA_HADS
11446220,AFDC1,DE05E164,STO,CA,38.704528,-121.164361,38 42 16.3,121 09 51.7,AMERICAN R BL FOLSOM DAM NR FOLSOM CA,NOAA_HADS
11446500,AFOC1,DDEC85B2,STO,CA,38.635556,-121.226667,38 38 08,121 13 36,AMERICAN R A FAIR OAKS CA,NOAA_HADS
11446700,AWPC1,DE0A8210,STO,CA,38.591389,-121.331667,38 35 29,121 19 54,AMERICAN R A WILLIAM B POND PARK A CARMICHAEL CA,NOAA_HADS
11446980,AWBC1,DDD6A47C,STO,CA,38.567222,-121.387222,38 34 02,121 23 14,AMERICAN R BL WATT AVE BRDG NR CARMICHAEL CA,NOAA_HADS
11447360,ACWC1,DE34D074,STO,CA,38.641944,-121.381667,38 38 31,121 22 54,ARCADE C NR DEL PASO HEIGHTS CA,NOAA_HADS
11448750,XSFC1,DDD3D52C,EKA,CA,39.040278,-122.983306,39 02 25,122 58 59.9,SF SCOTTS C NR LAKEPORT CA,NOAA_HADS
11448800,XBSC1,173A2224,EKA,CA,39.041944,-122.980833,39 02 31,122 58 51,SCOTTS C BL SF SCOTTS C NR LAKEPORT CA,NOAA_HADS
11449235,XBEC1,17448318,EKA,CA,39.175778,-122.902889,39 10 32.8,122 54 10.4,CLOVER C BYPASS A ELK MTN RD NR UPPER LAKE CA,NOAA_HADS
11449255,XSTC1,16F60092,EKA,CA,39.157636,-122.920733,39 09 27.49,122 55 14.64,SCOTTS C AB STATE ROUTE 29 A UPPER LAKE CA,NOAA_HADS
11449500,KCVC1,16F49004,EKA,CA,38.9275,-122.8425,38 55 39,122 50 33,KELSEY C NR KELSEYVILLE CA,NOAA_HADS
11449820,XCKC1,DE3142D6,EKA,CA,38.979328,-122.830578,38 58 45.58,122 49 50.08,COLE C A KELSEYVILLE CA,NOAA_HADS
11450000,CLKC1,D106A2CC,EKA,CA,39.039167,-122.912222,39 02 21,122 54 44,CLEAR LK A LAKEPORT CA,NOAA_HADS
11451000,CLFC1,1678A3BA,EKA,CA,38.924167,-122.564722,38 55 27,122 33 53,CACHE C NR LOWER LAKE CA,NOAA_HADS
11451100,HOUC1,D10383E0,EKA,CA,39.165556,-122.618889,39 09 56,122 37 08,NF CACHE C A HOUGH SPRING NR CLEARLAKE OAKS CA,NOAA_HADS
11451290,INVC1,DD5821B8,EKA,CA,39.080556,-122.533889,39 04 50,122 32 02,INDIAN VALLEY RES A CLEARLAKE OAKS CA,NOAA_HADS
11451300,CKKC1,DD565340,EKA,CA,39.075556,-122.533056,39 04 32,122 31 59,NF CACHE C NR CLEARLAKE OAKS CA,NOAA_HADS
11451715,HCHC1,DDD2C4A0,STO,CA,38.957778,-122.341667,38 57 28,122 20 30,BEAR C AB HOLSTEN CHIMNEY CYN NR RUMSEY CA,NOAA_HADS
11451800,RMSC1,16F4C078,STO,CA,38.89,-122.237222,38 53 24,122 14 14,CACHE C A RUMSEY CA,NOAA_HADS
11452500,YLOC1,DE0144A6,STO,CA,38.727222,-121.806111,38 43 38,121 48 22,CACHE C A YOLO CA,NOAA_HADS
11452800,OWSC1,1797949A,STO,CA,38.682778,-121.671944,38 40 58,121 40 19,CACHE C OVERFLOW WEIR FROM SETTLING BAS NR WOOD'LD,NOAA_HADS
11452900,OTFC1,178C55B2,STO,CA,38.678611,-121.671667,38 40 43,121 40 18,CACHE C OUTFLOW FROM SETTLING BASIN NR WOODLAND CA,NOAA_HADS
11453000,YOLC1,DE05D4FE,STO,CA,38.677778,-121.643056,38 40 40,121 38 35,YOLO BYPASS NR WOODLAND CA,NOAA_HADS
11453500,PCGC1,DDF32446,EKA,CA,38.778889,-122.516389,38 46 44,122 30 59,PUTAH C NR GUENOC CA,NOAA_HADS
11453590,PWSC1,DE6853BE,MTR,CA,38.646972,-122.365825,38 38 49.1,122 21 56.97,POPE C A WALTER SPRINGS CA,NOAA_HADS
11454000,PUCC1,1737A756,STO,CA,38.515278,-122.080833,38 30 55,122 04 51,PUTAH C NR WINTERS CA,NOAA_HADS
11456000,SHEC1,DDEC363C,MTR,CA,38.511389,-122.454722,38 30 41,122 27 17,NAPA R NR ST HELENA CA,NOAA_HADS
11458000,APCC1,DDEC40AC,MTR,CA,38.368333,-122.302222,38 22 06,122 18 08,NAPA R NR NAPA CA,NOAA_HADS
11458433,KWDC1,178D62D2,MTR,CA,38.418889,-122.561667,38 25 08,122 33 42,SONOMA CREEK A KENWOOD CA,NOAA_HADS
11458500,AGCC1,DD25E26C,MTR,CA,38.323333,-122.493333,38 19 24,122 29 36,SONOMA C A AGUA CALIENTE CA,NOAA_HADS
11458600,NTSC1,16395CCA,MTR,CA,38.280833,-122.455833,38 16 51,122 27 21,NATHANSON C A SONOMA CA,NOAA_HADS
11459500,NVCC1,DD9746A8,MTR,CA,38.107778,-122.578889,38 06 28,122 34 44,NOVATO C A NOVATO CA,NOAA_HADS
11460000,CMDC1,DDF2F0D4,MTR,CA,37.963056,-122.555833,37 57 47,122 33 21,CORTE MADERA C A ROSS CA,NOAA_HADS
11460151,RMBC1,172EF6E8,MTR,CA,37.866111,-122.578611,37 51 58,122 34 43,REDWOOD C A HWY 1 BRIDGE A MUIR BEACH CA,NOAA_HADS
11460400,LTSC1,DDF6E698,MTR,CA,38.026944,-122.735278,38 01 37,122 44 07,LAGUNITAS C A SAMUEL P TAYLOR STATE PARK CA,NOAA_HADS
11460600,LNTC1,166581AE,MTR,CA,38.080278,-122.783333,38 04 49,122 47 00,LAGUNITAS C NR PT REYES STATION CA,NOAA_HADS
11460605,OVBC1,DF033660,MTR,CA,38.038611,-122.785833,38 02 19,122 47 09,OLEMA C A VEDANTA BRIDGE A OLEMA CA,NOAA_HADS
11460750,WKEC1,16DAB36E,MTR,CA,38.175833,-122.817222,38 10 33,122 49 02,WALKER C NR MARSHALL CA,NOAA_HADS
11461500,CXLC1,DD0CC332,EKA,CA,39.246667,-123.129167,39 14 48,123 07 45,EF RUSSIAN R NR CALPELLA CA,NOAA_HADS
11462080,TLMC1,DE008342,EKA,CA,39.113056,-123.181944,39 06 47,123 10 55,RUSSIAN R NR TALMAGE CA,NOAA_HADS
11462500,HOPC1,DDF6C074,EKA,CA,39.026667,-123.129444,39 01 36,123 07 46,RUSSIAN R NR HOPLAND CA,NOAA_HADS
11463000,CDLC1,17B214A0,EKA,CA,38.879444,-123.0525,38 52 46,123 03 09,RUSSIAN R NR CLOVERDALE CA,NOAA_HADS
11463170,CDAC1,173864DA,MTR,CA,38.797778,-122.801389,38 47 52,122 48 05,BIG SULPHUR C A G RESORT NR CLOVERDALE CA,NOAA_HADS
11463200,BSCC1,DD9912BC,MTR,CA,38.826111,-122.995833,38 49 34,122 59 45,BIG SULPHUR C NR CLOVERDALE CA,NOAA_HADS
11463500,GEYC1,DE0073C6,MTR,CA,38.712778,-122.894722,38 42 46,122 53 41,RUSSIAN R A GEYSERVILLE CA,NOAA_HADS
11463682,JIMC1,DD593034,MTR,CA,38.658333,-122.828333,38 39 30,122 49 42,RUSSIAN R A JIMTOWN CA,NOAA_HADS
11463900,RMKC1,DD9783B6,MTR,CA,38.641111,-122.762778,38 38 28,122 45 46,MAACAMA C NR KELLOGG CA,NOAA_HADS
11463980,RRHC1,162D5E6E,MTR,CA,38.633056,-122.854444,38 37 59,122 51 16,RUSSIAN R A DIGGER BEND NR HEALDSBURG CA,NOAA_HADS
11464000,HEAC1,F00481AC,MTR,CA,38.613333,-122.835278,38 36 48,122 50 07,RUSSIAN R NR HEALDSBURG CA,NOAA_HADS
11465240,DCLC1,1714D726,MTR,CA,38.653333,-122.926111,38 39 12,122 55 34,DRY C BLW LAMBERT BR NR GEYSERVILLE CA,NOAA_HADS
11465350,DRIC1,DD7DF1FE,MTR,CA,38.5875,-122.861111,38 35 15,122 51 40,DRY C NR MOUTH NR HEALDSBURG CA,NOAA_HADS
11465390,WDSC1,1788F070,MTR,CA,38.515833,-122.863611,38 30 57,122 51 49,RUSSIAN R NR WINDSOR CA,NOAA_HADS
11465660,ROHC1,D1037364,MTR,CA,38.343333,-122.700833,38 20 36,122 42 03,COPELAND C A ROHNERT PARK CA,NOAA_HADS
11465680,CTIC1,DD97E650,MTR,CA,38.352222,-122.743056,38 21 08,122 44 35,LAGUNA DE SANTA ROSA A STONY PT RD NR COTATI CA,NOAA_HADS
11465690,EASC1,D1068420,MTR,CA,38.402222,-122.731944,38 24 08,122 43 55,COLGAN C NR SANTA ROSA CA,NOAA_HADS
11465700,CGNC1,DD0A6304,MTR,CA,38.373611,-122.767222,38 22 25,122 46 02,COLGAN C NR SEBASTOPOL CA,NOAA_HADS
11465750,LSEC1,DDD2D7D6,MTR,CA,38.425556,-122.828056,38 25 32,122 49 41,LAGUNA DE SANTA ROSA C NR SEBASTOPOL CA,NOAA_HADS
11466170,MZSC1,DD5946A4,MTR,CA,38.438889,-122.701389,38 26 20,122 42 05,MATANZAS C A SANTA ROSA CA,NOAA_HADS
11466200,SSAC1,DD58445E,MTR,CA,38.436667,-122.723611,38 26 12,122 43 25,SANTA ROSA C A SANTA ROSA CA,NOAA_HADS
11466320,TARC1,174581E2,MTR,CA,38.445278,-122.806111,38 26 43,122 48 22,SANTA ROSA C A WILLOWSIDE RD NR SANTA ROSA CA,NOAA_HADS
11466800,MWEC1,DD184782,MTR,CA,38.494167,-122.852222,38 29 39,122 51 08,MARK WEST C NR MIRABEL HEIGHTS CA,NOAA_HADS
11467000,RIOC1,162D50BC,MTR,CA,38.508611,-122.926667,38 30 31,122 55 36,RUSSIAN R A HACIENDA BRIDGE NR GUERNEVILLE CA,NOAA_HADS
11467002,GUEC1,171813A4,MTR,CA,38.499444,-122.997222,38 29 58,122 59 50,RUSSIAN R A JOHNSONS BEACH A GUERNEVILLE CA,NOAA_HADS
11467200,AUSC1,171BB452,MTR,CA,38.506667,-123.068611,38 30 24,123 04 07,AUSTIN C NR CAZADERO CA,NOAA_HADS
11467270,RROC1,17B62400,MTR,CA,38.434022,-123.101108,38 26 02.48,123 06 03.99,RUSSIAN R A HIGHWAY 1 BRIDGE NR JENNER CA,NOAA_HADS
11467553,GAAC1,DD3627E2,EKA,CA,38.79,-123.508333,38 47 24,123 30 30,NF GUALALA R AB SF GUALALA R NR GUALALA CA,NOAA_HADS
11467590,GRCC1,17400036,EKA,CA,38.903611,-123.607778,38 54 13,123 36 28,GARCIA R AT EUREKA HILL RD NR PT ARENA CA,NOAA_HADS
11468000,NVRC1,D1069756,EKA,CA,39.170556,-123.666944,39 10 14,123 40 01,NAVARRO R NR NAVARRO CA,NOAA_HADS
11468500,FTBC1,D106B1BA,EKA,CA,39.428333,-123.736667,39 25 42,123 44 12,NOYO R NR FORT BRAGG CA,NOAA_HADS
11468900,ETTC1,173FF38C,EKA,CA,40.139444,-123.990278,40 08 22,123 59 25,MATTOLE R NR ETTERSBURG CA,NOAA_HADS
11469000,MTOC1,DDD3B0CA,EKA,CA,40.313333,-124.282222,40 18 48,124 16 56,MATTOLE R NR PETROLIA CA,NOAA_HADS
11472180,OWMC1,DE0BA606,EKA,CA,39.420444,-123.340667,39 25 13.6,123 20 26.4,OUTLET C NR WILLITS CA,NOAA_HADS
11473900,DOSC1,DD5832CE,EKA,CA,39.706389,-123.324167,39 42 23,123 19 27,MF EEL R NR DOS RIOS CA,NOAA_HADS
11475000,FTSC1,17DD36EC,EKA,CA,40.218333,-123.631389,40 13 06,123 37 53,EEL R A FORT SEWARD CA,NOAA_HADS
11475500,EBCC1,162E5960,EKA,CA,39.719167,-123.651667,39 43 09,123 39 06,SF EEL R NR BRANSCOMB CA,NOAA_HADS
11475560,ECBC1,DD63E17E,EKA,CA,39.729722,-123.642778,39 43 47,123 38 34,ELDER C NR BRANSCOMB CA,NOAA_HADS
11475800,LEGC1,DD9B31A4,EKA,CA,39.874722,-123.719444,39 52 29,123 43 10,SF EEL R A LEGGETT CA,NOAA_HADS
11476500,MRNC1,17359738,EKA,CA,40.181944,-123.775,40 10 55,123 46 30,SF EEL R NR MIRANDA CA,NOAA_HADS
11476600,WEOC1,17D6C5C0,EKA,CA,40.351667,-124.003889,40 21 06,124 00 14,BULL C NR WEOTT CA,NOAA_HADS
11477000,SCOC1,173877AC,EKA,CA,40.491667,-124.098611,40 29 30,124 05 55,EEL R A SCOTIA CA,NOAA_HADS
11478500,BRGC1,DD1CA14A,EKA,CA,40.480556,-123.889722,40 28 50,123 53 23,VAN DUZEN R NR BRIDGEVILLE CA,NOAA_HADS
11479560,FRNC1,DD0F64C4,EKA,CA,40.615833,-124.201667,40 36 57,124 12 06,EEL R A FERNBRIDGE CA,NOAA_HADS
11479700,ERFC1,16F41610,EKA,CA,40.702778,-124.155556,40 42 10,124 09 20,ELK R NR FALK CA,NOAA_HADS
11480390,MAUC1,178EB3B4,EKA,CA,40.284444,-123.334167,40 17 04,123 20 03,MAD R AB RUTH RES NR FOREST GLEN CA,NOAA_HADS
11481000,ARCC1,D1120090,EKA,CA,40.91,-124.059444,40 54 36,124 03 34,MAD R NR ARCATA CA,NOAA_HADS
11481200,TRDC1,DDD3C65A,EKA,CA,41.01,-124.080278,41 00 36,124 04 49,LITTLE R NR TRINIDAD CA,NOAA_HADS
11481500,BLKC1,DD9E85EA,EKA,CA,40.906111,-123.814167,40 54 22,123 48 51,REDWOOD C NR BLUE LAKE CA,NOAA_HADS
11482500,ORIC1,F005553E,EKA,CA,41.299444,-124.05,41 17 58,124 03 00,REDWOOD C A ORICK CA,NOAA_HADS
11511990,KAFC1,DE68A33A,MFR,CA,41.973,-122.364822,41 58 22.80,122 21 53.36,KLAMATH R AB FALL C NR COPCO CA,NOAA_HADS
11516530,IRGC1,D1076528,MFR,CA,41.928056,-122.443056,41 55 41,122 26 35,KLAMATH R BL IRON GATE DAM CA,NOAA_HADS
11517000,TAGC1,DD710E34,MFR,CA,41.709167,-122.536944,41 42 33,122 32 13,SHASTA R NR MONTAGUE CA,NOAA_HADS
11517500,YREC1,DDC7B26E,MFR,CA,41.823056,-122.594444,41 49 23,122 35 40,SHASTA R NR YREKA CA,NOAA_HADS
11517818,KWBC1,DD577756,MFR,CA,41.837778,-122.863333,41 50 16,122 51 48,KLAMATH R A WALKER BR NR KLAMATH RIVER CA,NOAA_HADS
11519500,FTJC1,D10AB026,MFR,CA,41.640833,-123.013889,41 38 27,123 00 50,SCOTT R NR FORT JONES CA,NOAA_HADS
11520500,SEIC1,DD7590BE,MFR,CA,41.853889,-123.231111,41 51 14,123 13 52,KLAMATH R NR SEIAD VALLEY CA,NOAA_HADS
11521500,HAPC1,DDFA9194,MFR,CA,41.835278,-123.381944,41 50 07,123 22 55,INDIAN C NR HAPPY CAMP CA,NOAA_HADS
11522500,SBRC1,D10B34C8,MFR,CA,41.376667,-123.475833,41 22 36,123 28 33,SALMON R A SOMES BAR CA,NOAA_HADS
11523000,ONSC1,D10CC678,EKA,CA,41.303611,-123.533333,41 18 13,123 32 00,KLAMATH R A ORLEANS,NOAA_HADS
11523200,TCCC1,D10CD50E,EKA,CA,41.111389,-122.704444,41 06 41,122 42 16,TRINITY R AB COFFEE C NR TRINITY CENTER CA,NOAA_HADS
11525500,TRWC1,DDEBE260,EKA,CA,40.724722,-122.801111,40 43 29,122 48 04,TRINITY R A LEWISTON CA,NOAA_HADS
11525530,RCLC1,DDC7A118,EKA,CA,40.724722,-122.833611,40 43 29,122 50 01,RUSH C NR LEWISTON CA,NOAA_HADS
11525655,TLKC1,DD9B5442,EKA,CA,40.672778,-122.919444,40 40 22,122 55 10,TRINITY R BL LIMEKILN GULCH NR DOUGLAS CITY CA,NOAA_HADS
11525670,ICDC1,DD9B4734,EKA,CA,40.651944,-122.913333,40 39 07,122 54 48,INDIAN C NR DOUGLAS CITY CA,NOAA_HADS
11525854,DCYC1,DDC79482,EKA,CA,40.645278,-122.956667,40 38 43,122 57 24,TRINITY R A DOUGLAS CITY CA,NOAA_HADS
11526250,TRJC1,DD9D82E4,EKA,CA,40.728611,-123.060833,40 43 43,123 03 39,TRINITY R A JUNCTION CITY CA,NOAA_HADS
11526400,TRNC1,DD9D6116,EKA,CA,40.766667,-123.113333,40 46 00,123 06 48,TRINITY R AB NF TRINITY R NR HELENA CA,NOAA_HADS
11528700,HYMC1,D10B77C2,EKA,CA,40.65,-123.493056,40 39 00,123 29 35,SF TRINITY R BL HYAMPOM CA,NOAA_HADS
11530000,HOOC1,17AF1058,EKA,CA,41.05,-123.6725,41 03 00,123 40 21,TRINITY R A HOOPA CA,NOAA_HADS
11530500,KLMC1,DD67D1DE,EKA,CA,41.511111,-123.978333,41 30 40,123 58 42,KLAMATH R NR KLAMATH CA,NOAA_HADS
11532500,CREC1,D11213E6,EKA,CA,41.791667,-124.075,41 47 30,124 04 30,SMITH R NR CRESCENT CITY CA,NOAA_HADS
11532650,FTDC1,F00560A4,EKA,CA,41.880833,-124.135278,41 52 51,124 08 07,SMITH R NR FORT DICK CA,NOAA_HADS
14306500,TIDO3,DD27827E,PQR,CA,44.386111,-123.830556,44 23 10,123 49 50,ALSEA RIVER NEAR TIDEWATER OR,NOAA_HADS
333709116405101,THNC1,DD0B5464,SGX,CA,33.619139,-116.680972,33 37 08.9,116 40 51.5,THOMAS MTN PRECIP GAGE NR ANZA CA,NOAA_HADS
340014117040901,QCMC1,DD643522,SGX,CA,34.00375,-117.069278,34 00 13.5,117 04 09.4,WEATHER STATION A W COUNTY LINE RD A CALIMESA CA,NOAA_HADS
340229116510601,BBXC1,162ECC02,SGX,CA,34.041292,-116.851642,34 02 28.65,116 51 05.91,BURNT CANYON C ABV DIV DAM NR BANNING CA,NOAA_HADS
340312116592701,OGYC1,DE6840C8,SGX,CA,34.053467,-116.990936,34 03 12.48,116 59 27.37,WEATHER STATION A OAK GLEN RD NR YUCAIPA CA,NOAA_HADS
340526116561301,FFPC1,16F650EE,SGX,CA,34.090536,-116.936853,34 05 25.93,116 56 12.67,MILL C PRECIP NR FOREST FALLS CA,NOAA_HADS
340742117161701,GSPC1,DD74E4D4,SGX,CA,34.128333,-117.271389,34 07 42,117 16 17,GILBERT ST PRECIP GAGE A SAN BERNARDINO CA,NOAA_HADS
341429116583101,GLPC1,174065D0,SGX,CA,34.241389,-116.975278,34 14 29,116 58 31,BIG BEAR LK PRECIP NR BIG BEAR CA,NOAA_HADS
341509117312601,MFLC1,DD7281FC,SGX,CA,34.2525,-117.525278,34 15 09,117 31 31,MF LYTLE C PRECIP GAGE NR LYTLE CREEK CA,NOAA_HADS
341545117124001,BNIC1,163CB8F8,SGX,CA,34.2625,-117.211111,34 15 45,117 12 40,BERNINA DRIVE PRECIP GAGE A LAKE ARROWHEAD CA,NOAA_HADS
372750122012701,RYAC1,DD062192,MTR,CA,37.463853,-122.024156,37 27 49.87,122 01 26.96,COYOTE C NR ALVISO CA,NOAA_HADS
373025122065901,DMBC1,169BE234,MTR,CA,37.506944,-122.116389,37 30 25,122 06 59,SAN FRANCISCO BAY A OLD DUMBARTON BR NR NEWARK CA,NOAA_HADS
373507121472101,QSAC1,DD8933CE,MTR,CA,37.585278,-121.789167,37 35 07,121 47 21,SAN ANTONIO C A INDIAN CREEK ROAD NR SUNOL CA,NOAA_HADS
391004120083401,TAOC1,DE5A503A,REV,CA,39.167806,-120.142797,39 10 04.1,120 08 34.07,LAKE TAHOE OUTLET PRECIP GAGE A TAHOE CITY CA,NOAA_HADS
9423350,IVNC1,17102298,VEF,CA,35.245006,-115.298989,35 14 42.02,115 17 56.36,CARUTHERS C NR IVANPAH CA,NOAA_HADS
9427500,LKHC1,DDDC90B4,PSR,CA,34.316111,-114.156389,34 18 58,114 09 23,LAKE HAVASU NEAR PARKER DAM AZ-CA,NOAA_HADS
9429000,PVVC1,DD2926EE,PSR,CA,33.731603,-114.511947,33 43 53.77,114 30 43.01,PALO VERDE CANAL NEAR BLYTHE CA,NOAA_HADS
9429100,CPVC1,DDF3C7B4,PSR,CA,33.719136,-114.497539,33 43 08.89,114 29 51.14,COLORADO RIVER BELOW PALO VERDE DAM AZ-CA,NOAA_HADS
9429500,CIDC1,F0015004,PSR,CA,32.867583,-114.472111,32 52 03.3,114 28 19.6,COLORADO RIVER BELOW IMPERIAL DAM AZ-CA,NOAA_HADS
9429600,LGDC1,DDF3D4C2,PSR,CA,32.812222,-114.514167,32 48 44,114 30 51,COLORADO RIVER BELOW LAGUNA DAM AZ-CA,NOAA_HADS
9521100,YMCC1,F001659E,PSR,CA,32.731667,-114.631944,32 43 54,114 37 55,COLORADO R BLW YUMA MAIN CANAL WW AT YUMA AZ,NOAA_HADS
9523000,AMEC1,1693D308,PSR,CA,32.870994,-114.480464,32 52 15.58,114 28 49.67,ALL-AMERICAN CANAL NR IMPERIAL DAM CA-AZ,NOAA_HADS
9527594,CNXC1,1739252A,PSR,CA,33.256222,-115.451167,33 15 22.4,115 27 04.2,COACHELLA CANAL NEAR NILAND CA,NOAA_HADS
9527597,CDBC1,1737C2B0,PSR,CA,33.538056,-115.917778,33 32 17,115 55 04,COACHELLA CANAL NEAR DESERT BEACH CA,NOAA_HADS
10068500,BRAI1,DDE4D168,PIH,ID,42.401667,-111.356111,42 24 06,111 21 22,BEAR RIVER AT PESCADERO ID,NOAA_HADS
10092700,BIUI1,DDE4F784,PIH,ID,42.013056,-111.920556,42 00 47,111 55 14,BEAR RIVER AT IDAHO-UTAH STATE LINE,NOAA_HADS
12305000,LEOI1,D104D1A8,OTX,ID,48.616883,-116.049194,48 37 00.78,116 02 57.10,KOOTENAI RIVER AT LEONIA ID,NOAA_HADS
12306500,EASI1,D1135216,OTX,ID,48.999167,-116.179722,48 59 57,116 10 47,MOYIE RIVER AT EASTPORT ID,NOAA_HADS
12309500,BFEI1,D104C2DE,OTX,ID,48.698056,-116.3125,48 41 53,116 18 45,KOOTENAI RIVER AT BONNERS FERRY ID,NOAA_HADS
12321500,BDCI1,DE33175E,OTX,ID,48.997222,-116.569167,48 59 50,116 34 09,BOUNDARY CREEK NR PORTHILL ID,NOAA_HADS
12322000,PORI1,DD71B368,OTX,ID,48.996389,-116.5075,48 59 47,116 30 27,KOOTENAI RIVER AT PORTHILL ID,NOAA_HADS
12391950,CBBI1,DE0A470E,OTX,ID,48.088056,-116.072778,48 05 17,116 04 22,CLARK FORK RIVER BELOW CABINET GORGE DAM ID,NOAA_HADS
12392155,LTCI1,D113678C,OTX,ID,48.151667,-116.181667,48 09 06,116 10 54,LIGHTNING CREEK AT CLARK FORK ID,NOAA_HADS
12395000,PRTI1,DDFB3396,OTX,ID,48.208611,-116.913611,48 12 31,116 54 49,PRIEST RIVER NEAR PRIEST RIVER ID,NOAA_HADS
12411000,PRCI1,16DCE3DC,OTX,ID,47.706111,-115.979167,47 42 22,115 58 45,NF COEUR D ALENE R AB SHOSHONE CK NR PRICHARD ID,NOAA_HADS
12413000,ENVI1,DDD6C19A,OTX,ID,47.5722,-116.2528,47 34 19.92,116 15 10.08,NF COEUR D ALENE RIVER AT ENAVILLE ID,NOAA_HADS
12413860,HARI1,DDDBB46C,OTX,ID,47.478611,-116.733056,47 28 43,116 43 59,COEUR D ALENE RIVER NR HARRISON ID,NOAA_HADS
12413875,SJII1,173707AE,OTX,ID,47.056111,-115.352222,47 03 22,115 21 08,ST JOE RIVER AT RED IVES RANGER STATION ID,NOAA_HADS
12414500,CLDI1,DDDBA71A,OTX,ID,47.274444,-116.188889,47 16 28,116 11 20,ST JOE RIVER AT CALDER ID,NOAA_HADS
12414900,SATI1,F0077626,OTX,ID,47.176111,-116.493333,47 10 34,116 29 36,ST MARIES RIVER NR SANTA ID,NOAA_HADS
12415135,SJRI1,DD71E314,OTX,ID,47.352222,-116.675556,47 21 08,116 40 32,ST JOE RIVER AT RAMSDELL NR ST MARIES ID,NOAA_HADS
12415500,COEI1,D1134160,OTX,ID,47.666111,-116.770556,47 39 58,116 46 14,COEUR D ALENE LAKE AT COEUR D ALENE ID,NOAA_HADS
12417650,SRBI1,16DC863A,OTX,ID,47.694722,-116.815278,47 41 41,116 48 55,SPOKANE RIVER BLW BLACKWELL NR COEUR D ALENE ID,NOAA_HADS
12419000,PTFI1,DDDDA7D4,OTX,ID,47.703056,-116.976944,47 42 11,116 58 37,SPOKANE RIVER NEAR POST FALLS ID,NOAA_HADS
13032500,PALI1,347DD074,PIH,ID,43.350833,-111.218889,43 21 03,111 13 08,SNAKE RIVER NR IRWIN ID,NOAA_HADS
13037500,HEII1,347DC302,PIH,ID,43.6125,-111.66,43 36 45,111 39 36,SNAKE RIVER NR HEISE ID,NOAA_HADS
13038000,DRYI1,3443DCBE,PIH,ID,43.638889,-111.716111,43 38 20,111 42 58,DRY BED NR RIRIE ID,NOAA_HADS
13038500,LORI1,3442DE44,PIH,ID,43.735278,-111.878056,43 44 07,111 52 41,SNAKE RIVER AT LORENZO ID,NOAA_HADS
13039000,HLKI1,344A74C8,PIH,ID,44.597222,-111.353611,44 35 50,111 21 13,HENRYS LAKE NR LAKE ID,NOAA_HADS
13039500,HENI1,344F2374,PIH,ID,44.594444,-111.349722,44 35 40,111 20 59,HENRYS FORK NR LAKE ID,NOAA_HADS
13046000,HFAI1,34432C3A,PIH,ID,44.069722,-111.510556,44 04 11,111 30 38,HENRYS FORK NR ASHTON ID,NOAA_HADS
13046995,FAYI1,D111818A,PIH,ID,44.061944,-111.151944,44 03 43,111 09 07,FALL RIVER AB YELLOWSTONE CANAL NR SQUIRREL ID,NOAA_HADS
13047500,FALI1,34405DA4,PIH,ID,44.068611,-111.241389,44 04 07,111 14 29,FALL RIVER NR SQUIRREL ID,NOAA_HADS
13047600,FRAI1,DD71D68E,PIH,ID,44.056111,-111.358611,44 03 22,111 21 31,FALL RIVER NR ASHTON ID,NOAA_HADS
13049500,CHEI1,344361E2,PIH,ID,44.018333,-111.566667,44 01 06,111 34 00,FALL RIVER NR CHESTER ID,NOAA_HADS
13050500,ANTI1,34405376,PIH,ID,43.966944,-111.6725,43 58 01,111 40 21,HENRYS FORK AT ST ANTHONY ID,NOAA_HADS
13055000,TEAI1,34430AD6,PIH,ID,43.927222,-111.613889,43 55 38,111 36 50,TETON RIVER NR ST ANTHONY ID,NOAA_HADS
13056500,REXI1,34426DCA,PIH,ID,43.825833,-111.905,43 49 33,111 54 18,HENRYS FORK NR REXBURG ID,NOAA_HADS
13057000,MENI1,D10BE2A0,PIH,ID,43.752778,-111.979167,43 45 10,111 58 45,SNAKE RIVER NR MENAN ID,NOAA_HADS
13057132,GWSI1,D10BC44C,PIH,ID,43.600833,-112.061944,43 36 03,112 03 43,GREAT WESTERN SPILLBACK NR IDAHO FALLS ID,NOAA_HADS
13057155,SIFI1,D104E432,PIH,ID,43.604722,-112.058611,43 36 17,112 03 31,SNAKE RIVER AB EAGLE ROCK NR IDAHO FALLS ID,NOAA_HADS
13057940,WTXI1,3440BE56,PIH,ID,43.441944,-111.728333,43 26 31,111 43 42,WILLOW CREEK BL TEX CREEK NR RIRIE ID,NOAA_HADS
13058000,RIRI1,DE05419C,PIH,ID,43.583333,-111.746111,43 35 00,111 44 46,WILLOW CREEK NR RIRIE ID,NOAA_HADS
13058520,WBFI1,344DC572,PIH,ID,43.576389,-111.913056,43 34 35,111 54 47,WILLOW CREEK FLOODWAY CHANNEL NR UCON ID,NOAA_HADS
13058529,WFWI1,DDE0114C,PIH,ID,43.574722,-112.048056,43 34 29,112 02 53,WILLOW CR FLOODWAY CHANNEL AT MOUTH NR ID FALLS ID,NOAA_HADS
13060000,SHYI1,34411C54,PIH,ID,43.413056,-112.135,43 24 47,112 08 06,SNAKE RIVER NR SHELLEY ID,NOAA_HADS
13062500,SNAI1,34410F22,PIH,ID,43.1975,-112.369167,43 11 51,112 22 09,SNAKE RIVER AT BLACKFOOT ID,NOAA_HADS
13063000,BKHI1,D111710E,PIH,ID,42.815278,-111.506667,42 48 55,111 30 24,BLACKFOOT RIVER AB RESERVOIR NR HENRY ID,NOAA_HADS
13066000,SHLI1,D10BB2DC,PIH,ID,43.262778,-112.047778,43 15 46,112 02 52,BLACKFOOT RIVER NR SHELLEY ID,NOAA_HADS
13068495,BBYI1,D10C9604,PIH,ID,43.170833,-112.387778,43 10 15,112 23 16,BLACKFOOT RIVER BYPASS NR BLACKFOOT ID,NOAA_HADS
13068500,BLFI1,DDDFF25C,PIH,ID,43.130556,-112.476667,43 07 50,112 28 36,BLACKFOOT RIVER NR BLACKFOOT ID,NOAA_HADS
13069500,BFTI1,3440B084,PIH,ID,43.125278,-112.518889,43 07 31,112 31 08,SNAKE RIVER NR BLACKFOOT ID,NOAA_HADS
13072400,PBLI1,DDC916FE,PIH,ID,42.743536,-112.001636,42 44 36.73,112 00 05.89,PORTNEUF RIVER AT PEBBLE ID,NOAA_HADS
13073000,TOPI1,15D6858E,PIH,ID,42.624722,-112.088056,42 37 29,112 05 17,PORTNEUF RIVER AT TOPAZ ID,NOAA_HADS
13075983,SPSI1,F0059020,PIH,ID,43.0425,-112.55,43 02 33,112 33 00,SPRING CREEK AT SHEEPSKIN RD NR FORT HALL ID,NOAA_HADS
13077000,AMFI1,3443D26C,PIH,ID,42.7675,-112.879444,42 46 03,112 52 46,SNAKE RIVER AT NEELEY ID,NOAA_HADS
13078000,RRVI1,DD6413CE,PIH,ID,42.063611,-113.451389,42 03 49,113 27 05,RAFT RIVER AB ONEMILE CREEK NR MALTA ID,NOAA_HADS
13079300,CCBI1,1733419E,PIH,ID,42.277669,-113.496342,42 16 39.61,113 29 46.83,CASSIA CREEK BELOW BLACKSMITH CK ID,NOAA_HADS
13081500,MDMI1,34B01268,PIH,ID,42.672778,-113.500278,42 40 22,113 30 01,SNAKE R NR MINIDOKA ID AT HOWELLS FERRY,NOAA_HADS
13082500,GOSI1,D10BD73A,PIH,ID,42.126111,-113.935556,42 07 34,113 56 08,GOOSE CREEK AB TRAPPER CREEK NR OAKLEY ID,NOAA_HADS
13087900,MLNI1,344408E2,BOI,ID,42.523056,-114.013333,42 31 23,114 00 48,MILNER LAKE AT MILNER DAM ID,NOAA_HADS
13087995,MILI1,344960B0,BOI,ID,42.528056,-114.018333,42 31 41,114 01 06,SNAKE RIVER GAGING STATION AT MILNER ID,NOAA_HADS
13095500,BXCI1,D10560DC,BOI,ID,42.7075,-114.810278,42 42 27,114 48 37,BOX CANYON SPRINGS NR WENDELL ID,NOAA_HADS
13112000,CCCI1,D10CA39E,PIH,ID,44.002778,-112.221111,44 00 10,112 13 16,CAMAS CREEK AT CAMAS ID,NOAA_HADS
13115000,MUDI1,DE056770,PIH,ID,43.889722,-112.358056,43 53 23,112 21 29,MUD LAKE NR TERRETON ID,NOAA_HADS
13116500,MEDI1,DE001620,PIH,ID,44.259167,-112.410278,44 15 33,112 24 37,MEDICINE LODGE CREEK NR SMALL ID,NOAA_HADS
13118700,LLRI1,D10D51E0,PIH,ID,44.138611,-113.245278,44 08 19,113 14 43,LITTLE LOST RIVER BL WET CREEK NR HOWE ID,NOAA_HADS
13118975,LLDI1,16E6719C,PIH,ID,43.884825,-113.097008,43 53 05.37,113 05 49.23,LITTLE LOST RIVER AB FLOOD DIVERSION NR HOWE ID,NOAA_HADS
13119000,LLHI1,16DC002E,PIH,ID,43.870278,-113.088056,43 52 13,113 05 17,LITTLE LOST RIVER NR HOWE ID,NOAA_HADS
13120500,HWRI1,DD0987F8,PIH,ID,43.998333,-114.021111,43 59 54,114 01 16,BIG LOST RIVER AT HOWELL RANCH NR CHILLY ID,NOAA_HADS
13127000,MAKI1,DDE1355A,PIH,ID,43.939167,-113.648333,43 56 21,113 38 54,BIG LOST RIVER BL MACKAY RES NR MACKAY ID,NOAA_HADS
13131000,ACKI1,17B150A4,PIH,ID,43.733611,-113.514722,43 44 01,113 30 53,ANTELOPE CREEK NR DARLINGTON ID,NOAA_HADS
13135520,NFBI1,162A1182,PIH,ID,43.786111,-114.419167,43 47 10,114 25 09,NF BIG WOOD RIVER NR SAWTOOTH NRA HQ NR KETCHUM ID,NOAA_HADS
13138000,EFGI1,163F2446,PIH,ID,43.603056,-114.330278,43 36 11,114 19 49,EAST FORK BIG WOOD RIVER AT GIMLET ID,NOAA_HADS
13141500,CMCI1,D1132486,BOI,ID,43.332778,-114.541944,43 19 58,114 32 31,CAMAS CREEK NR BLAINE ID,NOAA_HADS
13142500,BWMI1,DDEDD734,PIH,ID,43.248056,-114.356667,43 14 53,114 21 24,BIG WOOD RIVER BL MAGIC DAM NR RICHFIELD ID,NOAA_HADS
13147900,LWOI1,345DC2EC,PIH,ID,43.493056,-114.057222,43 29 35,114 03 26,LITTLE WOOD RIVER AB HIGH FIVE CREEK NR CAREY ID,NOAA_HADS
13148500,WODI1,345AA53E,PIH,ID,43.39,-113.999722,43 23 24,113 59 59,LITTLE WOOD RIVER NR CAREY ID,NOAA_HADS
13154500,SKHI1,D113111C,BOI,ID,43.002222,-115.2025,43 00 08,115 12 09,SNAKE RIVER AT KING HILL ID,NOAA_HADS
13168500,HOTI1,DD558226,BOI,ID,42.771111,-115.720278,42 46 16,115 43 13,BRUNEAU RIVER NR HOT SPRING ID,NOAA_HADS
13172500,SWAI1,16DCD646,BOI,ID,43.254814,-116.390639,43 15 17.33,116 23 26.30,SNAKE RIVER NR MURPHY ID,NOAA_HADS
13176400,ORCI1,DE34B592,BOI,ID,42.261369,-116.868442,42 15 40.93,116 52 06.39,EF OWYHEE RIVER AT CRUTCHER CROSSING ID,NOAA_HADS
13185000,BTSI1,347D937E,BOI,ID,43.668056,-115.725278,43 40 05,115 43 31,BOISE RIVER NR TWIN SPRINGS ID,NOAA_HADS
13186000,BRFI1,347DA6E4,BOI,ID,43.495833,-115.308056,43 29 45,115 18 29,SF BOISE RIVER NR FEATHERVILLE ID,NOAA_HADS
13190500,ANDI1,16E6C212,BOI,ID,43.343611,-115.4775,43 20 37,115 28 39,SF BOISE RIVER AT ANDERSON RANCH DAM ID,NOAA_HADS
13192200,SFNI1,163B6276,BOI,ID,43.550556,-115.721944,43 33 02,115 43 19,SF BOISE RIVER AT NEAL BRIDGE NR ARROWROCK DAM ID,NOAA_HADS
13200000,MORI1,344FE66A,BOI,ID,43.648056,-115.989722,43 38 53,115 59 23,MORES CREEK AB ROBIE CREEK NR ARROWROCK DAM ID,NOAA_HADS
13201500,LUCI1,16DBB194,BOI,ID,43.525556,-116.055278,43 31 32,116 03 19,LUCKY PEAK LAKE NR BOISE ID,NOAA_HADS
13206000,BIGI1,34748654,BOI,ID,43.660556,-116.279167,43 39 38,116 16 45,BOISE RIVER AT GLENWOOD BRIDGE NR BOISE ID,NOAA_HADS
13235000,PRLI1,347D63FA,BOI,ID,44.085278,-115.622222,44 05 07,115 37 20,SOUTH FORK PAYETTE RIVER AT LOWMAN ID,NOAA_HADS
13236500,DRBI1,34614314,BOI,ID,44.291944,-115.641944,44 17 31,115 38 31,DEADWOOD RIVER BL DEADWOOD RES NR LOWMAN ID,NOAA_HADS
13238500,PYDI1,3484E1A6,BOI,ID,44.912222,-116.119167,44 54 44,116 07 09,PAYETTE LAKE AT MCCALL ID,NOAA_HADS
13239000,PAYI1,347D5660,BOI,ID,44.907222,-116.119167,44 54 26,116 07 09,NF PAYETTE RIVER AT MCCALL ID,NOAA_HADS
13240000,LFPI1,1676F7AE,BOI,ID,44.913611,-115.997222,44 54 49,115 59 50,LAKE FORK PAYETTE RIVER AB JUMBO CR NR MCCALL ID,NOAA_HADS
13246000,BNKI1,DE3322C4,BOI,ID,44.114167,-116.107222,44 06 51,116 06 26,NF PAYETTE RIVER NR BANKS ID,NOAA_HADS
13247500,HRSI1,347D708C,BOI,ID,43.943333,-116.196667,43 56 36,116 11 48,PAYETTE RIVER NR HORSESHOE BEND ID,NOAA_HADS
13250000,PLEI1,347D4516,BOI,ID,43.901719,-116.633297,43 54 06.19,116 37 59.87,PAYETTE RIVER NR LETHA ID,NOAA_HADS
13251000,PRPI1,347D3386,BOI,ID,44.042222,-116.925278,44 02 32,116 55 31,PAYETTE RIVER NR PAYETTE ID,NOAA_HADS
13258500,CAMI1,163F2A94,BOI,ID,44.579444,-116.643333,44 34 46,116 38 36,WEISER RIVER NR CAMBRIDGE ID,NOAA_HADS
13265500,CRWI1,DD55A4CA,BOI,ID,44.291811,-116.782631,44 17 30.52,116 46 57.47,CRANE CREEK AT MOUTH NR WEISER ID,NOAA_HADS
13266000,WSRI1,DD55B7BC,BOI,ID,44.27,-116.772222,44 16 12,116 46 20,WEISER RIVER NR WEISER ID,NOAA_HADS
13290450,HCDI1,347F85FC,BOI,ID,45.254444,-116.696944,45 15 16,116 41 49,SNAKE RIVER AT HELLS CANYON DAM ID-OR STATE LINE,NOAA_HADS
13296000,YFSI1,16EA0690,PIH,ID,44.275556,-114.734444,44 16 32,114 44 04,YANKEE FORK SALMON RIVER NR CLAYTON ID,NOAA_HADS
13296500,SRYI1,D1116278,MSO,ID,44.268333,-114.732778,44 16 06,114 43 58,SALMON RIVER BL YANKEE FORK NR CLAYTON ID,NOAA_HADS
13297330,TOMI1,D11157E2,PIH,ID,44.270278,-114.516667,44 16 13,114 31 00,THOMPSON CREEK NR CLAYTON ID,NOAA_HADS
13297355,PNBI1,D10A03A8,PIH,ID,44.290833,-114.471667,44 17 27,114 28 18,PAASASIKWANA NAOKWAIDE BL BRUNO CK,NOAA_HADS
13302005,PAHI1,1734264C,MSO,ID,44.691667,-114.046944,44 41 30,114 02 49,PAHSIMEROI RIVER AT ELLIS ID,NOAA_HADS
13307000,SALI1,D10E15E4,MSO,ID,45.3225,-114.44,45 19 21,114 26 24,SALMON RIVER NR SHOUP ID,NOAA_HADS
13309220,MIDI1,DDE113B6,BOI,ID,44.721519,-115.014347,44 43 17.47,115 00 51.65,MF SALMON RIVER AT MF LODGE NR YELLOW PINE ID,NOAA_HADS
13310199,MSSI1,DD9E969C,BOI,ID,45.293611,-114.596389,45 17 37,114 35 47,MF SALMON RIVER AT MOUTH NR SHOUP ID,NOAA_HADS
13310700,KRSI1,D113026A,BOI,ID,44.986944,-115.725,44 59 13,115 43 30,SF SALMON RIVER NR KRASSEL RANGER STATION ID,NOAA_HADS
13311000,SFSI1,1717C35E,BOI,ID,44.905722,-115.3295,44 54 20.6,115 19 46.2,EF OF SF SALMON RIVER AT STIBNITE ID,NOAA_HADS
13311450,SUGI1,16EA207C,BOI,ID,44.936361,-115.337222,44 56 10.9,115 20 14.0,SUGAR CREEK NR STIBNITE ID,NOAA_HADS
13313000,JOHI1,DD09F168,BOI,ID,44.961667,-115.5,44 57 42,115 30 00,JOHNSON CREEK AT YELLOW PINE ID,NOAA_HADS
13316500,RIGI1,DDC6E0E8,MSO,ID,45.413056,-116.325278,45 24 47,116 19 31,LITTLE SALMON RIVER AT RIGGINS ID,NOAA_HADS
13317000,WHBI1,F0032360,MSO,ID,45.750278,-116.323889,45 45 01,116 19 26,SALMON RIVER AT WHITE BIRD ID,NOAA_HADS
13317660,SNMI1,DD6FE0E2,OTX,ID,46.003056,-116.916944,46 00 11,116 55 01,SNAKE RIVER AT MCDUFF RAPIDS AT CHINA GARDEN ID,NOAA_HADS
13336500,SELI1,DD0BC106,MSO,ID,46.086667,-115.513889,46 05 12,115 30 50,SELWAY RIVER NR LOWELL ID,NOAA_HADS
13337000,LOCI1,1789D466,MSO,ID,46.150833,-115.587222,46 09 03,115 35 14,LOCHSA RIVER NR LOWELL ID,NOAA_HADS
13338500,STII1,17CE539A,MSO,ID,46.086389,-115.976667,46 05 11,115 58 36,SF CLEARWATER RIVER AT STITES ID,NOAA_HADS
13340000,ORFI1,DD6400B8,MSO,ID,46.478333,-116.2575,46 28 42,116 15 27,CLEARWATER RIVER AT OROFINO ID,NOAA_HADS
13340600,CRSI1,F00316FA,MSO,ID,46.840556,-115.621111,46 50 26,115 37 16,NF CLEARWATER RIVER NR CANYON RANGER STATION ID,NOAA_HADS
13341050,PEKI1,D10D3406,OTX,ID,46.500278,-116.3925,46 30 01,116 23 33,CLEARWATER RIVER NR PECK ID,NOAA_HADS
13342500,SPDI1,17B1653E,OTX,ID,46.448333,-116.8275,46 26 54,116 49 39,CLEARWATER RIVER AT SPALDING ID,NOAA_HADS
13343000,CRLI1,D111079E,OTX,ID,46.434167,-116.967778,46 26 03,116 58 04,CLEARWATER RIVER NR LEWISTON ID,NOAA_HADS
13346800,PACI1,DE0A319E,OTX,ID,46.731944,-117.024167,46 43 55,117 01 27,PARADISE CR AT UNIVERSITY OF IDAHO AT MOSCOW ID,NOAA_HADS
463745115483500,HQSI1,DDFB157A,MSO,ID,46.629167,-115.809722,46 37 45,115 48 35,PRECIPITATION GAGE AT HEADQUARTERS ID,NOAA_HADS
464615116103800,EKRI1,DDFB4506,MSO,ID,46.770833,-116.177222,46 46 15,116 10 38,ELK RIVER P. NR ELK RIVER ID,NOAA_HADS
12301250,TBAM8,16E912E8,MSO,MT,48.877947,-115.054461,48 52 40.61,115 03 16.06,TOBACCO RIVER AT EUREKA MT,NOAA_HADS
12301933,KBDM8,CE11B438,MSO,MT,48.400664,-115.318719,48 24 02.39,115 19 07.39,KOOTENAI RIVER BL LIBBY DAM NR LIBBY MT,NOAA_HADS
12302055,FISM8,DE08A108,MSO,MT,48.355603,-115.31465,48 21 20.17,115 18 52.74,FISHER RIVER NEAR LIBBY MT,NOAA_HADS
12304500,TRYM8,DE06A560,MSO,MT,48.561722,-115.970158,48 33 42.20,115 58 12.57,YAAK RIVER NEAR TROY MT,NOAA_HADS
12323233,BKCM8,D10F31F2,MSO,MT,45.991269,-112.527358,45 59 28.57,112 31 38.49,BLACKTAIL CREEK ABOVE GROVE GULCH AT BUTTE MT,NOAA_HADS
12323250,SLVM8,DDE5601C,MSO,MT,45.999167,-112.577322,45 59 57,112 34 38.36,SILVER BOW CR BL BLACKTAIL CR AT BUTTE MT,NOAA_HADS
12323600,OPPM8,DD6F536C,MSO,MT,46.107758,-112.805283,46 06 27.93,112 48 19.02,SILVER BOW CREEK AT OPPORTUNITY MT,NOAA_HADS
12323670,MCAM8,DD7893D8,MSO,MT,46.082972,-112.917189,46 04 58.70,112 55 01.88,MILL CREEK NR ANACONDA MT,NOAA_HADS
12323710,WCAM8,DD78A642,MSO,MT,46.064511,-112.893531,46 03 52.24,112 53 36.71,WILLOW CREEK NR ANACONDA MT,NOAA_HADS
12323750,WMSM8,DDD072DA,MSO,MT,46.179497,-112.780561,46 10 46.19,112 46 50.02,SILVER BOW CREEK AT WARM SPRINGS MT,NOAA_HADS
12323760,ANDM8,DDD553F6,MSO,MT,46.133667,-112.903153,46 08 01.20,112 54 11.35,WARM SPRINGS CREEK NEAR ANACONDA MT,NOAA_HADS
12323770,WSPM8,DE063002,MSO,MT,46.180375,-112.785078,46 10 49.35,112 47 06.28,WARM SPRINGS CREEK AT WARM SPRINGS MT,NOAA_HADS
12323800,GALM8,DDD5666C,MSO,MT,46.208242,-112.76735,46 12 29.67,112 46 02.46,CLARK FORK NEAR GALEN MT,NOAA_HADS
12323850,LCGM8,DD60C09C,MSO,MT,46.218572,-112.774167,46 13 06.86,112 46 27.00,LOST CREEK NEAR GALEN MT,NOAA_HADS
12324200,DLGM8,17397556,MSO,MT,46.39765,-112.742539,46 23 51.54,112 44 33.14,CLARK FORK AT DEER LODGE MT,NOAA_HADS
12324590,LBFM8,163F52D6,MSO,MT,46.519483,-112.793172,46 31 10.14,112 47 35.42,LITTLE BLACKFOOT RIVER NEAR GARRISON MT,NOAA_HADS
12325500,FTCM8,DE0AB78A,MSO,MT,46.232667,-113.299872,46 13 57.60,113 17 59.54,FLINT CREEK NEAR SOUTHERN CROSS MT,NOAA_HADS
12329500,FLNM8,DE0AC11A,MSO,MT,46.463758,-113.240278,46 27 49.53,113 14 25.00,FLINT CREEK AT MAXVILLE MT,NOAA_HADS
12330000,BMXM8,164012E2,MSO,MT,46.471653,-113.235769,46 28 17.95,113 14 08.77,BOULDER CREEK AT MAXVILLE MT,NOAA_HADS
12331500,FCKM8,DDD09128,MSO,MT,46.628728,-113.150692,46 37 43.42,113 09 02.49,FLINT CREEK NEAR DRUMMOND MT,NOAA_HADS
12331800,DRMM8,DDCDE340,MSO,MT,46.711914,-113.330781,46 42 42.89,113 19 50.81,CLARK FORK NEAR DRUMMOND MT,NOAA_HADS
12332000,MFRM8,DD342216,MSO,MT,46.184569,-113.501569,46 11 04.45,113 30 05.65,MIDDLE FORK ROCK CR NR PHILIPSBURG MT,NOAA_HADS
12334510,RCCM8,DE089492,MSO,MT,46.722336,-113.683061,46 43 20.41,113 40 59.02,ROCK CREEK NEAR CLINTON MT,NOAA_HADS
12335100,BLAM8,DDD7B5F0,MSO,MT,46.918794,-113.014986,46 55 07.66,113 00 53.95,BLACKFOOT R AB NEVADA CR NR HELMVILLE MT,NOAA_HADS
12340000,BONM8,D10F4762,MSO,MT,46.899411,-113.756319,46 53 57.88,113 45 22.75,BLACKFOOT RIVER NEAR BONNER MT,NOAA_HADS
12340500,ABOM8,DD116732,MSO,MT,46.876764,-113.932119,46 52 36.35,113 55 55.63,CLARK FORK ABOVE MISSOULA MT,NOAA_HADS
12342500,WFBM8,DE3AA28C,MSO,MT,45.724828,-114.282294,45 43 29.38,114 16 56.26,WEST FORK BITTERROOT RIVER NR CONNER MT,NOAA_HADS
12344000,DARM8,DE39C064,MSO,MT,45.97205,-114.141233,45 58 19.38,114 08 28.44,BITTERROOT RIVER NEAR DARBY MT,NOAA_HADS
12350250,VICM8,D10F171E,MSO,MT,46.4432,-114.123767,46 26 35.52,114 07 25.56,BITTERROOT RIVER AT BELL CROSSING NR VICTOR MT,NOAA_HADS
12352500,BITM8,DDF7320A,MSO,MT,46.831739,-114.054861,46 49 54.26,114 03 17.50,BITTERROOT RIVER NEAR MISSOULA MT,NOAA_HADS
12354500,SRGM8,DE08E202,MSO,MT,47.301639,-115.086869,47 18 05.90,115 05 12.73,CLARK FORK AT ST. REGIS MT,NOAA_HADS
12355500,FCFM8,345CE6FA,MSO,MT,48.495797,-114.126764,48 29 44.87,114 07 36.35,N F FLATHEAD RIVER NR COLUMBIA FALLS MT,NOAA_HADS
12358500,WGCM8,345D81E6,MSO,MT,48.495517,-114.010208,48 29 43.86,114 00 36.75,M F FLATHEAD RIVER NEAR WEST GLACIER MT,NOAA_HADS
12359800,TNCM8,345D211E,MSO,MT,47.979097,-113.560683,47 58 44.75,113 33 38.46,S F FLATHEAD R AB TWIN C NR HUNGRY HORSE MT,NOAA_HADS
12362000,HHWM8,345EB372,MSO,MT,48.341111,-114.013333,48 20 28,114 00 48,HUNGRY HORSE RESERVOIR NR HUNGRY HORSE MT,NOAA_HADS
12362500,SFCM8,3461860A,MSO,MT,48.356578,-114.037858,48 21 23.68,114 02 16.29,S F FLATHEAD RIVER NR COLUMBIA FALLS MT,NOAA_HADS
12363000,CFMM8,345D3268,MSO,MT,48.361811,-114.18495,48 21 42.52,114 11 05.82,FLATHEAD RIVER AT COLUMBIA FALLS MT,NOAA_HADS
12365700,SRLM8,DE08B27E,MSO,MT,48.21725,-114.313736,48 13 02.10,114 18 49.45,STILLWATER RIVER AT LAWRENCE PARK AT KALISPELL,NOAA_HADS
12366000,WHRM8,DE08C4EE,MSO,MT,48.320186,-114.278594,48 19 12.67,114 16 42.94,WHITEFISH RIVER NEAR KALISPELL MT,NOAA_HADS
12366500,FOYM8,165F657E,MSO,MT,48.154311,-114.248925,48 09 15.52,114 14 56.13,FLATHEAD RIVER AT FOYS BEND NR KALISPELL MT,NOAA_HADS
12370000,SWRM8,DE348008,MSO,MT,48.024231,-113.978819,48 01 27.23,113 58 43.75,SWAN RIVER NEAR BIGFORK MT,NOAA_HADS
12371550,KERM8,DF05403E,MSO,MT,47.696908,-114.161297,47 41 48.87,114 09 40.67,FLATHEAD LAKE AT POLSON MT,NOAA_HADS
12372000,FPOM8,F0034686,MSO,MT,47.680286,-114.246728,47 40 49.03,114 14 48.22,FLATHEAD RIVER NEAR POLSON MT,NOAA_HADS
12377150,MSNM8,DE3A8460,MSO,MT,47.320192,-113.987892,47 19 12.69,113 59 16.41,MISSION CREEK AB RESERVOIR NR ST. IGNATIUS MT,NOAA_HADS
12381400,ARLM8,DE3A9716,MSO,MT,47.19555,-113.850736,47 11 43.98,113 51 02.65,SOUTH FORK JOCKO RIVER NEAR ARLEE MT,NOAA_HADS
12388700,PERM8,DDD5751A,MSO,MT,47.366792,-114.585,47 22 00.45,114 35 06.00,FLATHEAD RIVER AT PERMA MT,NOAA_HADS
12389000,PLNM8,DDF93662,MSO,MT,47.4292,-114.856533,47 25 45.12,114 51 23.52,CLARK FORK NEAR PLAINS MT,NOAA_HADS
12389500,THRM8,DDF940F2,MSO,MT,47.591858,-115.229536,47 35 30.69,115 13 46.33,THOMPSON RIVER NEAR THOMPSON FALLS MT,NOAA_HADS
12390700,PRCM8,DE39A582,MSO,MT,47.586061,-115.3551,47 35 09.82,115 21 18.36,PROSPECT CREEK AT THOMPSON FALLS MT,NOAA_HADS
460140114103400,DRBM8,16377E4E,MSO,MT,46.027778,-114.176111,46 01 40,114 10 34,DARBY P. AT DARBY MT,NOAA_HADS
464329114315900,LOLM8,1638C580,MSO,MT,46.724722,-114.533056,46 43 29,114 31 59,LOLO HOT SPRINGS P. NR LOLO MT,NOAA_HADS
470109113074400,OVNM8,1638EDBE,MSO,MT,47.019167,-113.128889,47 01 09,113 07 44,OVANDO P. NR OVANDO MT,NOAA_HADS
471300113310001,SELM8,34422012,MSO,MT,47.2125,-113.519167,47 12 45,113 31 09,SEELEY LAKE MT (USBR PRECIP SITE),NOAA_HADS
473603112451801,GDMM8,344142FA,TFX,MT,47.601083,-112.754683,47 36 03.90,112 45 16.86,NEAR GIBSON DAM NEAR AUGUSTA MT,NOAA_HADS
475500113500001,SWLM8,34426318,MSO,MT,47.929722,-113.845,47 55 47,113 50 42,SWAN LAKE MT (USBR PRECIP SITES),NOAA_HADS
480634114520700,PLVM8,163828A0,MSO,MT,48.109444,-114.868611,48 06 34,114 52 07,PLEASANT VALLEY P. NR PLEASANT VALLEY MT,NOAA_HADS
480844104382601,BNRM8,DD964452,MSO,MT,48.146583,-104.645083,48 08 47.7,104 38 42.3,28N55E29CDAB01 FK-01,NOAA_HADS
481900113210001,SUMM8,34425682,MSO,MT,48.316667,-113.35,48 19 00,113 21 00,MARIAS SUMMIT MT (USBR PRECIP SITE),NOAA_HADS
482100114000001,HGHM8,347C7276,MSO,MT,48.341111,-114.013333,48 20 28,114 00 48,HUNGRY HORSE DAM MT (USBR PRECIP SITE),NOAA_HADS
483000113540001,WGLM8,3442EBDE,MSO,MT,48.500597,-113.984667,48 30 02.15,113 59 04.80,WEST GLACIER PRECIP STATION AT WEST GLACIER MT,NOAA_HADS
484554114170100,POLM8,1638E36C,MSO,MT,48.765,-114.283611,48 45 54,114 17 01,POLEBRIDGE P. NR POLEBRIDGE MT,NOAA_HADS
485748113034401,NMCM8,17AFD546,TFX,MT,48.963275,-113.062258,48 57 47.79,113 03 44.13,MET STATION AT NF MILK R AB ST. MARY CANAL,NOAA_HADS
485831110252101,ECCM8,DE0AE7F6,TFX,MT,48.975208,-110.422581,48 58 30.75,110 25 21.29,MET STATION AT MILK R EASTERN CROSSING INTL BNDRY,NOAA_HADS
5014500,MGGM8,DD965724,TFX,MT,48.798833,-113.656731,48 47 55.80,113 39 24.23,SWIFTCURRENT CREEK AT MANY GLACIER MT,NOAA_HADS
5015500,SBUM8,34771438,TFX,MT,48.828094,-113.521983,48 49 41.14,113 31 19.14,LAKE SHERBURNE AT SHERBURNE MT,NOAA_HADS
5017500,SMYM8,346346E0,TFX,MT,48.833056,-113.419722,48 49 59,113 25 11,ST. MARY RIVER NEAR BABB MT,NOAA_HADS
5018000,SCIM8,346305EA,TFX,MT,48.852778,-113.416944,48 51 10,113 25 01,ST. MARY CANAL AT INTAKE NEAR BABB MT,NOAA_HADS
5018500,SCCM8,34629272,TFX,MT,48.946967,-113.375331,48 56 49.08,113 22 31.19,ST. MARY CANAL AT ST. MARY CROSSING NEAR BABB MT,NOAA_HADS
5020500,SMBM8,482F9268,TFX,MT,49.011408,-113.299547,49 00 41.07,113 17 58.37,ST. MARY RIVER AT INTERNATIONAL BOUNDARY,NOAA_HADS
6006000,RRLM8,DD7F4784,TFX,MT,44.615792,-111.625669,44 36 56.85,111 37 32.41,RED ROCK CR AB LAKES NR LAKEVIEW MT,NOAA_HADS
6012500,LRRM8,34867130,TFX,MT,44.655881,-112.371222,44 39 21.17,112 22 16.40,RED ROCK R BL LIMA RESERVOIR NR MONIDA MT,NOAA_HADS
6016000,BARM8,163F41A0,TFX,MT,45.116128,-112.750494,45 06 58.06,112 45 01.78,BEAVERHEAD RIVER AT BARRETTS MT,NOAA_HADS
6017000,DILM8,DD3094A2,TFX,MT,45.218383,-112.655333,45 13 06.18,112 39 19.20,BEAVERHEAD RIVER AT DILLON MT,NOAA_HADS
6018500,TWNM8,162CEF1A,TFX,MT,45.383389,-112.452831,45 23 00.20,112 27 10.19,BEAVERHEAD RIVER NEAR TWIN BRIDGES MT,NOAA_HADS
6019500,RRRM8,DD9C5676,TFX,MT,45.192319,-112.142817,45 11 32.35,112 08 34.14,RUBY RIVER ABOVE RESERVOIR NEAR ALDER MT,NOAA_HADS
6020600,RRBM8,DE064692,TFX,MT,45.241869,-112.111239,45 14 30.73,112 06 40.46,RUBY RIVER BELOW RESERVOIR NEAR ALDER MT,NOAA_HADS
6023000,RTBM8,DE06838C,TFX,MT,45.506914,-112.330889,45 30 24.89,112 19 51.20,RUBY RIVER NEAR TWIN BRIDGES MT,NOAA_HADS
6023100,TWBM8,163F4F72,TFX,MT,45.546889,-112.338111,45 32 48.80,112 20 17.20,BEAVERHEAD RIVER AT TWIN BRIDGES MT,NOAA_HADS
6024450,BGKM8,DE08F174,TFX,MT,45.617967,-113.456942,45 37 04.68,113 27 24.99,BIG HOLE RIVER BL BIG LAKE CR AT WISDOM MT,NOAA_HADS
6024540,BHDM8,DD9662BE,TFX,MT,45.807542,-113.313269,45 48 27.15,113 18 47.77,BIG HOLE RIVER BL MUDD CR NR WISDOM MT,NOAA_HADS
6025250,MRDM8,DDE52316,TFX,MT,45.701269,-112.735969,45 42 04.57,112 44 09.49,BIG HOLE RIVER AT MAIDEN ROCK NR DIVIDE MT,NOAA_HADS
6025500,MLRM8,1735112C,TFX,MT,45.526581,-112.701725,45 31 35.69,112 42 06.21,BIG HOLE RIVER NEAR MELROSE MT,NOAA_HADS
6026210,GNLM8,DD9671C8,TFX,MT,45.440094,-112.556092,45 26 24.34,112 33 21.93,BIG HOLE RIVER NEAR GLEN MT,NOAA_HADS
6026420,THDM8,163FB124,TFX,MT,45.550022,-112.360675,45 33 00.08,112 21 38.43,BIG HOLE R BL HAMILTON DITCH NR TWIN BRIDGES MT,NOAA_HADS
6026500,TWIM8,174AA19C,TFX,MT,45.613283,-112.329397,45 36 47.82,112 19 45.83,JEFFERSON RIVER NEAR TWIN BRIDGES MT,NOAA_HADS
6027600,PBRM8,163FBFF6,TFX,MT,45.747503,-112.187228,45 44 51.01,112 11 14.02,JEFFERSON RIVER AT PARSONS BDG NR SILVER STAR MT,NOAA_HADS
6033000,BLDM8,1718D6BA,TFX,MT,46.211031,-112.09165,46 12 39.71,112 05 29.94,BOULDER RIVER NEAR BOULDER MT,NOAA_HADS
6035000,WCHM8,171C83FC,TFX,MT,45.723058,-111.741025,45 43 23.01,111 44 27.69,WILLOW CREEK NEAR HARRISON MT,NOAA_HADS
6036650,TFKM8,CE78B056,TFX,MT,45.897136,-111.595672,45 53 49.69,111 35 44.42,JEFFERSON RIVER NEAR THREE FORKS MT,NOAA_HADS
6037500,MDSM8,DD7F54F2,TFX,MT,44.657072,-111.067964,44 39 25.46,111 04 04.67,MADISON RIVER NEAR WEST YELLOWSTONE MT,NOAA_HADS
6038500,HBDM8,F0010078,TFX,MT,44.866392,-111.338781,44 51 59.01,111 20 19.61,MADISON RIVER BL HEBGEN LAKE NR GRAYLING MT,NOAA_HADS
6038800,CMRM8,D10F2284,TFX,MT,44.888656,-111.580886,44 53 19.16,111 34 51.19,MADISON RIVER AT KIRBY RANCH NR CAMERON MT,NOAA_HADS
6040000,CMNM8,163F39E2,TFX,MT,45.233133,-111.751633,45 13 59.28,111 45 05.88,MADISON RIVER NEAR CAMERON MT,NOAA_HADS
6040800,MRPM8,D10F827C,TFX,MT,45.486594,-111.633858,45 29 11.74,111 38 01.89,MADISON RIVER AB POWERPLANT NR MCALLISTER MT,NOAA_HADS
6043120,GBSM8,16E96478,BYZ,MT,45.297278,-111.211392,45 17 50.20,111 12 41.01,GALLATIN RIVER ABOVE DEER CREEK NEAR BIG SKY MT,NOAA_HADS
6043500,GLGM8,DE345660,TFX,MT,45.4973,-111.270708,45 29 50.28,111 16 14.55,GALLATIN RIVER NEAR GALLATIN GATEWAY MT,NOAA_HADS
6048650,EGBM8,DD7F6168,TFX,MT,45.725667,-111.066194,45 43 32.4,111 03 58.3,E GALLATIN R AB WATER RECLAMATION FA NR BOZEMAN MT,NOAA_HADS
6050000,HCCM8,16E9770E,TFX,MT,45.563328,-111.071889,45 33 47.98,111 04 18.80,HYALITE C AT HYALITE R S NR BOZEMAN MT,NOAA_HADS
6052500,LOGM8,CE78ADF2,TFX,MT,45.886247,-111.442008,45 53 10.49,111 26 31.23,GALLATIN RIVER AT LOGAN MT,NOAA_HADS
6054500,TOSM8,CE78BE84,TFX,MT,46.146572,-111.420278,46 08 47.66,111 25 13.00,MISSOURI RIVER AT TOSTON MT,NOAA_HADS
6061500,PKPM8,16400194,TFX,MT,46.519097,-111.946786,46 31 08.75,111 56 48.43,PRICKLY PEAR CREEK NEAR CLANCY MT,NOAA_HADS
6062500,RIMM8,DE062374,TFX,MT,46.523897,-112.256647,46 31 26.03,112 15 23.93,TENMILE CREEK NEAR RIMINI MT,NOAA_HADS
6063000,TMHM8,D1060234,TFX,MT,46.605006,-112.088264,46 36 18.02,112 05 17.75,TENMILE CREEK NEAR HELENA MT,NOAA_HADS
6065500,HASM8,DE34708C,TFX,MT,46.766192,-111.888794,46 45 58.29,111 53 19.66,MISSOURI RIVER BL HAUSER DAM NEAR HELENA MT,NOAA_HADS
6066500,HTRM8,DE067308,TFX,MT,46.994739,-112.010667,46 59 41.06,112 00 38.40,MISSOURI RIVER BL HOLTER DAM NR WOLF CR MT,NOAA_HADS
6071300,LPPM8,DE06607E,TFX,MT,47.005436,-112.070311,47 00 19.57,112 04 13.12,LITTLE PRICKLY PEAR CR AT WOLF CR MT,NOAA_HADS
6073500,DBRM8,DD1F702C,TFX,MT,47.199025,-112.095906,47 11 56.49,112 05 45.26,DEARBORN RIVER NEAR CRAIG MT,NOAA_HADS
6076690,SFLM8,16E9878A,TFX,MT,46.7958,-111.178556,46 47 44.88,111 10 42.80,SMITH RIVER NEAR FT LOGAN MT,NOAA_HADS
6077200,SMHM8,D104325A,TFX,MT,46.827981,-111.192239,46 49 40.73,111 11 32.06,SMITH RIVER BL EAGLE CR NR FORT LOGAN MT,NOAA_HADS
6077500,EDNM8,DE0690FA,TFX,MT,47.189292,-111.386239,47 11 21.45,111 23 10.46,SMITH RIVER NEAR EDEN MT,NOAA_HADS
6078200,ULMM8,CE78C6C6,TFX,MT,47.434967,-111.388444,47 26 05.88,111 23 18.40,MISSOURI RIVER NEAR ULM MT,NOAA_HADS
6078500,NFSM8,348681B4,TFX,MT,47.639861,-112.859333,47 38 23.5,112 51 33.6,NORTH FORK SUN RIVER NEAR AUGUSTA MT,NOAA_HADS
6079000,SSNM8,34628104,TFX,MT,47.628608,-112.865761,47 37 42.99,112 51 56.74,SOUTH FORK SUN RIVER NEAR AUGUSTA MT,NOAA_HADS
6080900,ADDM8,163AFB3C,TFX,MT,47.618506,-112.692056,47 37 06.62,112 41 31.40,SUN RIVER BL DIVERSION DAM NR AUGUSTA MT,NOAA_HADS
6082200,SRVM8,34710780,TFX,MT,47.547136,-112.367431,47 32 49.69,112 22 02.75,SUN RIVER BL WILLOW CR NR AUGUSTA MT,NOAA_HADS
6085800,SSRM8,DD3CD634,TFX,MT,47.501628,-111.931914,47 30 05.86,111 55 54.89,SUN RIVER AT SIMMS MT,NOAA_HADS
6088500,MDYM8,17C057F2,TFX,MT,47.561267,-111.541769,47 33 40.56,111 32 30.37,MUDDY CREEK AT VAUGHN MT,NOAA_HADS
6089000,VAUM8,CE78E02A,TFX,MT,47.525778,-111.511036,47 31 32.80,111 30 39.73,SUN RIVER NEAR VAUGHN MT,NOAA_HADS
6090300,GFLM8,D10EF616,TFX,MT,47.584444,-111.060581,47 35 04.00,111 03 38.09,MISSOURI RIVER NEAR GREAT FALLS MT,NOAA_HADS
6090500,BTCM8,DF0487DA,TFX,MT,47.208594,-110.931747,47 12 30.94,110 55 54.29,BELT CREEK NEAR MONARCH MT,NOAA_HADS
6090800,FBNM8,DD7F721E,TFX,MT,47.816911,-110.666142,47 49 00.88,110 39 58.11,MISSOURI RIVER AT FORT BENTON MT,NOAA_HADS
6091700,TMRM8,346FC168,TFX,MT,48.426953,-112.989983,48 25 37.03,112 59 23.94,TWO MEDICINE RIVER BL SOUTH FORK NR BROWNING MT,NOAA_HADS
6093200,BDCM8,3462A7E8,TFX,MT,48.36945,-112.801781,48 22 10.02,112 48 06.41,BADGER CR BL FOUR HORNS CANAL NR BROWNING MT,NOAA_HADS
6099000,CBKM8,16E8E096,TFX,MT,48.633403,-112.346481,48 38 00.25,112 20 47.33,CUT BANK CREEK AT CUT BANK MT,NOAA_HADS
6099500,SHLM8,3486C2BE,TFX,MT,48.427197,-111.889836,48 25 37.91,111 53 23.41,MARIAS RIVER NEAR SHELBY MT,NOAA_HADS
6101500,MRCM8,3473A28C,TFX,MT,48.305961,-111.080528,48 18 21.46,111 04 49.90,MARIAS RIVER NEAR CHESTER MT,NOAA_HADS
6102050,LOMM8,D10414B6,TFX,MT,47.945903,-110.580839,47 56 45.25,110 34 51.02,MARIAS RIVER NEAR LOMA MT,NOAA_HADS
6102500,TSFM8,DD9C709A,TFX,MT,47.883083,-112.611983,47 52 59.10,112 36 43.14,TETON RIVER BL SOUTH FORK NR CHOTEAU MT,NOAA_HADS
6108800,LTRM8,162C37A0,TFX,MT,47.932719,-110.514433,47 55 57.79,110 30 51.96,TETON RIVER AT LOMA MT,NOAA_HADS
6109500,VRGM8,CE512286,TFX,MT,48.003783,-110.258822,48 00 13.62,110 15 31.76,MISSOURI RIVER AT VIRGELLE MT,NOAA_HADS
6110020,JRUM8,16E8F3E0,TFX,MT,46.917722,-110.188944,46 55 03.8,110 11 20.2,JUDITH RIVER ABOVE CARR CREEK NEAR UTICA MT,NOAA_HADS
6111800,LTPM8,16E9019E,TFX,MT,47.087833,-109.4575,47 05 16.2,109 27 27.0,BIG SPRING CR AT R&B TRADING POST NR LEWISTOWN MT,NOAA_HADS
6114700,JDRM8,162D00C0,TFX,MT,47.665158,-109.652014,47 39 54.57,109 39 07.25,JUDITH RIVER NR MOUTH NR WINIFRED MT,NOAA_HADS
6115200,LDKM8,CE5DC0E8,TFX,MT,47.631431,-108.687744,47 37 53.15,108 41 15.88,MISSOURI RIVER NEAR LANDUSKY MT,NOAA_HADS
6119600,MRMM8,DDCDF036,BYZ,MT,46.476958,-110.248967,46 28 37.05,110 14 56.28,MUSSELSHELL RIVER NR MARTINSDALE MT,NOAA_HADS
6123030,SHAM8,DD603018,BYZ,MT,46.318992,-109.460547,46 19 08.37,109 27 37.97,MUSSELSHELL RIVER AB MUD CR NR SHAWMUT MT,NOAA_HADS
6125600,LVNM8,DD1A5100,BYZ,MT,46.289056,-108.937611,46 17 20.6,108 56 15.4,MUSSELSHELL RIVER AB BIG COULEE CREEK AT LAVINA MT,NOAA_HADS
6127500,MUSM8,DDD5D5E2,BYZ,MT,46.522425,-108.108872,46 31 20.73,108 06 31.94,MUSSELSHELL RIVER AT MUSSELSHELL MT,NOAA_HADS
6130000,MFLM8,DDC7E212,GGW,MT,46.928661,-107.932842,46 55 43.18,107 55 58.23,FLATWILLOW CREEK NEAR MOSBY MT,NOAA_HADS
6130500,MSBM8,D10F618E,GGW,MT,46.994692,-107.889164,46 59 40.89,107 53 20.99,MUSSELSHELL RIVER AT MOSBY MT,NOAA_HADS
6133000,PDBM8,482F811E,TFX,MT,49.007517,-112.545258,49 00 27.06,112 32 42.93,MILK RIVER AT WESTERN CROSSING OF INT'L BOUNDARY,NOAA_HADS
6133500,NFMM8,34632306,TFX,MT,48.963528,-113.062356,48 57 48.70,113 03 44.48,N F MILK RIVER AB ST. MARY CANAL NR BROWNING MT,NOAA_HADS
6134000,NMRM8,4543C552,TFX,MT,49.026336,-112.969697,49 01 34.81,112 58 10.91,NORTH MILK RIVER NEAR INTERNATIONAL BOUNDARY,NOAA_HADS
6135000,ERNM8,34633070,TFX,MT,48.974819,-110.421778,48 58 29.35,110 25 18.40,MILK RIVER AT EASTERN CROSSING OF INT BNDRY,NOAA_HADS
6137574,MADM8,D10F72F8,TFX,MT,48.304769,-109.924031,48 18 17.17,109 55 26.51,BOXELDER CR BL BROWN'S RES DIV NR BOX ELDER MT,NOAA_HADS
6139500,BSMM8,DF05F3B0,TFX,MT,48.526714,-109.841578,48 31 36.17,109 50 29.68,BIG SANDY CREEK NEAR HAVRE MT,NOAA_HADS
6140500,HVRM8,1718C5CC,TFX,MT,48.563686,-109.695956,48 33 49.27,109 41 45.44,MILK RIVER AT HAVRE MT,NOAA_HADS
6142400,CCMM8,162C5C94,TFX,MT,48.578869,-109.391131,48 34 43.93,109 23 28.07,CLEAR CREEK NEAR CHINOOK MT,NOAA_HADS
6143900,LEEM8,DDE546F0,TFX,MT,48.653961,-109.530478,48 39 14.26,109 31 49.72,REDROCK COULEE NEAR CHINOOK MT,NOAA_HADS
6146980,CRKM8,1739E034,TFX,MT,48.675361,-109.275,48 40 31.3,109 16 30,LODGE CREEK NEAR CHINOOK MT,NOAA_HADS
6151500,BCMM8,162C3972,TFX,MT,48.649492,-109.231694,48 38 58.17,109 13 54.10,BATTLE CREEK NEAR CHINOOK MT,NOAA_HADS
6154100,HRLM8,17235576,TFX,MT,48.489642,-108.75895,48 29 22.71,108 45 32.22,MILK RIVER NEAR HARLEM MT,NOAA_HADS
6154400,PEOM8,DE39836E,TFX,MT,48.223733,-108.714053,48 13 25.44,108 42 50.59,PEOPLES CREEK NEAR HAYS MT,NOAA_HADS
6155030,DMRM8,DE399018,GGW,MT,48.402778,-108.294094,48 24 10.00,108 17 38.74,MILK RIVER NEAR DODSON MT,NOAA_HADS
6164000,FREM8,4840E058,GGW,MT,49.000019,-107.302864,49 00 00.07,107 18 10.31,FRENCHMAN RIVER AT INTERNATIONAL BOUNDARY,NOAA_HADS
6164510,SACM8,CE78D5B0,GGW,MT,48.509203,-107.218756,48 30 33.13,107 13 07.52,MILK RIVER AT JUNEBERG BRIDGE NR SACO MT,NOAA_HADS
6166000,GSCM8,D104212C,GGW,MT,48.356783,-107.582186,48 21 24.42,107 34 55.87,BEAVER CR BL GUSTON COULEE NR SACO MT,NOAA_HADS
6167500,BCHM8,348692C2,GGW,MT,48.420311,-107.171139,48 25 13.12,107 10 16.10,BEAVER CREEK NEAR HINSDALE MT,NOAA_HADS
6169500,ORHM8,DDD0825E,GGW,MT,48.969375,-106.839842,48 58 09.75,106 50 23.43,ROCK CREEK BL HORSE CREEK NR INT'L BOUNDARY,NOAA_HADS
6172310,TMPM8,163FA252,GGW,MT,48.307906,-106.822317,48 18 28.46,106 49 20.34,MILK RIVER AT TAMPICO MT,NOAA_HADS
6174500,NSHM8,CE512C54,GGW,MT,48.130053,-106.364314,48 07 48.19,106 21 51.53,MILK RIVER AT NASHUA MT,NOAA_HADS
6175100,FRZM8,DE34937E,GGW,MT,48.030556,-106.122222,48 01 50,106 07 20,MISSOURI R AT W FRAZER PUMP PLANT NR FRAZER MT,NOAA_HADS
6175510,FRAM8,DF06043A,GGW,MT,48.033333,-106.0,48 02 00,106 00 00,MISSOURI R AT E FRAZER PUMP PLANT NR FRAZER MT,NOAA_HADS
6177000,WPTM8,CE5119CE,GGW,MT,48.067325,-105.533097,48 04 02.37,105 31 59.15,MISSOURI RIVER NEAR WOLF POINT MT,NOAA_HADS
6177500,RRCM8,DE02E350,GGW,MT,47.413972,-105.575644,47 24 50.30,105 34 32.32,REDWATER RIVER AT CIRCLE MT,NOAA_HADS
6178000,PPRM8,174A8770,GGW,MT,48.990286,-105.696908,48 59 25.03,105 41 48.87,POPLAR RIVER AT INTERNATIONAL BOUNDARY,NOAA_HADS
6178500,EPRM8,DD7F91EC,GGW,MT,49.0,-105.409586,49 00 00.00,105 24 34.51,EAST POPLAR RIVER AT INTERNATIONAL BOUNDARY,NOAA_HADS
6181000,PLRM8,163A2386,GGW,MT,48.117917,-105.192817,48 07 04.50,105 11 34.14,POPLAR RIVER NEAR POPLAR MT,NOAA_HADS
6183450,BGCM8,DD0F77B2,GGW,MT,48.672897,-104.512086,48 40 22.43,104 30 43.51,BIG MUDDY CREEK NEAR ANTELOPE MT,NOAA_HADS
6185110,CLRM8,DF04775E,GGW,MT,48.164481,-104.629519,48 09 52.13,104 37 46.27,BIG MUDDY CREEK NR MOUTH NR CULBERTSON MT,NOAA_HADS
6185500,CLBM8,CE51171C,GGW,MT,48.1235,-104.4733,48 07 24.60,104 28 23.88,MISSOURI RIVER NEAR CULBERTSON MT,NOAA_HADS
6187915,SBCM8,DD9C63EC,RIW,MT,45.002831,-110.001872,45 00 10.19,110 00 06.74,SODA BUTTE CR AT PARK BNDRY AT SILVER GATE,NOAA_HADS
6191000,GDRM8,D10F0468,RIW,MT,44.992344,-110.690975,44 59 32.44,110 41 27.51,GARDNER RIVER NEAR MAMMOTH YNP,NOAA_HADS
6191500,CORM8,CE3091C0,BYZ,MT,45.112119,-110.793667,45 06 43.63,110 47 37.20,YELLOWSTONE RIVER AT CORWIN SPRINGS MT,NOAA_HADS
6192978,SRCM8,DD5DD6FC,BYZ,MT,46.167125,-110.491947,46 10 01.65,110 29 31.01,SHIELDS RIVER BL SF SHIELDS RIVER NR WILSALL MT,NOAA_HADS
6195600,SLDM8,DE0030CC,BYZ,MT,45.738361,-110.479469,45 44 18.10,110 28 46.09,SHIELDS RIVER NR LIVINGSTON MT,NOAA_HADS
6197800,EBRM8,DDD38550,BYZ,MT,45.512333,-110.087722,45 30 44.4,110 05 15.8,EAST BOULDER RIVER BL DRY FORK CR NR MCLEOD MT,NOAA_HADS
6204050,WRDM8,DD54632E,BYZ,MT,45.243239,-109.731303,45 14 35.66,109 43 52.69,WEST ROSEBUD CREEK NEAR ROSCOE MT,NOAA_HADS
6204070,WREM8,DDFCC126,BYZ,MT,45.254444,-109.699167,45 15 16,109 41 57,W ROSEBUD CR AT EMERALD LK CAMPGROUND NR ROSCOE,NOAA_HADS
6205000,SRAM8,174AF1E0,BYZ,MT,45.536742,-109.422056,45 32 12.27,109 25 19.40,STILLWATER RIVER NEAR ABSAROKEE MT,NOAA_HADS
6207500,BFYM8,173792CC,BYZ,MT,45.009911,-109.065367,45 00 35.68,109 03 55.32,CLARKS FORK YELLOWSTONE RIVER NR BELFRY MT,NOAA_HADS
6208500,EDGM8,DD3B37F2,BYZ,MT,45.465714,-108.844106,45 27 56.57,108 50 38.78,CLARKS FORK YELLOWSTONE RIVER AT EDGAR MT,NOAA_HADS
6208790,WHCM8,1638FEC8,BYZ,MT,45.516389,-108.830833,45 30 59,108 49 51,WHITE HORSE CANAL NEAR SILESIA MT,NOAA_HADS
6209500,ROKM8,172D278E,BYZ,MT,45.086147,-109.329189,45 05 10.13,109 19 45.08,ROCK CREEK NEAR RED LODGE MT,NOAA_HADS
6211000,BYDM8,171C7378,BYZ,MT,45.43785,-109.253311,45 26 16.26,109 15 11.92,RED LODGE CR AB COONEY RE NR BOYD MT,NOAA_HADS
6211500,BOYM8,DDD5F30E,BYZ,MT,45.422147,-109.230531,45 25 19.73,109 13 49.91,WILLOW CREEK NEAR BOYD MT,NOAA_HADS
6214500,BILM8,CE51B936,BYZ,MT,45.800119,-108.468031,45 48 00.43,108 28 04.91,YELLOWSTONE RIVER AT BILLINGS MT,NOAA_HADS
6287000,STXM8,344727D2,BYZ,MT,45.316903,-107.918889,45 19 00.85,107 55 08.00,BIGHORN R BL YELLOWTAIL AFTERBAY DAM NR ST. XAVIER,NOAA_HADS
6287800,SXVM8,DF05E0C6,BYZ,MT,45.460833,-107.748611,45 27 39,107 44 55,BIGHORN RIVER AT BRIDGE AT ST. XAVIER MT,NOAA_HADS
6288400,TLBM8,DF0566D2,BYZ,MT,45.644167,-107.6575,45 38 39,107 39 27,BIGHORN RIVER AT TWO LEGGINS BRIDGE NEAR HARDIN,NOAA_HADS
6289000,LBSM8,1734353A,BYZ,MT,45.007111,-107.615408,45 00 25.60,107 36 55.47,LITTLE BIGHORN RIVER AT STATE LINE NR WYOLA MT,NOAA_HADS
6294000,HRDM8,174A77F4,BYZ,MT,45.735686,-107.557469,45 44 08.47,107 33 26.89,LITTLE BIGHORN RIVER NEAR HARDIN MT,NOAA_HADS
6294500,BGHM8,CE790122,BYZ,MT,46.124472,-107.468792,46 07 28.10,107 28 07.65,BIGHORN RIVER AB TULLOCK CR NR BIGHORN MT,NOAA_HADS
6295000,FRYM8,DE0655E4,BYZ,MT,46.266636,-106.691303,46 15 59.89,106 41 28.69,YELLOWSTONE RIVER AT FORSYTH MT,NOAA_HADS
6295113,RCRM8,DE09030A,BYZ,MT,45.361167,-106.990356,45 21 40.20,106 59 25.28,ROSEBUD C AT RESERVATION BNDRY NR KIRBY MT,NOAA_HADS
6295220,RCLM8,16F3A7AA,BYZ,MT,45.675833,-106.699722,45 40 33,106 41 59,ROSEBUD C BEL LAME DEER C NR LAME DEER MT,NOAA_HADS
6306300,DSLM8,DE39B6F4,BYZ,MT,45.009136,-106.835944,45 00 32.89,106 50 09.40,TONGUE RIVER AT STATE LINE NR DECKER MT,NOAA_HADS
6307500,DKRM8,DD6090E0,BYZ,MT,45.141275,-106.771356,45 08 28.59,106 46 16.88,TONGUE RIVER AT TONGUE R DAM NR DECKER MT,NOAA_HADS
6307616,BNYM8,DD608396,BYZ,MT,45.411606,-106.457353,45 24 41.78,106 27 26.47,TONGUE R AT BIRNEY DAY SCHOOL BR NR BIRNEY MT,NOAA_HADS
6307830,ASLM8,16D07722,BYZ,MT,45.840386,-106.223433,45 50 25.39,106 13 24.36,TONGUE R BL BRANDENBERG BRIDGE NR ASHLAND MT,NOAA_HADS
6309000,MILM8,CE5DB678,BYZ,MT,46.420772,-105.860033,46 25 14.78,105 51 36.12,YELLOWSTONE RIVER AT MILES CITY MT,NOAA_HADS
6324500,MHDM8,DDE55586,BYZ,MT,45.057197,-105.878378,45 03 25.91,105 52 42.16,POWDER RIVER AT MOORHEAD MT,NOAA_HADS
6326500,LOCM8,CE78DB62,BYZ,MT,46.429436,-105.310331,46 25 45.97,105 18 37.19,POWDER RIVER NEAR LOCATE MT,NOAA_HADS
6329500,SIDM8,CE78A320,GGW,MT,47.677414,-104.155411,47 40 38.69,104 09 19.48,YELLOWSTONE RIVER NEAR SIDNEY MT,NOAA_HADS
9202700,BTMM8,DE09107C,BYZ,MT,42.725286,-109.703775,42 43 31.03,109 42 13.59,WARD BALL RESERVOIR OUTFLOW NR BOULDER WY,NOAA_HADS
10243260,LMNN2,DE938AB8,LKN,NV,39.011667,-114.213611,39 00 42,114 12 49,LEHMAN CK NR BAKER NV,NOAA_HADS
10243700,CVCN2,DE3582F2,LKN,NV,39.216578,-114.529639,39 12 59.68,114 31 46.7,CLEVE CK NR ELY NV,NOAA_HADS
10244950,STEN2,1789F28A,LKN,NV,39.201539,-114.689161,39 12 05.54,114 41 20.98,STEPTOE CK NR ELY NV,NOAA_HADS
10245100,GEYN2,DE9465AC,LKN,NV,38.68,-114.666667,38 40 48,114 40 00,GEYSER CK AT SPGS ORIFICE NR MINERVA NV,NOAA_HADS
10245960,COCN2,DE92E376,LKN,NV,39.769778,-116.464444,39 46 11.2,116 27 52,COILS CK ABV HORSE CK NR EUREKA NV,NOAA_HADS
10245970,RCKN2,DE94AE60,LKN,NV,39.789778,-116.300944,39 47 23.2,116 18 03.4,ROBERTS CK NR EUREKA NV,NOAA_HADS
10246835,BWSN2,DD2D30A2,LKN,NV,38.950194,-115.703278,38 57 00.7,115 42 11.8,BIG WARM SPGS NR DUCKWATER NV,NOAA_HADS
10246846,LCTN2,1666C5AA,LKN,NV,38.847222,-115.366667,38 50 50,115 22 00,L CURRANT CK NR CURRANT NV,NOAA_HADS
10247200,BCWN2,DE5725CC,LKN,NV,38.186944,-115.755,38 11 13,115 45 18,BIG CK NR WARM SPGS NV,NOAA_HADS
10249300,TWRN2,DE943B02,LKN,NV,38.8875,-117.244444,38 53 15,117 14 40,S TWIN RV NR ROUND MOUNTAIN NV,NOAA_HADS
10288500,WLHN2,DD8C8780,REV,NV,38.676667,-118.771111,38 40 36,118 46 16,WALKER LAKE NR HAWTHORNE NV,NOAA_HADS
10293100,KSGN2,16E662EA,VEF,NV,38.436031,-119.0112,38 26 09.71,119 00 40.32,E WALKER RV BLW CONFL ROUGH CK NR THE ELBOW NV,NOAA_HADS
10293200,EWBN2,DD6EE218,REV,NV,38.548,-118.950061,38 32 52.8,118 57 00.22,E WALKER RV AT MORGAN BRIDGE NR WICHMAN CYN NV,NOAA_HADS
10293400,EWRN2,169C7562,REV,NV,38.7185,-118.979556,38 43 06.6,118 58 46.4,E WALKER RV AT IVY RANCH BRG NR MASON NV,NOAA_HADS
10293500,EWSN2,DE920E56,REV,NV,38.813714,-119.047992,38 48 49.37,119 02 52.77,E WALKER RV ABV STROSNIDER DITCH NR MASON NV,NOAA_HADS
10295000,EWMN2,D10126EC,REV,NV,38.8774,-119.144281,38 52 38.64,119 08 39.41,E WALKER RV NR MASON NV,NOAA_HADS
10297000,TOPN2,162E6CFA,REV,NV,38.693233,-119.520308,38 41 35.64,119 31 13.11,TOPAZ LAKE NR TOPAZ CA,NOAA_HADS
10297010,TPCN2,DE93694A,REV,NV,38.695556,-119.508056,38 41 44,119 30 29,TOPAZ CANAL BLW TOPAZ LAKE NR TOPAZ CA,NOAA_HADS
10297500,HOYN2,DE94F0CE,REV,NV,38.728064,-119.427861,38 43 41.03,119 25 40.3,W WALKER RV AT HOYE BRG NR WELLINGTON NV,NOAA_HADS
10300000,WWHN2,DE94FE1C,REV,NV,38.809722,-119.226389,38 48 35,119 13 35,W WALKER RV NR HUDSON NV,NOAA_HADS
10300600,MASN2,DE91D1E2,REV,NV,38.92125,-119.191583,38 55 16.5,119 11 29.7,WALKER RV AT SNYDER LN NR MASON NV,NOAA_HADS
10301115,WRYN2,DE5064F2,REV,NV,39.020417,-119.156056,39 01 13.5,119 09 21.8,WALKER RVR BLW YERINGTON WEIR NR YERINGTON NV,NOAA_HADS
10301300,WBMN2,DDF5392C,REV,NV,39.128167,-119.116694,39 07 41.4,119 07 00.1,WALKER RV BLW MASON VLY WMA AT RR XING NR WABUSKA,NOAA_HADS
10301500,WALN2,DE926562,REV,NV,39.152461,-119.098889,39 09 08.86,119 05 56,WALKER RV NR WABUSKA NV,NOAA_HADS
10301600,WARN2,162C9758,REV,NV,39.103333,-118.928333,39 06 12,118 55 42,WALKER RV ABV WEBER RES NR SCHURZ NV,NOAA_HADS
10301700,WVRN2,162C998A,REV,NV,39.044722,-118.859167,39 02 41,118 51 33,WEBER RES NR SCHURZ NV,NOAA_HADS
10301720,WBWN2,DE9502B0,REV,NV,39.033889,-118.861389,39 02 02,118 51 41,WALKER RV AT PT SITE BLW WEBER RES NR SCHURZ NV,NOAA_HADS
10301745,WLTN2,DE93846A,REV,NV,39.013611,-118.86,39 00 49,118 51 36,WALKER RV ABV LITTLE DAM NR SCHURZ NV,NOAA_HADS
10302002,WSIN2,DE93DAC4,REV,NV,38.940278,-118.802778,38 56 25,118 48 10,WALKER RV AT LATERAL 2-A SIPHON NR SCHURZ NV,NOAA_HADS
10302025,WRMN2,DE93D416,REV,NV,38.791111,-118.726111,38 47 28,118 43 34,WALKER RV NR MOUTH AT WALKER LAKE NV,NOAA_HADS
10309000,GRDN2,DE9511C6,REV,NV,38.845194,-119.706083,38 50 42.7,119 42 21.9,E FK CARSON RV NR GARDNERVILLE NV,NOAA_HADS
10309010,EFDN2,DE55F650,REV,NV,38.880139,-119.691806,38 52 48.5,119 41 30.5,E FK CARSON RV NR DRESSLERVILLE NV,NOAA_HADS
10309050,PNCN2,DE95372A,REV,NV,38.858944,-119.568583,38 51 32.2,119 34 06.9,PINE NUT CK NR GARDNERVILLE NV,NOAA_HADS
10310400,DCGN2,DE0250DE,REV,NV,38.9645,-119.849319,38 57 52.20,119 50 57.55,DAGGETT CK NR GENOA NV,NOAA_HADS
10310407,CRGN2,DD8C7704,REV,NV,39.0125,-119.83,39 00 45,119 49 48,CARSON RV NR GENOA NV,NOAA_HADS
10310500,CLRN2,DE92FED2,REV,NV,39.113333,-119.797222,39 06 48,119 47 50,CLEAR CK NR CARSON CITY NV,NOAA_HADS
10311000,STWN2,DDFD3358,REV,NV,39.107778,-119.712222,39 06 28,119 42 44,CARSON RV NR CARSON CITY NV,NOAA_HADS
10311100,KCLN2,DE937A3C,REV,NV,39.153889,-119.806944,39 09 14,119 48 25,KINGS CYN CK NR CARSON CITY NV,NOAA_HADS
10311200,ACLN2,DE94865E,REV,NV,39.176389,-119.804722,39 10 35,119 48 17,ASH CYN CK NR CARSON CITY NV,NOAA_HADS
10311300,EVYN2,DE930CAC,REV,NV,39.165275,-119.722225,39 09 54.99,119 43 20.01,EAGLE VALLEY CK AT CARSON CITY NV,NOAA_HADS
10311400,DRRN2,17D8C1A8,REV,NV,39.181378,-119.694869,39 10 52.96,119 41 41.53,CARSON RV AT DEER RUN RD NR CARSON CITY NV,NOAA_HADS
10311700,CDYN2,DE571056,REV,NV,39.237794,-119.587858,39 14 16.06,119 35 16.29,CARSON RV AT DAYTON NV,NOAA_HADS
10311750,CSCN2,DD99E238,REV,NV,39.280917,-119.525139,39 16 51.3,119 31 30.5,CARSON R ABV SIXMILE CYN CK BLW DAYTON NV,NOAA_HADS
10312000,FTCN2,DD71FEB0,REV,NV,39.291667,-119.311111,39 17 30,119 18 40,CARSON RV NR FORT CHURCHILL NV,NOAA_HADS
10312100,LHDN2,DE048678,REV,NV,39.4625,-119.066667,39 27 45,119 04 00,LAHONTAN RES NR FALLON NV,NOAA_HADS
10312150,CBLN2,DE950C62,REV,NV,39.463936,-119.046258,39 27 50.17,119 02 46.53,CARSON RV BLW LAHONTAN RESERVOIR NR FALLON NV,NOAA_HADS
10312275,TRZN2,DE93C9B2,REV,NV,39.558889,-118.725,39 33 32,118 43 30,CARSON RV AT TARZYN RD NR FALLON NV,NOAA_HADS
10313900,HNKN2,16EA6376,LKN,NV,41.477861,-115.286639,41 28 40.3,115 17 11.9,HANKS CK AT MARYS RV RANCH RD NR DEETH NV,NOAA_HADS
10315500,MHSN2,17D8B738,LKN,NV,41.252778,-115.255556,41 15 10,115 15 20,MARYS RV ABV HOT SPGS CK NR DEETH NV,NOAA_HADS
10316500,LCLN2,DE9552CC,LKN,NV,40.690833,-115.476111,40 41 27,115 28 34,LAMOILLE CK NR LAMOILLE NV,NOAA_HADS
10317480,BVRN2,DDEF614E,LKN,NV,41.329722,-115.571944,41 19 47,115 34 19,BEAVER CK ABV CONF N FK HUMBOLDT RV NR HALLECK NV,NOAA_HADS
10317500,DEVN2,DE94E3B8,LKN,NV,41.178753,-115.492575,41 10 43.51,115 29 33.27,N FK HUMBOLDT RV AT DEVILS GATE NR HALLECK NV,NOAA_HADS
10318500,HREN2,DD721A4C,LKN,NV,40.936556,-115.624167,40 56 11.6,115 37 27.0,HUMBOLDT RV NR ELKO NV,NOAA_HADS
10319900,SFHN2,DE9539F8,LKN,NV,40.627497,-115.730522,40 37 38.99,115 43 49.88,S FK HUMBOLDT RV ABV TENMILE CK NR ELKO NV,NOAA_HADS
10319910,SFRN2,DE32C3CC,REV,NV,40.68175,-115.785333,40 40 54.3,115 47 07.2,S FK RESERVOIR AT SPRING CK NV,NOAA_HADS
10320000,DIXN2,DE945EE4,LKN,NV,40.685,-115.8125,40 41 06,115 48 45,S FK HUMBOLDT RV ABV DIXIE CK NR ELKO NV,NOAA_HADS
10321000,HRCN2,DDEB12E4,LKN,NV,40.727778,-116.008333,40 43 40,116 00 30,HUMBOLDT RV NR CARLIN NV,NOAA_HADS
10321590,SUSN2,DE53D072,LKN,NV,40.726111,-116.076944,40 43 34,116 04 37,SUSIE CK AT CARLIN NV,NOAA_HADS
10321940,MMCN2,DE513674,LKN,NV,40.825,-116.2225,40 49 30,116 13 21,MAGGIE CK ABV MAGGIE CK CYN NR CARLIN NV,NOAA_HADS
10321950,MCYN2,DDFCB7B6,LKN,NV,40.803333,-116.199167,40 48 12,116 11 57,MAGGIE CK AT MAGGIE CR CYN NR CARLIN NV,NOAA_HADS
10322000,MGCN2,F006B1C2,LKN,NV,40.716244,-116.093575,40 42 58.48,116 05 36.87,MAGGIE CK AT CARLIN NV,NOAA_HADS
10322150,MACN2,DE53E5E8,LKN,NV,40.710556,-116.125,40 42 38,116 07 30,MARYS CK AT CARLIN NV,NOAA_HADS
10322500,PALN2,DE9541BA,LKN,NV,40.6075,-116.200833,40 36 27,116 12 03,HUMBOLDT RV AT PALISADE NV,NOAA_HADS
10322505,HRSN2,169C9690,LKN,NV,40.115556,-116.503444,40 06 56.0,116 30 12.4,HORSE CK AT HORSE CYN NR GARDEN GATE PASS NV,NOAA_HADS
103225055,WILN2,169C85E6,LKN,NV,40.171,-116.486694,40 10 15.6,116 29 12.1,WILLOW CK AT ALLISON RANCH NR GARDEN GATE PASS NV,NOAA_HADS
10322510,TONN2,DE94A0B2,LKN,NV,39.904806,-116.412528,39 54 17.3,116 24 45.1,TONKIN SPG OUTFLOW ABV DENAY CK NR EUREKA NV,NOAA_HADS
10322535,HCKN2,DE9426A6,LKN,NV,39.869,-116.166944,39 52 08.4,116 10 01,HENDERSON CK BLW VINNINI CK NR EUREKA NV,NOAA_HADS
10322555,PHCN2,DDF5AC4E,LKN,NV,39.890306,-116.378278,39 53 25.1,116 22 41.8,PETE HANSON CK ABV HENDERSON CK NR EUREKA NV,NOAA_HADS
10322800,PCKN2,169D0108,LKN,NV,40.38125,-116.125139,40 22 52.5,116 07 30.5,PINE CK AT MODARELLI MINE RD NR HAY RANCH NV,NOAA_HADS
10323000,RSGN2,16E6147A,LKN,NV,40.594797,-116.173269,40 35 41.27,116 10 23.77,PINE CK NR PALISADE NV,NOAA_HADS
10323425,HRDN2,DE06C086,LKN,NV,40.705556,-116.53,40 42 20,116 31 48,HUMBOLDT RV AT OLD US 40 BRG AT DUNPHY NV,NOAA_HADS
10324500,ROCN2,F006C752,LKN,NV,40.830406,-116.588342,40 49 49.46,116 35 18.03,ROCK CK NR BATTLE MOUNTAIN NV,NOAA_HADS
10324700,BCKN2,F006D424,LKN,NV,40.955,-116.439167,40 57 18,116 26 21,BOULDER CK NR DUNPHY NV,NOAA_HADS
10325000,HBMN2,F006E1BE,LKN,NV,40.667778,-116.930278,40 40 04,116 55 49,HUMBOLDT RV AT BATTLE MOUNTAIN NV,NOAA_HADS
10327500,CMSN2,17B3A5D4,LKN,NV,40.992222,-117.316667,40 59 32,117 19 00,HUMBOLDT RV AT COMUS NV,NOAA_HADS
10328450,NLHN2,DE343386,LKN,NV,41.485278,-117.131111,41 29 07,117 07 52,N FK L HUMBOLDT RV NR PARADISE VALLEY NV,NOAA_HADS
10328475,SLHN2,1654403A,LKN,NV,41.448056,-117.088611,41 26 53,117 05 19,S FK L HUMBOLDT RV NR PARADISE VALLEY NV,NOAA_HADS
10328500,LHCN2,DDF599D4,LKN,NV,41.393333,-117.181389,41 23 36,117 10 53,L HUMBOLDT RV BLW CHIMNEY DM NR PARADISE VALLEY NV,NOAA_HADS
10329000,LHPN2,17675390,LKN,NV,41.415822,-117.373511,41 24 56.96,117 22 24.64,L HUMBOLDT RV NR PARADISE VALLEY NV,NOAA_HADS
10329500,MARN2,DE952A8E,LKN,NV,41.534722,-117.416944,41 32 05,117 25 01,MARTIN CK NR PARADISE VALLEY NV,NOAA_HADS
10333000,HRIN2,DE9399CE,REV,NV,40.6925,-118.203333,40 41 33,118 12 12,HUMBOLDT RV NR IMLAY NV,NOAA_HADS
10334500,RPRN2,DE330428,REV,NV,40.471611,-118.308167,40 28 17.8,118 18 29.4,RYE PATCH RES NR RYE PATCH NV,NOAA_HADS
10335000,HRPN2,DE93971C,REV,NV,40.4675,-118.306667,40 28 03,118 18 24,HUMBOLDT RV NR RYE PATCH NV,NOAA_HADS
10336698,THCN2,DDF46BAA,REV,NV,39.240556,-119.945556,39 14 26,119 56 44,THIRD CK NR CRYSTAL BAY NV,NOAA_HADS
10336700,INCN2,DDF478DC,REV,NV,39.240278,-119.943889,39 14 25,119 56 38,INCLINE CK NR CRYSTAL BAY NV,NOAA_HADS
10336710,MLTN2,F00713C0,REV,NV,39.172975,-119.905511,39 10 22.71,119 54 19.84,MARLETTE LAKE NR CARSON CITY NV,NOAA_HADS
10336715,MCCN2,17D8A44E,REV,NV,39.172222,-119.906944,39 10 20,119 54 25,MARLETTE CK NR CARSON CITY NV,NOAA_HADS
10336730,GBKN2,DE94888C,REV,NV,39.0875,-119.938889,39 05 15,119 56 20,GLENBROOK CK AT GLENBROOK NV,NOAA_HADS
10347310,DOGN2,DE9476DA,REV,NV,39.524444,-119.994444,39 31 28,119 59 40,DOG CK AT VERDI NV,NOAA_HADS
10347460,MOGN2,DE521796,REV,NV,39.507222,-119.930833,39 30 26,119 55 51,TRUCKEE RV NR MOGUL NV,NOAA_HADS
10347600,HNTN2,DE936798,REV,NV,39.495111,-119.8945,39 29 42.4,119 53 40.2,HUNTER CK NR RENO NV,NOAA_HADS
10348000,TRRN2,DE51F36A,REV,NV,39.530278,-119.794444,39 31 49,119 47 40,TRUCKEE RV AT RENO NV,NOAA_HADS
10348036,TSGN2,DD72093A,REV,NV,39.525833,-119.776639,39 31 33.0,119 46 35.9,TRUCKEE RV AT GLENDALE AVE NR SPARKS NV,NOAA_HADS
10348200,STRN2,DE52220C,REV,NV,39.517617,-119.741644,39 31 03.42,119 44 29.92,TRUCKEE RV NR SPARKS NV,NOAA_HADS
10348245,NTDN2,DE94ED6A,REV,NV,39.568889,-119.725556,39 34 08,119 43 32,N TRUCKEE DRAIN AT SPANISH SPRINGS RD NR SPARK NV,NOAA_HADS
10348295,BFDN2,DE941DEE,REV,NV,39.531583,-119.714972,39 31 53.7,119 42 53.9,N TRUCKEE DRAIN NR BIG FISH DR NR SPARKS NV,NOAA_HADS
10348460,FRKN2,DD99F14E,REV,NV,39.202278,-119.871083,39 12 08.2,119 52 15.9,FRANKTOWN CK NR CARSON CITY NV,NOAA_HADS
10348505,FCTN2,DE387110,REV,NV,39.274064,-119.841353,39 16 26.63,119 50 28.87,FRANKTOWN CK AT OLD US 395 NR FRANKTOWN NV,NOAA_HADS
10348520,OPCN2,DE945036,REV,NV,39.290828,-119.830917,39 17 26.98,119 49 51.30,OPHIR CK NR STEAMBOAT NV,NOAA_HADS
10348550,DVWN2,DE946B7E,REV,NV,39.303422,-119.828167,39 18 12.32,119 49 41.40,DAVIS CK AT DAVIS CK CMPGRD RD NR WASHOE CITY NV,NOAA_HADS
10348570,WCWN2,DE944D92,REV,NV,39.312389,-119.823208,39 18 44.6,119 49 23.55,WINTERS CK BLW US ALT 395 NR WASHOE CITY NV,NOAA_HADS
10348801,LWON2,DDF4868A,REV,NV,39.329833,-119.801917,39 19 47.4,119 48 06.9,STEAMBOAT CK AT WASHOE LK DAM AT NEW WASHOE CITY,NOAA_HADS
10348850,GCPN2,DE93027E,REV,NV,39.354444,-119.8575,39 21 16,119 51 27,GALENA CK AT GALENA CK STATE PARK NV,NOAA_HADS
10348995,GPVN2,DDE4DFBA,REV,NV,39.349083,-119.790056,39 20 56.7,119 47 24.2,GALENA CK BLW GALENA CK BRDG AT PLEASANT VLY NV,NOAA_HADS
10349300,SCRN2,DE91B404,REV,NV,39.377133,-119.743658,39 22 37.68,119 44 37.17,STEAMBOAT CK AT STEAMBOAT NV,NOAA_HADS
10349700,WCSN2,DDF52A5A,REV,NV,39.385278,-119.834444,39 23 07,119 50 04,WHITES CK NR STEAMBOAT NV,NOAA_HADS
10349770,WCVN2,DDE4CCCC,REV,NV,39.424139,-119.754778,39 25 26.9,119 45 17.2,WHITES CK AT OLD VIRGINIA RD NR RENO NV,NOAA_HADS
10349790,MTBN2,DE0AF480,LKN,NV,39.464417,-119.728639,39 27 51.9,119 43 43.1,WHITES CK ABV CONFL STEAMBOAT CK AT RENO NV,NOAA_HADS
10349849,SSLN2,DE92F000,REV,NV,39.465833,-119.7275,39 27 57,119 43 39,STEAMBOAT CK AT SHORT LN AT RENO NV,NOAA_HADS
10349980,SCWN2,DE94D622,REV,NV,39.513056,-119.711389,39 30 47,119 42 41,STEAMBOAT CK AT CLEANWATER WAY NR RENO NV,NOAA_HADS
10350000,VISN2,DE5204E0,REV,NV,39.520556,-119.7,39 31 14,119 42 00,TRUCKEE RV AT VISTA NV,NOAA_HADS
10350340,TNTN2,DE926BB0,REV,NV,39.556667,-119.552222,39 33 24,119 33 08,TRUCKEE RV NR TRACY NV,NOAA_HADS
10350500,TRCN2,DE0200A2,REV,NV,39.565453,-119.486186,39 33 55.63,119 29 10.27,TRUCKEE RV AT CLARK NV,NOAA_HADS
10351300,TCWN2,DE942874,VEF,NV,39.612778,-119.296111,39 36 46,119 17 46,TRUCKEE CANAL NR WADSWORTH NV,NOAA_HADS
10351400,HZNN2,DE5601DA,REV,NV,39.503889,-119.044167,39 30 14,119 02 39,TRUCKEE CANAL NR HAZEN NV,NOAA_HADS
10351600,TBDN2,DE51E01C,REV,NV,39.584722,-119.440278,39 35 05,119 26 25,TRUCKEE RV BLW DERBY DAM NR WADSWORTH NV,NOAA_HADS
10351650,WADN2,DE949528,REV,NV,39.632222,-119.282222,39 37 56,119 16 56,TRUCKEE RV AT WADSWORTH NV,NOAA_HADS
10351700,NIXN2,DE94CB86,REV,NV,39.777372,-119.337522,39 46 38.54,119 20 15.08,TRUCKEE RV NR NIXON NV,NOAA_HADS
10352500,MDCN2,DE33C136,LKN,NV,41.966667,-117.830833,41 58 00,117 49 51,MCDERMITT CK NR MCDERMITT NV,NOAA_HADS
103530001,QNRN2,16E65770,LKN,NV,41.974,-117.595694,41 58 26.4,117 35 44.5,QUINN RV BLW CONFL E FK S FK QUINN NR MC DERMITT,NOAA_HADS
13105000,SFLN2,DD6CA4E6,LKN,NV,41.944722,-114.688611,41 56 41,114 41 19,SALMON FALLS CREEK NR SAN JACINTO NV,NOAA_HADS
13161500,BRON2,DE94BD16,LKN,NV,41.933333,-115.673611,41 56 00,115 40 25,BRUNEAU RV AT ROWLAND NV,NOAA_HADS
13162225,JBGN2,DE94B3C4,LKN,NV,41.890556,-115.427778,41 53 26,115 25 40,JARBIDGE RV BLW JARBIDGE NV,NOAA_HADS
13174000,WDHN2,F00674DC,LKN,NV,41.6875,-115.843611,41 41 15,115 50 37,WILD HORSE RES NR GOLD CR NV,NOAA_HADS
13174500,OGCN2,DE94D8F0,LKN,NV,41.688889,-115.843889,41 41 20,115 50 38,OWYHEE RV NR GOLD CK NV,NOAA_HADS
13175100,OMCN2,DE954F68,LKN,NV,41.860556,-115.988333,41 51 38,115 59 18,OWYHEE RV NR MOUNTAIN CITY NV,NOAA_HADS
362532116172701,DVHN2,17B3B6A2,VEF,NV,36.425556,-116.290833,36 25 32,116 17 27,230 S17 E50 36DC 2 USNPS - DEVILS HOLE,NOAA_HADS
380531114534201,DLVN2,DE386266,VEF,NV,38.091972,-114.904889,38 05 31.1,114 54 17.6,181 N03 E63 27CAA 1 USGS-MX (N. DRY LAKE),NOAA_HADS
381136115362201,GRXN2,DE30D54E,LKN,NV,38.193233,-115.606236,38 11 35.64,115 36 22.45,GRANT RANGE PRECIP NR CHERRY CK SUMMIT NV,NOAA_HADS
382226115220501,GTMN2,DE0B5682,LKN,NV,38.373719,-115.497231,38 22 25.39,115 29 50.03,GRANT RANGE PRECIP NR TIMBER MOUNTAIN,NOAA_HADS
385613114250402,SPFN2,16F0005C,LKN,NV,38.9365,-114.41895,38 56 11.4,114 25 08.22,SHOSHONE POND WELL 2 OUTFLOW,NOAA_HADS
385622114250001,GSUN2,169C6614,VEF,NV,38.939667,-114.417806,38 56 22.8,114 25 04.1,184 N12 E67 02ABA 1 SHOSHONE PONDS WELL 4,NOAA_HADS
393310114475001,MGNN2,DE37E2E0,LKN,NV,39.5495,-114.806194,39 32 58.2,114 48 22.3,179 N20 E64 32CDAA2 USGS,NOAA_HADS
394036116183401,KOBN2,DE0367BE,LKN,NV,39.677181,-116.3113,39 40 37.85,116 18 40.68,139 N21 E50 23AABD1 USGS-MX,NOAA_HADS
395454116163601,RMPN2,DE0A22E8,LKN,NV,39.917261,-116.278689,39 55 02.14,116 16 43.28,ROBERTS MOUNTAINS PRECIP NR LWR DRY CK SPG NV,NOAA_HADS
402025116403501,ICCN2,DE69C426,LKN,NV,40.340333,-116.676472,40 20 25.2,116 40 35.3,INDIAN CK AT CRESCENT VALLEY NV,NOAA_HADS
9415510,PREN2,DD62B3F8,LKN,NV,38.933333,-115.08,38 56 00,115 04 48,PRESTON BIG SPRG NR PRESTON NV,NOAA_HADS
9415558,HSCN2,DE38448A,LKN,NV,38.379444,-115.151667,38 22 46,115 09 06,HOT CK NR SUNNYSIDE NV,NOAA_HADS
9415645,ASCN2,F005D32A,VEF,NV,37.46,-115.195,37 27 36,115 11 42,ASH SPGS CK BLW DIV AT HWY 93 AT ASH SPGS NV,NOAA_HADS
9415900,MSPN2,DE03844C,VEF,NV,36.721667,-114.714722,36 43 18,114 42 53,MUDDY SPGS AT LDS FARM NR MOAPA NV,NOAA_HADS
9415908,PESN2,DD7AA3B6,VEF,NV,36.709364,-114.715714,36 42 33.71,114 42 56.57,PEDERSON E SPGS NR MOAPA NV,NOAA_HADS
9415910,PSGN2,DDCA97E4,VEF,NV,36.709581,-114.715972,36 42 34.49,114 42 57.50,PEDERSON SPGS NR MOAPA NV,NOAA_HADS
9415920,WSWN2,DE951F14,VEF,NV,36.711183,-114.713664,36 42 40.26,114 42 49.19,WARM SPGS W NR MOAPA NV,NOAA_HADS
9415927,WSCN2,DE0374C8,VEF,NV,36.711333,-114.709667,36 42 40.8,114 42 34.8,WARM SPGS CONFL AT IVERSON FLUME NR MOAPA NV,NOAA_HADS
9416000,MOAN2,F005E6B0,VEF,NV,36.711111,-114.694444,36 42 40,114 41 40,MUDDY RV NR MOAPA NV,NOAA_HADS
9417500,MVEN2,1710E786,VEF,NV,38.004167,-114.206111,38 00 15,114 12 22,MEADOW VALLEY WASH AT EAGLE CYN NR URSINE NV,NOAA_HADS
9418500,MVYN2,F005F5C6,VEF,NV,37.558378,-114.563056,37 33 30.16,114 33 47,MEADOW VALLEY WASH NR CALIENTE NV,NOAA_HADS
9418700,MVRN2,DD0FA1DA,VEF,NV,36.8382,-114.658056,36 50 17.52,114 39 29,MEADOW VALLEY WASH NR ROX NV,NOAA_HADS
9419000,MUDN2,DE03F2DC,VEF,NV,36.643056,-114.538889,36 38 35,114 32 20,MUDDY RV NR GLENDALE NV,NOAA_HADS
9419530,VBMN2,17B3904E,VEF,NV,36.447558,-114.352914,36 26 51.21,114 21 10.49,VIRGIN RV BLW CONF OF MUDDY RV NR OVERTON NV,NOAA_HADS
9419550,RSPN2,DE34C302,VEF,NV,36.376583,-114.443583,36 22 35.7,114 26 36.9,ROGERS SPNG NR OVERTON BEACH NV,NOAA_HADS
9419625,CCSN2,DDCAB108,VEF,NV,36.438844,-115.358119,36 26 19.84,115 21 29.23,CORN CK SPGS AT NATIONAL FISH & WILDLIFE HDQRS NV,NOAA_HADS
9419665,SCCN2,1730C084,VEF,NV,36.159722,-115.044444,36 09 35,115 02 40,SLOAN CHANNEL AT CHARLESTON BLVD NR LAS VEGAS NV,NOAA_HADS
94196781,FWNN2,DD63676A,VEF,NV,36.143056,-115.064722,36 08 35,115 03 53,FLAMINGO WASH AT NELLIS BLVD NR LAS VEGAS NV,NOAA_HADS
94196783,LWCN2,DDCAA27E,VEF,NV,36.139722,-115.046944,36 08 23,115 02 49,LV WASH BLW FLAMINGO WASH CONFL NR LAS VEGAS NV,NOAA_HADS
94196784,VVDN2,F006113A,VEF,NV,36.131917,-115.035667,36 07 54.9,115 02 08.4,LAS VEGAS WASH AT VEGAS VALLEY DR NR LAS VEGAS NV,NOAA_HADS
9419679,LWYN2,17AF964C,VEF,NV,36.10805,-115.021994,36 06 28.98,115 01 19.18,LAS VEGAS WASTEWAY NR E LAS VEGAS NV,NOAA_HADS
9419696,DCKN2,DD629514,VEF,NV,36.090833,-115.023056,36 05 27,115 01 23,DUCK CK AT BROADBENT BLVD AT E LAS VEGAS NV,NOAA_HADS
9419698,LVDN2,16F1A25E,VEF,NV,36.09155,-114.999222,36 05 29.58,114 59 57.20,LV WASH BLW DUCK CK CONF NR HENDERSON NV,NOAA_HADS
9419700,LVPN2,DD638498,VEF,NV,36.0875,-114.985,36 05 15,114 59 06,LAS VEGAS WASH AT PABCO RD NR HENDERSON NV,NOAA_HADS
9419740,CWSN2,DD63C792,VEF,NV,36.044722,-114.958333,36 02 41,114 57 30,C-1 CHANNEL NR WARM SPGS RD AT HENDERSON NV,NOAA_HADS
9419745,LCCN2,173486B4,VEF,NV,36.08325,-114.964353,36 04 59.7,114 57 51.67,C-1 CHANNEL ABV MOUTH NR HENDERSON NV,NOAA_HADS
9419747,BWHN2,DD5561D4,VEF,NV,36.089789,-114.972225,36 05 23.24,114 58 20.01,LV WASH ABV BOSTICK WEIR NR HENDERSON NV,NOAA_HADS
9419749,LHWN2,DD614472,VEF,NV,36.094206,-114.955183,36 05 39.14,114 57 18.66,LV WASH ABV HOMESTEAD WEIR NR HENDERSON NV,NOAA_HADS
9419753,KIDN2,DD7A962C,VEF,NV,36.100375,-114.943319,36 06 01.35,114 56 35.95,LV WASH ABV THREE KIDS WASH BLW HENDERSON NV,NOAA_HADS
9419756,LVON2,DD628662,VEF,NV,36.1025,-114.933611,36 06 09,114 56 01,LAS VEGAS WASH OVERFLOW AT LAKE LAS VEGAS INLET,NOAA_HADS
9419800,LWVN2,DE95245C,VEF,NV,36.122222,-114.904167,36 07 20,114 54 15,LV WASH BLW LAKE LAS VEGAS NR BOULDER CITY NV,NOAA_HADS
9423000,CBDN2,DDF3674C,VEF,NV,35.191667,-114.571389,35 11 30,114 34 17,COLORADO RIVER BELOW DAVIS DAM AZ-NV,NOAA_HADS
10396000,DONO3,179263DE,BOI,OR,42.790833,-118.8675,42 47 27,118 52 03,DONNER UND BLITZEN RIVER NR FRENCHGLEN OR,NOAA_HADS
11491450,ICLO3,162B4304,MFR,OR,42.951667,-121.459056,42 57 06.0,121 27 32.6,IRVING CREEK NEAR LENZ OR,NOAA_HADS
11491470,JCLO3,DD56033C,MFR,OR,42.978361,-121.459361,42 58 42.1,121 27 33.7,JACKSON CREEK NEAR LENZ OR,NOAA_HADS
11491950,MBMO3,162B5EA0,MFR,OR,43.183333,-121.873556,43 11 00.00,121 52 24.80,MILLER CREEK NEAR BEAVER MARSH OR,NOAA_HADS
11492200,CTRO3,F002C268,MFR,OR,42.975833,-122.088056,42 58 33,122 05 17,CRATER LAKE NEAR CRATER LAKE OR,NOAA_HADS
11492550,KSCO3,162B861A,MFR,OR,42.870408,-121.848472,42 52 13.47,121 50 54.50,SAND CREEK BLW SAND CREEK CANAL NR CHINCHALO OR,NOAA_HADS
11493100,STSO3,DE6BD2A4,MFR,OR,42.887092,-121.872756,42 53 13.53,121 52 21.92,SCOTT CREEK BLW SAND CREEK CANAL NR CHINCHALO OR,NOAA_HADS
11493500,WKAO3,DD70C702,MFR,OR,42.739925,-121.834517,42 44 23.73,121 50 04.26,WILLIAMSON RIVER NEAR KLAMATH AGENCY OR,NOAA_HADS
11501000,CHSO3,DD9A6322,MFR,OR,42.584306,-121.848333,42 35 03.5,121 50 54.0,SPRAGUE RIVER NEAR CHILOQUIN OR,NOAA_HADS
11502500,WMSO3,DD7505DC,MFR,OR,42.564375,-121.879714,42 33 51.75,121 52 46.97,WILLIAMSON RIVER BLW SPRAGUE RIVER NR CHILOQUINOR,NOAA_HADS
11503000,ACLO3,1714A1B6,MFR,OR,42.871667,-122.167778,42 52 18,122 10 04,ANNIE SPRING NEAR CRATER LAKE OR,NOAA_HADS
11504115,WRKO3,169590CC,MFR,OR,42.581556,-121.941703,42 34 53.60,121 56 30.13,WOOD RIVER NEAR KLAMATH AGENCY OR,NOAA_HADS
11504260,FMCO3,DE67B6DE,MFR,OR,42.5745,-122.051361,42 34 28.2,122 03 04.9,FOURMILE CANAL NEAR KLAMATH AGENCY OR,NOAA_HADS
11504270,CRYO3,17D6E32C,MFR,OR,42.512694,-122.076139,42 30 45.7,122 04 34.1,CRYSTAL CREEK NEAR ROCKY POINT OR,NOAA_HADS
11504290,SKAO3,DF09F22C,MFR,OR,42.581667,-121.971389,42 34 54,121 58 17,SEVENMILE CNL AT DIKE RD BR NR KLAMATH AGENCY OR,NOAA_HADS
11504300,ALAO3,172F6170,MFR,OR,42.582075,-121.970675,42 34 55.47,121 58 14.43,AGENCY LAKE NEAR KLAMATH AGENCY OR,NOAA_HADS
11505900,RTLO3,DD973038,MFR,OR,42.348611,-121.826389,42 20 55,121 49 35,UPPER KLAMATH LAKE AT RATTLESNAKE POINT OR,NOAA_HADS
11507500,KLLO3,DD88A456,MFR,OR,42.223611,-121.793056,42 13 25,121 47 35,LINK RIVER AT KLAMATH FALLS OR,NOAA_HADS
11508700,KMIO3,1628E4F2,MFR,OR,42.146783,-121.848686,42 08 48.42,121 50 55.27,KLAMATH RIVER AT MILLER ISLAND NEAR MIDLAND OR,NOAA_HADS
11509200,ADYO3,3473E186,MFR,OR,42.080889,-121.844639,42 04 51.2,121 50 40.7,ADY CANAL AT HIGHWAY 97 NEAR WORDEN OR,NOAA_HADS
11509250,ACKO3,3420D750,MFR,OR,42.004167,-121.825833,42 00 15,121 49 33,ADY CANAL ABOVE LOWER KLAMATH NWR NEAR WORDEN OR,NOAA_HADS
11509340,KSDO3,F000C79C,MFR,OR,42.080953,-121.848322,42 04 51.43,121 50 53.96,KLAMATH STRAITS DRAIN NEAR WORDEN OR,NOAA_HADS
11509500,KEOO3,DD25D7F6,MFR,OR,42.133333,-121.961111,42 08 00,121 57 40,KLAMATH RIVER AT KENO OR,NOAA_HADS
11510700,BOYO3,DD268084,MFR,OR,42.084722,-122.072222,42 05 05,122 04 20,KLAMATH RIVER BLW JOHN C.BOYLE PWRPLNT NR KENOOR,NOAA_HADS
13181000,ROMO3,347EB29C,BOI,OR,42.866389,-117.649167,42 51 59,117 38 57,OWYHEE RIVER NR ROME OR,NOAA_HADS
13183000,OWYO3,347CF462,BOI,OR,43.654444,-117.255833,43 39 16,117 15 21,OWYHEE RIVER BELOW OWYHEE DAM OR,NOAA_HADS
13215000,WARO3,3484C74A,BOI,OR,43.574444,-118.209722,43 34 28,118 12 35,MALHEUR RIVER BEL WARMSPRINGS RES NR RIVERSIDE OR,NOAA_HADS
13217500,BEUO3,3484A2AC,BOI,OR,43.9075,-118.153333,43 54 27,118 09 12,NORTH FORK MALHEUR RIVER AT BEULAH OR,NOAA_HADS
13233300,VALO3,347EA1EA,BOI,OR,43.9875,-117.218889,43 59 15,117 13 08,MALHEUR RIVER BELOW NEVADA DAM NEAR VALE OR,NOAA_HADS
13331500,MNMO3,DD56104A,PDT,OR,45.62,-117.725556,45 37 12,117 43 32,MINAM RIVER AT MINAM OR,NOAA_HADS
13333000,TRYO3,175FC424,PDT,OR,45.945833,-117.45,45 56 45,117 27 00,GRANDE RONDE RIVER AT TROY OR,NOAA_HADS
14020000,GIBO3,DDD031D0,PDT,OR,45.719722,-118.322222,45 43 11,118 19 20,UMATILLA RIVER ABOVE MEACHAM CREEK NR GIBBON OR,NOAA_HADS
14020300,MCGO3,169CC6EC,PDT,OR,45.689125,-118.354447,45 41 20.85,118 21 16.01,MEACHAM CREEK AT GIBBON OR,NOAA_HADS
14020850,PDUO3,DDD04740,PDT,OR,45.671667,-118.735556,45 40 18,118 44 08,UMATILLA R AT W RESERVATION BNDY NR PENDLETON OR,NOAA_HADS
14033500,UMAO3,16E6F788,PDT,OR,45.902694,-119.327083,45 54 09.7,119 19 37.5,UMATILLA RIVER NEAR UMATILLA OR,NOAA_HADS
14034470,HWLO3,CE7B0A04,PDT,OR,45.340833,-119.514722,45 20 27,119 30 53,WILLOW CREEK ABV WILLOW CR LAKE NR HEPPNER OR,NOAA_HADS
14034480,BLMO3,CE36910E,PDT,OR,45.332222,-119.54,45 19 56,119 32 24,BALM FORK NEAR HEPPNER OR,NOAA_HADS
14036860,JBMO3,DD9705A2,PDT,OR,44.358056,-118.575,44 21 29,118 34 30,JOHN DAY R AT BLUE MTN HOT SPGS NR PRAIRIE CITYOR,NOAA_HADS
14038530,JHNO3,DDC561F2,PDT,OR,44.418611,-118.905278,44 25 07,118 54 19,JOHN DAY RIVER NEAR JOHN DAY OR,NOAA_HADS
14044000,RTRO3,DDC57284,PDT,OR,44.888889,-119.140278,44 53 20,119 08 25,MIDDLE FORK JOHN DAY RIVER AT RITTER OR,NOAA_HADS
14046000,MONO3,DD97234E,PDT,OR,44.814917,-119.432,44 48 53.7,119 25 55.2,NORTH FORK JOHN DAY RIVER AT MONUMENT OR,NOAA_HADS
14046500,SERO3,DDD4F1F4,PDT,OR,44.794014,-120.007019,44 47 38.45,120 00 25.27,JOHN DAY RIVER AT SERVICE CREEK OR,NOAA_HADS
14046778,BDGO3,DDD510FC,PDT,OR,44.726872,-120.301917,44 43 36.74,120 18 06.9,BRIDGE CR ABV COYOTE CANYON NR MITCHELL OR,NOAA_HADS
14048000,JDMO3,F0050542,PDT,OR,45.587778,-120.408333,45 35 16,120 24 30,JOHN DAY RIVER AT MCDONALD FERRY OR,NOAA_HADS
14076500,DECO3,D1002416,PDT,OR,44.498889,-121.32,44 29 56,121 19 12,DESCHUTES RIVER NEAR CULVER OR,NOAA_HADS
14087400,CROO3,D1003760,PDT,OR,44.4925,-121.297222,44 29 33,121 17 50,CROOKED RIVER BELOW OPAL SPRINGS NEAR CULVER OR,NOAA_HADS
14091500,METO3,DDC6850E,PDT,OR,44.626389,-121.482778,44 37 35,121 28 58,METOLIUS RIVER NEAR GRANDVIEW OR,NOAA_HADS
14092750,SHIO3,DD88B720,PDT,OR,44.750556,-121.632222,44 45 02,121 37 56,SHITIKE CRK AT PETERS PASTURE NR WARM SPRINGS OR,NOAA_HADS
14096850,BCQO3,DDC5A4EC,PDT,OR,44.958889,-121.393056,44 57 32,121 23 35,BEAVER CREEK BELOW QUARTZ CREEK NR SIMNASHO OR,NOAA_HADS
14097100,KAHO3,17B8C39A,PDT,OR,44.856667,-121.148611,44 51 24,121 08 55,WARM SPRINGS RIVER NEAR KAHNEETA HOT SPRINGS OR,NOAA_HADS
14102000,CRHO3,DDD6E776,PQR,OR,45.261028,-121.036361,45 15 39.7,121 02 10.9,DESCHUTES RIVER AT SHERARS BRIDGE OR,NOAA_HADS
14103000,MODO3,DD7207E8,PDT,OR,45.622222,-120.904444,45 37 20,120 54 16,DESCHUTES RIVER AT MOODY NEAR BIGGS OR,NOAA_HADS
14113200,MSRO3,16E85318,PDT,OR,45.649167,-121.376111,45 38 57,121 22 34,MOSIER CREEK NEAR MOSIER OR,NOAA_HADS
14120000,HODO3,DD9901CA,PQR,OR,45.6545,-121.5488,45 39 16.20,121 32 55.68,HOOD RIVER AT TUCKER BRIDGE NEAR HOOD RIVER OR,NOAA_HADS
14128870,BONO3,16F197C4,PQR,OR,45.633056,-121.960833,45 37 59,121 57 39,COLUMBIA RIVER BELOW BONNEVILLE DAM OR,NOAA_HADS
14137000,SRMO3,DD092700,PQR,OR,45.399722,-122.136111,45 23 59,122 08 10,SANDY RIVER NEAR MARMOT OR,NOAA_HADS
14138560,BRLO3,DDC5B79A,PQR,OR,45.461111,-121.842778,45 27 40,121 50 34,BULL RUN LAKE NEAR BRIGHTWOOD OR,NOAA_HADS
14138720,BFLO3,DDC666FC,PQR,OR,45.471111,-121.864167,45 28 16,121 51 51,BULL RUN RIVER AT LOWER FLUME NR BRIGHTWOOD OR,NOAA_HADS
14138800,BLZO3,DD9B22D2,PQR,OR,45.452778,-121.890278,45 27 10,121 53 25,BLAZED ALDER CREEK NEAR RHODODENDRON OR,NOAA_HADS
14138850,BMFO3,D113847E,PQR,OR,45.498333,-122.011111,45 29 54,122 00 40,BULL RUN RIVER NEAR MULTNOMAH FALLS OR,NOAA_HADS
14138870,FCBO3,D111F71A,PQR,OR,45.480278,-122.024444,45 28 49,122 01 28,FIR CREEK NEAR BRIGHTWOOD OR,NOAA_HADS
14138900,NBRO3,D111E46C,PQR,OR,45.494444,-122.034722,45 29 40,122 02 05,NORTH FORK BULL RUN RIVER NEAR MULTNOMAH FALLS OR,NOAA_HADS
14139000,BRVO3,175FE2C8,PQR,OR,45.482778,-122.082222,45 28 58,122 04 56,BULL RUN RESERVOIR NO 1 NEAR BULL RUN OR,NOAA_HADS
14139800,SBRO3,D111D1F6,PQR,OR,45.444722,-122.108333,45 26 41,122 06 30,SOUTH FORK BULL RUN RIVER NEAR BULL RUN OR,NOAA_HADS
14139900,BURO3,DD4031F6,PQR,OR,45.447778,-122.147778,45 26 52,122 08 52,BULL RUN RESERVOIR NO 2 NEAR BULL RUN OR,NOAA_HADS
14140000,RUNO3,D111B410,PQR,OR,45.4373,-122.179656,45 26 14.28,122 10 46.76,BULL RUN RIVER NEAR BULL RUN (RIVER ONLY) OR,NOAA_HADS
14141500,LSNO3,DD88C1B0,PQR,OR,45.415556,-122.170278,45 24 56,122 10 13,LITTLE SANDY RIVER NEAR BULL RUN OR,NOAA_HADS
14142500,SNDO3,DD9C3390,PQR,OR,45.449167,-122.243889,45 26 57,122 14 38,SANDY RIVER BLW BULL RUN RIVER NR BULL RUN OR,NOAA_HADS
14142800,KCPO3,DE02F026,PQR,OR,45.519444,-122.389278,45 31 10,122 23 21.4,BEAVER CREEK AT TROUTDALE OR,NOAA_HADS
14144800,MFOO3,CE71B8D8,PQR,OR,43.601944,-122.456389,43 36 07,122 27 23,MIDDLE FORK WILLAMETTE RIVER NR OAKRIDGE OR,NOAA_HADS
14145100,HCRO3,CE7AA6D4,PQR,OR,43.709575,-122.421111,43 42 34.47,122 25 16.00,HILLS CREEK LAKE NEAR OAKRIDGE OR,NOAA_HADS
14145500,MFSO3,CE80056A,PQR,OR,43.721111,-122.436667,43 43 16,122 26 12,MF WILLAMETTE RIVER ABV SALT CRK NEAR OAKRIDGEOR,NOAA_HADS
14147500,NMFO3,CE7A8038,PQR,OR,43.756944,-122.504167,43 45 25,122 30 15,N FK OF M FK WILLAMETTE R NR OAKRIDGE OR,NOAA_HADS
14148000,OAKO3,CE72BFD6,PQR,OR,43.801389,-122.559722,43 48 05,122 33 35,MF WILLAMETTE RIVER BLW N FORK NR OAKRIDGE OR.,NOAA_HADS
14149000,LOPO3,CE7A934E,PQR,OR,43.915156,-122.752281,43 54 54.56,122 45 08.21,LOOKOUT POINT LAKE NEAR LOWELL OR,NOAA_HADS
14150000,DEXO3,CE52AD4E,PQR,OR,43.945833,-122.836111,43 56 45,122 50 10,MIDDLE FORK WILLAMETTE RIVER NEAR DEXTER OR,NOAA_HADS
14150290,FNFO3,CE1511FA,PQR,OR,43.967222,-122.629722,43 58 02.00,122 37 47.00,FALL CREEK ABOVE NORTH FORK NEAR LOWELL OR,NOAA_HADS
14150800,WCLO3,CE8BA63A,PQR,OR,43.914444,-122.6875,43 54 52,122 41 15,WINBERRY CREEK NEAR LOWELLOR,NOAA_HADS
14151000,FABO3,CE747A06,PQR,OR,43.944444,-122.773611,43 56 40,122 46 25,FALL CREEK BLW WINBERRY CREEK NEAR FALL CREEK OR,NOAA_HADS
14152000,JASO3,CE7550C2,PQR,OR,43.998333,-122.904722,43 59 54,122 54 17,MIDDLE FORK WILLAMETTE RIVER AT JASPER OR,NOAA_HADS
14152500,LONO3,CE712DBA,PQR,OR,43.641667,-123.084722,43 38 30,123 05 05,COAST FORK WILLAMETTE AT LONDON OR,NOAA_HADS
14153500,COTO3,CE761A14,PQR,OR,43.720833,-123.048611,43 43 15,123 02 55,COAST FORK WILLAMETTE R BLW COTTAGE GROVE DAM OR,NOAA_HADS
14154500,DRRO3,DDCE92DE,PQR,OR,43.735278,-122.874444,43 44 07,122 52 28,ROW RIVER ABOVE PITCHER CREEK NEAR DORENA OR,NOAA_HADS
14155000,DORO3,CE794228,PQR,OR,43.786111,-122.954167,43 47 10,122 57 15,DORENA LAKE NEAR COTTAGE GROVE OR,NOAA_HADS
14157500,GOSO3,CE73284E,PQR,OR,43.980556,-122.965278,43 58 50,122 57 55,COAST FORK WILLAMETTE RIVER NEAR GOSHEN OR,NOAA_HADS
14158050,EUGO3,CE76215C,PQR,OR,44.0525,-123.082778,44 03 09,123 04 58,WILLAMETTE RIVER AT EUGENE OR,NOAA_HADS
14158100,WREO3,17355226,PQR,OR,44.091667,-123.116111,44 05 30,123 06 58,WILLAMETTE RIVER AT OWOSSO BRIDGE AT EUGENE OR,NOAA_HADS
14158500,MOCO3,DD5FF5E4,PQR,OR,44.361111,-121.994444,44 21 40,121 59 40,MCKENZIE RIVER AT OUTLET OF CLEAR LAKE OR,NOAA_HADS
14158740,MUSO3,DD596048,PQR,OR,44.286389,-122.036806,44 17 11.0,122 02 12.5,MCKENZIE RIVER BL PAYNE CR NR BELKNAP SPRINGS OR,NOAA_HADS
14158798,SUSO3,DD79A4B8,PQR,OR,44.289889,-122.048583,44 17 23.6,122 02 54.9,SMITH RIVER ABV TRAIL BRDG RESV NR BELKNAP SPRINGS,NOAA_HADS
14158850,TRBO3,DD600582,PQR,OR,44.268056,-122.048611,44 16 05,122 02 55,MCKENZIE R BLW TRAIL BR DAM NR BELKNAP SPRINGS OR,NOAA_HADS
14159110,CMRO3,DD2693F2,PQR,OR,44.166528,-122.255361,44 09 59.5,122 15 19.3,MCKENZIE RIVER ABOVE SOUTH FORK NEAR RAINBOW OR,NOAA_HADS
14159200,SFCO3,CE58A2CE,PQR,OR,44.047222,-122.216667,44 02 50,122 13 00,SO FK MCKENZIE RIVER ABV COUGAR LAKE NR RAINBOW OR,NOAA_HADS
14159500,CGRO3,CE76F9E6,PQR,OR,44.136111,-122.247222,44 08 10,122 14 50,SOUTH FORK MCKENZIE RIVER NEAR RAINBOW OR,NOAA_HADS
14161100,BRTO3,CE58AC1C,PQR,OR,44.218056,-122.263889,44 13 05,122 15 50,BLUE RIVER BELOW TIDBITS CREEK NR BLUE RIVER OR,NOAA_HADS
14161500,LOCO3,CE70E48C,PQR,OR,44.209722,-122.255556,44 12 35,122 15 20,LOOKOUT CREEK NEAR BLUE RIVER OR,NOAA_HADS
14162200,BLUO3,CE778D8C,PQR,OR,44.1625,-122.331944,44 09 45,122 19 55,BLUE RIVER AT BLUE RIVER OR,NOAA_HADS
14162500,VIDO3,CE73BD2C,PQR,OR,44.125,-122.469444,44 07 30,122 28 10,MCKENZIE RIVER NEAR VIDA OR,NOAA_HADS
14163000,GCVO3,DE66C2B4,PQR,OR,44.146086,-122.573033,44 08 45.91,122 34 22.92,GATE CREEK AT VIDA OR,NOAA_HADS
14163150,MKLO3,DE662146,PQR,OR,44.123889,-122.626389,44 07 26,122 37 35,MCKENZIE RIVER BLW LEABURG DAM NR LEABURG OR,NOAA_HADS
14164900,MRHO3,DDCC74D8,PQR,OR,44.071389,-122.963333,44 04 17,122 57 48,MCKENZIE RIVER ABV HAYDEN BR AT SPRINGFIELDOR,NOAA_HADS
14165000,SPRO3,DD74F7A2,PQR,OR,44.093056,-122.956111,44 05 35,122 57 22,MOHAWK RIVER NEAR SPRINGFIELD OR,NOAA_HADS
14165500,MRGO3,CE5298D4,PQR,OR,44.113056,-123.046972,44 06 47.0,123 02 49.1,MCKENZIE RIVER NEAR COBURG OR,NOAA_HADS
14166000,HARO3,CE762F8E,PQR,OR,44.270556,-123.1725,44 16 14,123 10 21,WILLAMETTE RIVER AT HARRISBURG OR,NOAA_HADS
14166500,NOTO3,CE728A4C,PQR,OR,44.05,-123.425,44 03 00,123 25 30,LONG TOM RIVER NEAR NOTI OR,NOAA_HADS
14169000,FRNO3,CE767120,PQR,OR,44.122611,-123.300306,44 07 21.4,123 18 01.1,LONG TOM RIVER NEAR ALVADORE OR,NOAA_HADS
14170000,MNRO3,CE734DA8,PQR,OR,44.312833,-123.296361,44 18 46.2,123 17 46.9,LONG TOM RIVER AT MONROE OR,NOAA_HADS
14171000,PHIO3,DD59733E,PQR,OR,44.525,-123.334,44 31 30.00,123 20 02.40,MARYS RIVER NEAR PHILOMATH OR,NOAA_HADS
14173500,CPAO3,162CC9F6,PQR,OR,44.620028,-123.128472,44 37 12.1,123 07 42.5,CALAPOOIA RIVER AT ALBANY OR,NOAA_HADS
14174000,ALBO3,CE76BAEC,PQR,OR,44.638889,-123.105556,44 38 20,123 06 20,WILLAMETTE RIVER AT ALBANY OR,NOAA_HADS
14178000,BCKO3,CE582A08,PQR,OR,44.706944,-122.1,44 42 25,122 06 00,NO SANTIAM R BLW BOULDER CRK NR DETROIT OR,NOAA_HADS
14179000,BRBO3,CE588422,PQR,OR,44.752778,-122.127778,44 45 10,122 07 40,BREITENBUSH R ABV FRENCH CR NR DETROIT OR.,NOAA_HADS
14180300,DEQO3,D10624D8,PQR,OR,44.653056,-122.129722,44 39 11,122 07 47,BLOWOUT CREEK NEAR DETROIT OR,NOAA_HADS
14180500,DETO3,CE78EEF8,PQR,OR,44.722061,-122.250058,44 43 19.42,122 15 00.21,DETROIT LAKE NEAR DETROIT OR,NOAA_HADS
14181500,BCLO3,CE779EFA,PQR,OR,44.753778,-122.297444,44 45 13.6,122 17 50.8,NORTH SANTIAM RIVER AT NIAGARA OR,NOAA_HADS
14181900,LNEO3,DD2594FC,PQR,OR,44.835803,-122.35495,44 50 08.89,122 21 17.82,LITTLE N SANTIAM RIVER ABV EVANS CR AT ELKHORNOR,NOAA_HADS
14183000,MEHO3,CE798736,PQR,OR,44.78925,-122.618806,44 47 21.3,122 37 07.7,NORTH SANTIAM RIVER AT MEHAMA OR,NOAA_HADS
14184100,NSGO3,DDC58200,PQR,OR,44.707944,-122.973111,44 42 28.6,122 58 23.2,NORTH SANTIAM R AT GREENS BRIDGE NR JEFFERSON OR,NOAA_HADS
14185800,MSCO3,CE589754,PQR,OR,44.515278,-122.370833,44 30 55,122 22 15,MIDDLE SANTIAM R NEAR CASCADIA OR,NOAA_HADS
14185900,QCCO3,CE736596,PQR,OR,44.540278,-122.434722,44 32 25,122 26 05,QUARTZVILLE CREEK NEAR CASCADIA OR,NOAA_HADS
14186200,MSGO3,CE5A44C8,PQR,OR,44.448333,-122.549167,44 26 54,122 32 57,MIDDLE SANTIAM R BLW GREEN PETER DAM NR FOSTER OR,NOAA_HADS
14186600,FOSO3,CE78663E,PQR,OR,44.414753,-122.670225,44 24 53.11,122 40 12.81,FOSTER LAKE AT FOSTER OR,NOAA_HADS
14187200,SSFO3,CE77AB60,PQR,OR,44.4125,-122.6875,44 24 45,122 41 15,SOUTH SANTIAM RIVER NEAR FOSTER OR,NOAA_HADS
14187500,WTLO3,CE75B330,PQR,OR,44.498611,-122.822222,44 29 55,122 49 20,SOUTH SANTIAM RIVER AT WATERLOO OR,NOAA_HADS
14188610,SLCO3,DD72F76C,PQR,OR,44.619722,-122.464722,44 37 11,122 27 53,SCHAFER CREEK NEAR LACOMB OR,NOAA_HADS
14188800,TRSO3,DD5493AA,PQR,OR,44.712222,-122.768889,44 42 44,122 46 08,THOMAS CREEK NEAR SCIO OR,NOAA_HADS
14189000,JFFO3,CE75762E,PQR,OR,44.714722,-123.01425,44 42 53.0,123 00 51.3,SANTIAM RIVER AT JEFFERSON OR,NOAA_HADS
14189050,JEFO3,DDF341A0,PQR,OR,44.738889,-123.048611,44 44 20,123 02 55,SANTIAM RIVER NEAR JEFFERSON OR,NOAA_HADS
14190500,SUVO3,CE72ACA0,PQR,OR,44.783333,-123.233333,44 47 00,123 14 00,LUCKIAMUTE RIVER NEAR SUVER OR,NOAA_HADS
14191000,SLMO3,CE77CE86,PQR,OR,44.944444,-123.041667,44 56 40,123 02 30,WILLAMETTE RIVER AT SALEM OR,NOAA_HADS
14198400,BLWO3,D1061142,PQR,OR,44.9609,-122.385,44 57 39.24,122 23 06.00,BULL CREEK NEAR WILHOIT OR,NOAA_HADS
14200000,CANO3,DD58F7D0,PQR,OR,45.243917,-122.687444,45 14 38.1,122 41 14.8,MOLALLA RIVER NEAR CANBY OR,NOAA_HADS
14201340,PUWO3,DDF046AE,PQR,OR,45.151389,-122.803056,45 09 05,122 48 11,PUDDING RIVER NEAR WOODBURN OR,NOAA_HADS
14201500,BUMO3,169BA13E,PQR,OR,45.101667,-122.745,45 06 06,122 44 42,BUTTE CREEK AT MONITOR OR,NOAA_HADS
14202000,AURO3,DD5480DC,PQR,OR,45.233278,-122.750917,45 13 59.8,122 45 03.3,PUDDING RIVER AT AURORA OR,NOAA_HADS
14203500,DLLO3,CE75C5A0,PQR,OR,45.475,-123.123056,45 28 30,123 07 23,TUALATIN RIVER NEAR DILLEY OR,NOAA_HADS
14205350,EFDO3,DDC6B094,PQR,OR,45.693856,-123.070019,45 41 37.88,123 04 12.07,EF DAIRY CR ABV MURTAUGH CR NR MEACHAM CORNER OR,NOAA_HADS
14206752,CKCO3,DF09E15A,PQR,OR,45.385417,-122.837056,45 23 07.5,122 50 13.4,CHICKEN CREEK ABV SEASONAL TRAIL NR SHERWOOD OR,NOAA_HADS
14206950,DURO3,F002A78E,PQR,OR,45.403611,-122.753611,45 24 13,122 45 13,FANNO CREEK AT DURHAM OR,NOAA_HADS
14207500,WSLO3,CE58DA8C,PQR,OR,45.350833,-122.675,45 21 03,122 40 30,TUALATIN RIVER AT WEST LINN OR,NOAA_HADS
14207740,OCUO3,CE735EDE,PQR,OR,45.348056,-122.620528,45 20 53.0,122 37 13.9,WILLAMETTE RIVER ABOVE FALLS AT OREGON CITY OR,NOAA_HADS
14207770,ORCO3,D10637AE,PQR,OR,45.357778,-122.609722,45 21 28,122 36 35,WILLAMETTE RIVER BELOW FALLS AT OREGON CITY OR,NOAA_HADS
14208700,OGCO3,DDC65366,PQR,OR,45.113889,-121.813889,45 06 50,121 48 50,OAK GROVE FORK NEAR GOVERNMENT CAMP OR,NOAA_HADS
14209000,OKPO3,DD891522,PQR,OR,45.071389,-121.939444,45 04 17,121 56 22,OAK GROVE FORK ABOVE POWERPLANT INTAKE OR.,NOAA_HADS
14209250,OGRO3,17144244,PQR,OR,45.079814,-122.042858,45 04 47.33,122 02 34.29,OAK GROVE FORK AT RIPPLEBROOK CAMPGROUND OR,NOAA_HADS
14209500,TLYO3,173A82DC,PQR,OR,45.125,-122.072222,45 07 30,122 04 20,CLACKAMAS RIVER ABOVE THREE LYNX CREEK OR,NOAA_HADS
14210000,ESTO3,DDF87792,PQR,OR,45.3,-122.352778,45 18 00,122 21 10,CLACKAMAS RIVER AT ESTACADA OR,NOAA_HADS
14211315,TYCO3,DDC69678,PQR,OR,45.430833,-122.6725,45 25 51,122 40 21,TRYON CREEK NEAR LAKE OSWEGO OR,NOAA_HADS
14211400,GREO3,1731A798,PQR,OR,45.486333,-122.421833,45 29 10.8,122 25 18.6,JOHNSON CREEK AT REGNER ROAD AT GRESHAM OR,NOAA_HADS
14211500,SYCO3,172E4566,PQR,OR,45.477456,-122.508019,45 28 38.84,122 30 28.87,JOHNSON CREEK AT SYCAMORE OR,NOAA_HADS
14211550,MIWO3,DDDDE4DE,PQR,OR,45.453056,-122.641944,45 27 11,122 38 31,JOHNSON CREEK AT MILWAUKIE OR,NOAA_HADS
14246900,CBAO3,DDE30534,PQR,OR,46.181389,-123.182222,46 10 53,123 10 56,COLUMBIA RIVER AT PORT WESTWARD NEAR QUINCY OR,NOAA_HADS
14299800,VENO3,DE52317A,PQR,OR,45.807222,-123.281944,45 48 26,123 16 55,NEHALEM RIVER NEAR VERNONIA OR,NOAA_HADS
14301000,FSSO3,16FE72A4,PQR,OR,45.704167,-123.754167,45 42 15,123 45 15,NEHALEM RIVER NEAR FOSS OR,NOAA_HADS
14301340,NRNO3,DE5AF0C2,PQR,OR,45.717833,-123.88975,45 43 04.2,123 53 23.1,NEHALEM RIVER AT NEHALEM OR,NOAA_HADS
14301500,TLMO3,DD67E444,PQR,OR,45.476111,-123.723889,45 28 34,123 43 26,WILSON RIVER NEAR TILLAMOOK OR,NOAA_HADS
14302020,WTSO3,DD408278,PQR,OR,45.477111,-123.807972,45 28 37.6,123 48 28.7,WILSON RIVER AT SOLLIE SMITH BR AT TILLAMOOK OR,NOAA_HADS
14302480,TRAO3,DDCAD4EE,PQR,OR,45.446389,-123.709167,45 26 47,123 42 33,TRASK RIVER ABOVE CEDAR CREEK NEAR TILLAMOOK OR,NOAA_HADS
14302900,DCSO3,169BC4D8,PQR,OR,45.310639,-123.413528,45 18 38.3,123 24 48.7,NESTUCCA RIVER NEAR FAIRDALE OR,NOAA_HADS
14303200,TUCO3,DD9F64E2,PQR,OR,45.324444,-123.545278,45 19 28,123 32 43,TUCCA CREEK NEAR BLAINE OR.,NOAA_HADS
14303600,BEAO3,DD25F11A,PQR,OR,45.266667,-123.845833,45 16 00,123 50 45,NESTUCCA RIVER NEAR BEAVER OR,NOAA_HADS
14305500,SILO3,DDDE9540,PQR,OR,44.715278,-123.886111,44 42 55,123 53 10,SILETZ RIVER AT SILETZ OR,NOAA_HADS
14306340,LOBO3,DD72149E,PQR,OR,44.248056,-123.635278,44 14 53,123 38 07,EAST FORK LOBSTER CREEK NEAR ALSEA OR.,NOAA_HADS
14307620,MPLO3,DD55F4B6,PQR,OR,44.0625,-123.881944,44 03 45,123 52 55,SIUSLAW RIVER NEAR MAPLETON OR,NOAA_HADS
14308000,TILO3,DD67F732,MFR,OR,42.930556,-122.947222,42 55 50,122 56 50,SOUTH UMPQUA RIVER AT TILLER OR,NOAA_HADS
14308990,COGO3,DE52549C,MFR,OR,42.823333,-123.124722,42 49 24,123 07 29,COW CREEK ABV GALESVILLE RES NR AZALEA OR.,NOAA_HADS
14308995,GSVO3,1730059A,MFR,OR,42.848889,-123.177778,42 50 56,123 10 40,GALESVILLE RESERVOIR NEAR AZALEA OR,NOAA_HADS
14309000,AZAO3,DD422774,MFR,OR,42.825,-123.177778,42 49 30,123 10 40,COW CREEK NEAR AZALEA OR,NOAA_HADS
14309500,GLNO3,DD98E0C2,MFR,OR,42.804167,-123.609722,42 48 15,123 36 35,WEST FORK COW CREEK NEAR GLENDALE OR,NOAA_HADS
14310000,RDLO3,1637CDC0,MFR,OR,42.923611,-123.427778,42 55 25,123 25 40,COW CREEK NEAR RIDDLE OR,NOAA_HADS
14312000,WSNO3,DD5EB414,MFR,OR,43.133333,-123.397222,43 08 00,123 23 50,SOUTH UMPQUA RIVER NEAR BROCKWAY OR,NOAA_HADS
14313200,MULO3,DD96E4AA,MFR,OR,43.324167,-122.195833,43 19 27,122 11 45,N.UMPQUA R ABV WHITE MULE CK NR TOKETEE FALLS OR,NOAA_HADS
14313700,NUWO3,DD96D130,MFR,OR,43.355,-122.250833,43 21 18,122 15 03,N.UMPQUA R BLW WARM SPRINGS CK NR TOKETEE FALLSOR,NOAA_HADS
14314500,CWRO3,DDA0C4F8,MFR,OR,43.244444,-122.286111,43 14 40,122 17 10,CLEARWATER RIVER ABV TRAP CK NR TOKETEE FALLS OR,NOAA_HADS
14314700,CRMO3,DD96F7DC,MFR,OR,43.251111,-122.337222,43 15 04,122 20 14,CLEARWATER R BLW MOWICH CREEK NR TOKETEE FALLSOR,NOAA_HADS
14315500,TKTO3,DD88F42A,MFR,OR,43.263889,-122.420556,43 15 50,122 25 14,NORTH UMPQUA RIVER AT TOKETEE FALLS OR,NOAA_HADS
14315700,NUSO3,DD8CD7FC,MFR,OR,43.276417,-122.449972,43 16 35.1,122 26 59.9,N.UMPQUA R BLW SLIDE CK DAM NR TOKETEE FALLS OR,NOAA_HADS
14315950,FHCO3,DD890654,MFR,OR,43.211389,-122.426389,43 12 41,122 25 35,FISH CREEK ABV SLIPPER CREEK NR TOKETEE FALLS OR,NOAA_HADS
14316455,SSPO3,DDA0B268,MFR,OR,43.303889,-122.497778,43 18 14,122 29 52,N.UMPQUA R BLW SODA SPGS RESV NR TOKETEE FALLSOR,NOAA_HADS
14316460,NUTO3,17B8E576,MFR,OR,43.306111,-122.511667,43 18 22,122 30 42,NORTH UMPQUA R AT SODA SPGS NR TOKETEE FALLS OR,NOAA_HADS
14316495,BODO3,DD59A556,MFR,OR,43.303611,-122.529167,43 18 13,122 31 45,BOULDER CREEK NEAR TOKETEE FALLS OR,NOAA_HADS
14316500,NUMO3,162E57B2,MFR,OR,43.296111,-122.535556,43 17 46,122 32 08,N UMPQUA RIVER ABV COPELAND CK NR TOKETEE FALLSOR,NOAA_HADS
14316700,SCRO3,DD9B72AE,MFR,OR,43.35,-122.727778,43 21 00,122 43 40,STEAMBOAT CREEK NEAR GLIDE OR,NOAA_HADS
14318000,LRPO3,D111C280,MFR,OR,43.252778,-123.025,43 15 10,123 01 30,LITTLE RIVER AT PEEL OR,NOAA_HADS
14319500,WNRO3,DD680124,MFR,OR,43.270967,-123.411544,43 16 15.48,123 24 41.56,NORTH UMPQUA RIVER AT WINCHESTER OR,NOAA_HADS
14321000,EKTO3,DD5EC284,MFR,OR,43.586111,-123.554167,43 35 10,123 33 15,UMPQUA RIVER NEAR ELKTON OR,NOAA_HADS
14325000,POWO3,DD5955D2,MFR,OR,42.891667,-124.069444,42 53 30,124 04 10,SOUTH FORK COQUILLE RIVER AT POWERS OR,NOAA_HADS
14326510,MYPO3,1735025A,MFR,OR,43.065833,-124.145833,43 03 57,124 08 45,SF COQUILLE RIVER AT MYRTLE POINT OR,NOAA_HADS
14327000,MYNO3,1694445E,MFR,OR,43.068178,-124.107844,43 04 05.44,124 06 28.24,N FK COQUILLE R NR MYRTLE POINT OR,NOAA_HADS
14327055,COQO3,16952342,MFR,OR,43.157942,-124.181794,43 09 28.59,124 10 54.46,COQUILLE RIVER AT COQUILLE OR,NOAA_HADS
14332000,SRPO3,DDDE1354,MFR,OR,42.706389,-122.388611,42 42 23,122 23 19,SOUTH FORK ROGUE RIVER NEAR PROSPECT OR,NOAA_HADS
14335040,LOSO3,CE806E5E,MFR,OR,42.671111,-122.673611,42 40 16,122 40 25,LOST CREEK LAKE NEAR MCLEOD OR,NOAA_HADS
14335072,RFHO3,CE730EA2,MFR,OR,42.665833,-122.686389,42 39 57,122 41 11,ROGUE R AT COLE M RIVERS F HATCHERY NR MCLEOD OR,NOAA_HADS
14337500,MLBO3,CE807D28,MFR,OR,42.651389,-122.690278,42 39 05,122 41 25,BIG BUTTE CREEK NEAR MCLEOD OR,NOAA_HADS
14337600,MCLO3,CE8073FA,MFR,OR,42.655556,-122.713889,42 39 20,122 42 50,ROGUE RIVER NEAR MCLEOD OR,NOAA_HADS
14338000,ELKO3,DD9716D4,MFR,OR,42.678889,-122.740833,42 40 44,122 44 27,ELK CREEK NEAR TRAIL OR,NOAA_HADS
14339000,EGLO3,CE805BC4,MFR,OR,42.525,-122.841667,42 31 30,122 50 30,ROGUE RIVER AT DODGE BRIDGE NEAR EAGLE POINT OR,NOAA_HADS
14353000,ASCO3,DD5CE19C,MFR,OR,42.148889,-122.715556,42 08 56,122 42 56,WEST FORK ASHLAND CREEK NEAR ASHLAND OR,NOAA_HADS
14353500,EFAO3,DD5CF2EA,MFR,OR,42.152778,-122.708333,42 09 10,122 42 30,EAST FORK ASHLAND CREEK NEAR ASHLAND OR,NOAA_HADS
14354200,BCAO3,34840254,MFR,OR,42.2185,-122.724806,42 13 06.6,122 43 29.3,BEAR CREEK BELOW ASHLAND CREEK AT ASHLAND OR,NOAA_HADS
14357500,MFDO3,3483F0E4,MFR,OR,42.324167,-122.865556,42 19 27,122 51 56,BEAR CREEK AT MEDFORD OR,NOAA_HADS
14359000,RYGO3,DE5247EA,MFR,OR,42.4375,-122.986111,42 26 15,122 59 10,ROGUE RIVER AT RAYGOLD NEAR CENTRAL POINT OR,NOAA_HADS
14361500,GRAO3,CE80608C,MFR,OR,42.430556,-123.316667,42 25 50,123 19 00,ROGUE RIVER AT GRANTS PASS OR,NOAA_HADS
14361900,APLO3,CE803E22,MFR,OR,42.056944,-123.108333,42 03 25,123 06 30,APPLEGATE LAKE NEAR COPPER OR.,NOAA_HADS
14362000,APPO3,CE804660,MFR,OR,42.063889,-123.110278,42 03 50,123 06 37,APPLEGATE RIVER NEAR COPPER OR,NOAA_HADS
14362250,SGRO3,DDCB951E,MFR,OR,42.154167,-123.074167,42 09 15,123 04 27,STAR GULCH NEAR RUCH OR,NOAA_HADS
14366000,APRO3,CE8048B2,MFR,OR,42.241667,-123.138889,42 14 30,123 08 20,APPLEGATE RIVER NEAR APPLEGATE OR,NOAA_HADS
14369500,ARWO3,CE805516,MFR,OR,42.354167,-123.405556,42 21 15,123 24 20,APPLEGATE RIVER NEAR WILDERVILLE OR,NOAA_HADS
14372300,AGNO3,DDF44394,MFR,OR,42.592778,-124.062,42 35 34,124 03 43.2,ROGUE RIVER NEAR AGNESS OR,NOAA_HADS
14377100,KRBO3,DD70D474,MFR,OR,42.231944,-123.6625,42 13 55,123 39 45,ILLINOIS RIVER NEAR KERBY OR,NOAA_HADS
14378200,AGSO3,DE67C04E,MFR,OR,42.544878,-124.051914,42 32 41.56,124 03 06.89,ILLINOIS RIVER NEAR AGNESS OR,NOAA_HADS
14378430,RRHO3,1695733E,MFR,OR,42.428889,-124.412222,42 25 44,124 24 44,ROGUE RIVER AT HWY 101 BRIDGE AT WEDDERBURN OR,NOAA_HADS
14400000,CHTO3,DDD5038A,MFR,OR,42.123611,-124.186111,42 07 25,124 11 10,CHETCO RIVER NEAR BROOKINGS OR,NOAA_HADS
450805118561100,UKIO3,162B769E,PDT,OR,45.134722,-118.936389,45 08 05,118 56 11,UKIAH P. AT UKIAH OR,NOAA_HADS
453630122021400,WRNO3,CE7FBCB0,PQR,OR,45.608333,-122.037222,45 36 30,122 02 14,COLUMBIA RIVER LEFT BANK NEAR DODSON OR,NOAA_HADS
454519118025800,SPSO3,17369036,PDT,OR,45.755278,-118.049444,45 45 19,118 02 58,SPOUT SPRINGS P. NR TOLLGATE OR,NOAA_HADS
12010000,NASW1,DDF33730,PQR,WA,46.374167,-123.742222,46 22 27,123 44 32,NASELLE RIVER NEAR NASELLE WA,NOAA_HADS
12013500,WILW1,DDE0D452,PQR,WA,46.651111,-123.651389,46 39 04,123 39 05,WILLAPA RIVER NEAR WILLAPA WA,NOAA_HADS
12020000,DOTW1,DD9942C0,SEW,WA,46.6175,-123.276389,46 37 03,123 16 35,CHEHALIS RIVER NEAR DOTY WA,NOAA_HADS
12020525,ELCW1,1735E1A8,SEW,WA,46.634722,-123.295556,46 38 05,123 17 44,ELK CREEK BELOW DEER CREEK NEAR DOTY WA,NOAA_HADS
12020800,SCWW1,DD1C87A6,SEW,WA,46.445,-123.0825,46 26 42,123 04 57,SOUTH FORK CHEHALIS RIVER NEAR WILDWOOD WA,NOAA_HADS
12021800,ADNW1,DE595734,SEW,WA,46.625833,-123.100556,46 37 33,123 06 02,CHEHALIS RIVER NEAR ADNA WA,NOAA_HADS
12024000,SFNW1,DE63C574,SEW,WA,46.575833,-122.683889,46 34 33,122 41 02,SOUTH FORK NEWAUKUM RIVER NEAR ONALASKA WA,NOAA_HADS
12024400,NFFW1,178770F6,SEW,WA,46.6675,-122.768889,46 40 03,122 46 08,NF NEWAUKUM RIVER ABOVE BEAR CREEK NEAR FOREST WA,NOAA_HADS
12025000,NEWW1,DDFA548A,SEW,WA,46.620278,-122.943889,46 37 13,122 56 38,NEWAUKUM RIVER NEAR CHEHALIS WA,NOAA_HADS
12025100,CRWW1,17D9932E,SEW,WA,46.661111,-122.982778,46 39 40,122 58 58,CHEHALIS RIVER AT WWTP AT CHEHALIS WA,NOAA_HADS
12025700,VALW1,178CD3A6,SEW,WA,46.772778,-122.592778,46 46 22,122 35 34,SKOOKUMCHUCK RIVER NEAR VAIL WA,NOAA_HADS
12026150,SKMW1,DD6FF394,SEW,WA,46.790278,-122.734167,46 47 25,122 44 03,SKOOKUMCHUCK RIVER BL BLDY RUN CR NR CENTRALIA WA,NOAA_HADS
12026400,BCDW1,DDFA6110,SEW,WA,46.772222,-122.923056,46 46 20,122 55 23,SKOOKUMCHUCK RIVER NEAR BUCODA WA,NOAA_HADS
12027500,CGMW1,DD0901EC,SEW,WA,46.776111,-123.034444,46 46 34,123 02 04,CHEHALIS RIVER NEAR GRAND MOUND WA,NOAA_HADS
12028060,CROW1,DDCAC798,SEW,WA,46.806944,-123.118889,46 48 25,123 07 08,CHEHALIS RIVER NEAR ROCHESTER WA,NOAA_HADS
12031000,CRPW1,173714D8,SEW,WA,46.939444,-123.313056,46 56 22,123 18 47,CHEHALIS RIVER AT PORTER WA,NOAA_HADS
12035000,SATW1,17D9C352,SEW,WA,47.000833,-123.493611,47 00 03,123 29 37,SATSOP RIVER NEAR SATSOP WA,NOAA_HADS
12035100,CMTW1,16CB301E,SEW,WA,46.9625,-123.603333,46 57 45,123 36 12,CHEHALIS RIVER NEAR MONTESANO WA,NOAA_HADS
12035400,WYNW1,F001E38A,SEW,WA,47.380556,-123.608611,47 22 50,123 36 31,WYNOOCHEE RIVER NEAR GRISDALE WA,NOAA_HADS
12035450,BIGW1,16F5079C,SEW,WA,47.374444,-123.635556,47 22 28,123 38 08,BIG CREEK NEAR GRISDALE WA,NOAA_HADS
12036000,WYAW1,F001F0FC,SEW,WA,47.299167,-123.651944,47 17 57,123 39 07,WYNOOCHEE RIVER ABOVE SAVE CREEK NEAR ABERDEEN WA,NOAA_HADS
12037400,MNSW1,F0020776,SEW,WA,47.011667,-123.654167,47 00 42,123 39 15,WYNOOCHEE RIVER ABOVE BLACK CREEK NR MONTESANO WA,NOAA_HADS
12039005,HMRW1,DD6FD578,SEW,WA,47.231667,-123.972778,47 13 54,123 58 22,HUMPTULIPS RIVER BELOW HWY 101 NR HUMPTULIPS WA,NOAA_HADS
12039500,QLTW1,166AB2A6,SEW,WA,47.457778,-123.888056,47 27 28,123 53 17,QUINAULT RIVER AT QUINAULT LAKE WA,NOAA_HADS
1203951610,QTHW1,163EFE06,SEW,WA,47.357778,-124.184444,47 21 28,124 11 04,QUINAULT RIVER NEAR TAHOLAH WA,NOAA_HADS
12040500,QUEW1,DD620076,SEW,WA,47.538056,-124.314444,47 32 17,124 18 52,QUEETS RIVER NEAR CLEARWATER WA,NOAA_HADS
12041200,HORW1,DD8C2778,SEW,WA,47.806944,-124.249722,47 48 25,124 14 59,HOH RIVER AT US HIGHWAY 101 NEAR FORKS WA,NOAA_HADS
12042800,BGFW1,DE63D602,SEW,WA,47.894419,-124.357089,47 53 39.91,124 21 25.52,BOGACHIEL RIVER NEAR FORKS WA,NOAA_HADS
12043000,CALW1,DD61F7FC,SEW,WA,47.960278,-124.391667,47 57 37,124 23 30,CALAWAH RIVER NEAR FORKS WA,NOAA_HADS
12043015,BOGW1,DE63B3E4,SEW,WA,47.903056,-124.544167,47 54 11,124 32 39,BOGACHIEL RIVER NEAR LA PUSH WA,NOAA_HADS
12043300,HOKW1,DDD40170,SEW,WA,48.241667,-124.3825,48 14 30,124 22 57,HOKO RIVER NEAR SEKIU WA,NOAA_HADS
12045500,ELWW1,1794568A,SEW,WA,48.055,-123.581944,48 03 18,123 34 55,ELWHA RIVER AT MCDONALD BR NEAR PORT ANGELES WA,NOAA_HADS
12048000,DRSW1,DDCED1D4,SEW,WA,48.014444,-123.131389,48 00 52,123 07 53,DUNGENESS RIVER NEAR SEQUIM WA,NOAA_HADS
12052210,BQCW1,16E7D39E,SEW,WA,47.784722,-122.978333,47 47 05,122 58 42,BIG QUILCENE RIVER BELOW DIVERSION NR QUILCENE WA,NOAA_HADS
12054000,DKBW1,17BE153C,SEW,WA,47.684167,-123.010278,47 41 03,123 00 37,DUCKABUSH RIVER NEAR BRINNON WA,NOAA_HADS
12056500,SKOW1,15E35C84,SEW,WA,47.514444,-123.328611,47 30 52,123 19 43,NF SKOKOMISH R BL STAIRCASE RPDS NR HOODSPORT WA,NOAA_HADS
12058790,SKBW1,D10BF1D6,SEW,WA,47.396667,-123.202222,47 23 48,123 12 08,NF SKOKOMISH R NR LWR CUSHMAN DAM NR POTLATCH WA,NOAA_HADS
12059500,NSPW1,DE6474CE,SEW,WA,47.33,-123.241944,47 19 48,123 14 31,NORTH FORK SKOKOMISH RIVER NEAR POTLATCH WA,NOAA_HADS
12060500,SSUW1,17233090,SEW,WA,47.340556,-123.278889,47 20 26,123 16 44,SOUTH FORK SKOKOMISH RIVER NEAR UNION WA,NOAA_HADS
12061500,SRPW1,DE645222,SEW,WA,47.31,-123.175833,47 18 36,123 10 33,SKOKOMISH RIVER NEAR POTLATCH WA,NOAA_HADS
12073500,HUGW1,DD8A015A,SEW,WA,47.389444,-122.697778,47 23 22,122 41 52,HUGE CREEK NEAR WAUNA WA,NOAA_HADS
12076800,GBCW1,DDC8A78A,SEW,WA,47.211944,-123.111667,47 12 43,123 06 42,GOLDSBOROUGH CREEK ABOVE 7TH STREET AT SHELTON WA,NOAA_HADS
12079000,DSRW1,DDF6837E,SEW,WA,46.852222,-122.6675,46 51 08,122 40 03,DESCHUTES RIVER NEAR RAINIER WA,NOAA_HADS
12080010,DSEW1,17C16092,SEW,WA,47.011944,-122.901944,47 00 43,122 54 07,DESCHUTES RIVER AT E ST BRIDGE AT TUMWATER WA,NOAA_HADS
12082500,NISW1,17893794,SEW,WA,46.752778,-122.0825,46 45 10,122 04 57,NISQUALLY RIVER NEAR NATIONAL WA,NOAA_HADS
12083000,MCMW1,DD0B3182,SEW,WA,46.744444,-122.143333,46 44 40,122 08 36,MINERAL CREEK NEAR MINERAL WA,NOAA_HADS
12086000,NLGW1,D10D12EA,SEW,WA,46.822778,-122.303056,46 49 22,122 18 11,NISQUALLY RIVER AT LA GRANDE DAM WA,NOAA_HADS
12086500,LGRW1,DD75D3B4,SEW,WA,46.839444,-122.328056,46 50 22,122 19 41,NISQUALLY RIVER AT LA GRANDE WA,NOAA_HADS
12087000,MLGW1,DDFA7266,SEW,WA,46.856944,-122.301389,46 51 25,122 18 05,MASHEL RIVER NEAR LA GRANDE WA,NOAA_HADS
12088000,OHCW1,16E88570,SEW,WA,46.881111,-122.277778,46 52 52,122 16 40,OHOP CREEK NEAR EATONVILLE WA,NOAA_HADS
12089208,CPCW1,DE56B254,SEW,WA,46.900278,-122.497222,46 54 01,122 29 50,CENTRALIA POWER CANAL NEAR MCKENNA WA,NOAA_HADS
12089500,MKNW1,DDEF7238,SEW,WA,46.933611,-122.559722,46 56 01,122 33 35,NISQUALLY RIVER AT MCKENNA WA,NOAA_HADS
12090400,CCKW1,173537C0,SEW,WA,47.134722,-122.413889,47 08 05,122 24 50,NORTH FORK CLOVER CREEK NEAR PARKLAND WA,NOAA_HADS
12091200,LEHW1,165E37F8,SEW,WA,47.221667,-122.508056,47 13 18,122 30 29,LEACH CREEK NEAR FIRCREST WA,NOAA_HADS
12091290,LSTW1,DD2DE6CA,SEW,WA,47.198611,-122.519722,47 11 55,122 31 11,LEACH CR AT MEADOW PARK GC AT UNIVERSITY PLACE WA,NOAA_HADS
12092000,ELEW1,DD8AF1DE,SEW,WA,46.903889,-122.033889,46 54 14,122 02 02,PUYALLUP RIVER NEAR ELECTRON WA,NOAA_HADS
12093500,ORTW1,DE90E682,SEW,WA,47.039444,-122.206667,47 02 22,122 12 24,PUYALLUP RIVER NEAR ORTING WA,NOAA_HADS
12094000,FFXW1,17891178,SEW,WA,47.028056,-122.031389,47 01 41,122 01 53,CARBON RIVER NEAR FAIRFAX WA,NOAA_HADS
12095000,SPEW1,17B88090,SEW,WA,47.139722,-122.091389,47 08 23,122 05 29,SOUTH PRAIRIE CREEK AT SOUTH PRAIRIE WA,NOAA_HADS
12096500,ALDW1,DDF76276,SEW,WA,47.185278,-122.228333,47 11 07,122 13 42,PUYALLUP RIVER AT ALDERTON WA,NOAA_HADS
12096505,PMNW1,DD3AD6FA,SEW,WA,47.196944,-122.249722,47 11 49,122 14 59,PUYALLUP RIVER AT E MAIN BRIDGE AT PUYALLUP WA,NOAA_HADS
12096865,HBCW1,DD26B51E,SEW,WA,47.060556,-121.604444,47 03 38,121 36 16,HUCKLEBERRY CREEK NEAR GREENWATER WA,NOAA_HADS
12097500,GRNW1,17BED022,SEW,WA,47.153611,-121.634444,47 09 13,121 38 04,GREENWATER RIVER AT GREENWATER WA,NOAA_HADS
12097820,CLWW1,DE63F0EE,SEW,WA,47.1275,-121.801389,47 07 39,121 48 05,CLEARWATER RIVER NEAR BUCKLEY WA,NOAA_HADS
12097850,MMIW1,DE535666,SEW,WA,47.146944,-121.858889,47 08 49,121 51 32,WHITE RIVER BELOW CLEARWATER RIVER NR BUCKLEY WA,NOAA_HADS
12098500,MMDW1,DDC5C10A,SEW,WA,47.151389,-121.948611,47 09 05,121 56 55,WHITE RIVER NEAR BUCKLEY WA,NOAA_HADS
12098920,WRCW1,171AE6D4,SEW,WA,47.169722,-122.010833,47 10 11,122 00 39,WHITE RIVER FLUME AT BUCKLEY WA,NOAA_HADS
12099200,WBCW1,17360554,SEW,WA,47.173889,-122.008056,47 10 26,122 00 29,WHITE RIVER ABOVE BOISE CREEK AT BUCKLEY WA,NOAA_HADS
12100490,WRAW1,1682E3F6,SEW,WA,47.275,-122.206667,47 16 30,122 12 24,WHITE RIVER AT R STREET NEAR AUBURN WA,NOAA_HADS
12100494,WRPW1,DE644154,SEW,WA,47.271389,-122.218889,47 16 17,122 13 08,WHITE RIVER AT ROEGNER PARK NEAR AUBURN WA,NOAA_HADS
12100496,WABW1,17388728,SEW,WA,47.266111,-122.228611,47 15 58,122 13 43,WHITE RIVER NEAR AUBURN WA,NOAA_HADS
12100498,WPCW1,DE6437C4,SEW,WA,47.260278,-122.237222,47 15 37,122 14 14,WHITE RIVER AT PACIFIC WA,NOAA_HADS
12100500,WSTW1,DE6424B2,SEW,WA,47.250278,-122.2425,47 15 01,122 14 33,WHITE RIVER NEAR SUMNER WA,NOAA_HADS
12101000,TADW1,173A17BE,SEW,WA,47.241111,-122.190556,47 14 28,122 11 26,LAKE TAPPS NEAR SUMNER WA,NOAA_HADS
12101100,LTDW1,1736A5AC,SEW,WA,47.238333,-122.226944,47 14 18,122 13 37,LAKE TAPPS DIVERSION AT DIERINGER WA,NOAA_HADS
12101102,WRDW1,DE64025E,SEW,WA,47.235556,-122.236111,47 14 08,122 14 10,WHITE RIVER AT 24TH ST E AT DIERINGER WA,NOAA_HADS
12101470,PFSW1,170EF706,SEW,WA,47.198889,-122.286111,47 11 56,122 17 10,PUYALLUP RIVER AT 5TH ST BRIDGE AT PUYALLUP WA,NOAA_HADS
12101500,PUYW1,DD9B822A,SEW,WA,47.208611,-122.325833,47 12 31,122 19 33,PUYALLUP RIVER AT PUYALLUP WA,NOAA_HADS
12102078,CKCW1,DE65353E,SEW,WA,47.201111,-122.340556,47 12 04,122 20 26,CLARKS CREEK AT STEWART AVENUE NEAR PUYALLUP WA,NOAA_HADS
12105800,HHDW1,CE11C2A8,SEW,WA,47.277222,-121.784167,47 16 38,121 47 03,HOWARD A HANSON RESERVOIR NEAR PALMER WA,NOAA_HADS
12106700,GPUW1,179085D8,SEW,WA,47.305278,-121.849444,47 18 19,121 50 58,GREEN RIVER AT PURIFICATION PLANT NEAR PALMER WA,NOAA_HADS
12112600,BSKW1,DDCEF738,SEW,WA,47.3125,-122.164167,47 18 45,122 09 51,BIG SOOS CREEK ABOVE HATCHERY NEAR AUBURN WA,NOAA_HADS
12113000,AUBW1,DDD83576,SEW,WA,47.3125,-122.202778,47 18 45,122 12 10,GREEN RIVER NEAR AUBURN WA,NOAA_HADS
12113344,GRKW1,DE5FC298,SEW,WA,47.423056,-122.264167,47 25 23,122 15 51,GREEN RIVER AT 200TH STREET AT KENT WA,NOAA_HADS
12113346,SBKW1,17B9826A,SEW,WA,47.431389,-122.226389,47 25 53,122 13 35,SPRINGBROOK CREEK AT ORILLIA WA,NOAA_HADS
12113347,MKEW1,17B7B398,SEW,WA,47.383333,-122.223611,47 23 00,122 13 25,MILL CREEK AT EARTHWORKS PARK AT KENT WA,NOAA_HADS
12113349,MCOW1,17B9D216,SEW,WA,47.430278,-122.241944,47 25 49,122 14 31,MILL CREEK NEAR MOUTH AT ORILLIA WA,NOAA_HADS
12113350,TUKW1,DD0C155A,SEW,WA,47.465278,-122.247222,47 27 55,122 14 50,GREEN RIVER AT TUKWILA WA,NOAA_HADS
12113390,DWTW1,DD2656EC,SEW,WA,47.478986,-122.258733,47 28 44.35,122 15 31.44,DUWAMISH RIVER AT GOLF COURSE AT TUKWILA WA,NOAA_HADS
12113415,DWDW1,DD26459A,SEW,WA,47.500506,-122.288142,47 30 01.82,122 17 17.31,DUWAMISH R AT E MARGINAL WAY BR AT DUWAMISH WA,NOAA_HADS
12114500,CBCW1,DDCF0546,SEW,WA,47.342222,-121.547778,47 20 32,121 32 52,CEDAR RIVER BELOW BEAR CREEK NEAR CEDAR FALLS WA,NOAA_HADS
12115000,CRRW1,DDCF1630,SEW,WA,47.370278,-121.623889,47 22 13,121 37 26,CEDAR RIVER NEAR CEDAR FALLS WA,NOAA_HADS
12115500,REXW1,DDCF23AA,SEW,WA,47.350833,-121.661944,47 21 03,121 39 43,REX RIVER NEAR CEDAR FALLS WA,NOAA_HADS
12115700,BLCW1,DD3AF016,SEW,WA,47.366389,-121.691667,47 21 59,121 41 30,BOULDER CREEK NEAR CEDAR FALLS WA,NOAA_HADS
12115900,CWXW1,172D6484,SEW,WA,47.409444,-121.722778,47 24 34,121 43 22,CHESTER MORSE LAKE AT CEDAR FALLS WA,NOAA_HADS
12116400,CDVW1,DD26207C,SEW,WA,47.418889,-121.780278,47 25 08,121 46 49,CEDAR RIVER AT POWERPLANT AT CEDAR FALLS WA,NOAA_HADS
12116500,CDRW1,DD75C0C2,SEW,WA,47.417222,-121.790833,47 25 02,121 47 27,CEDAR RIVER AT CEDAR FALLS WA,NOAA_HADS
12117000,TAYW1,DDCF30DC,SEW,WA,47.386667,-121.845,47 23 12,121 50 42,TAYLOR CREEK NEAR SELLECK WA,NOAA_HADS
12117500,LNDW1,DE955C1E,SEW,WA,47.393889,-121.953333,47 23 38,121 57 12,CEDAR RIVER NEAR LANDSBURG WA,NOAA_HADS
12117600,CDPW1,DD75E62E,SEW,WA,47.379722,-121.982222,47 22 47,121 58 56,CEDAR RIVER BELOW DIVERSION NEAR LANDSBURG WA,NOAA_HADS
12118400,RCCW1,DD26330A,SEW,WA,47.3625,-122.009722,47 21 45,122 00 35,ROCK CREEK AT HIGHWAY 516 NEAR RAVENSDALE WA,NOAA_HADS
12119000,RNTW1,17D9A6B4,SEW,WA,47.482778,-122.202222,47 28 58,122 12 08,CEDAR RIVER AT RENTON WA,NOAA_HADS
12120600,ISQW1,DDD843E6,SEW,WA,47.4575,-122.003889,47 27 27,122 00 14,ISSAQUAH CREEK NEAR HOBART WA,NOAA_HADS
12121600,ISSW1,DDCF464C,SEW,WA,47.5525,-122.046667,47 33 09,122 02 48,ISSAQUAH CREEK NEAR MOUTH NEAR ISSAQUAH WA,NOAA_HADS
12122000,SMLW1,F007352C,SEW,WA,47.576667,-122.11,47 34 36,122 06 36,SAMMAMISH LAKE NEAR REDMOND WA,NOAA_HADS
12131500,SSSW1,DDEF82BC,SEW,WA,47.711042,-121.360733,47 42 39.75,121 21 38.64,SOUTH FORK SKYKOMISH RIVER AT SKYKOMISH WA,NOAA_HADS
12134500,GLBW1,DDD41206,SEW,WA,47.8375,-121.665556,47 50 15,121 39 56,SKYKOMISH RIVER NEAR GOLD BAR WA,NOAA_HADS
12135000,WLCW1,DE02264E,SEW,WA,47.864167,-121.681389,47 51 51,121 40 53,WALLACE RIVER AT GOLD BAR WA,NOAA_HADS
12137290,SULW1,162EF998,SEW,WA,47.9475,-121.625556,47 56 51,121 37 32,SOUTH FORK SULTAN RIVER NEAR SULTAN WA,NOAA_HADS
12137800,SLNW1,DDF55CCA,SEW,WA,47.959444,-121.796111,47 57 34,121 47 46,SULTAN RIVER BELOW DIVERSION DAM NEAR SULTAN WA,NOAA_HADS
12138160,SLTW1,DDF3FCFC,SEW,WA,47.9075,-121.814167,47 54 27,121 48 51,SULTAN RIVER BELOW POWERPLANT NEAR SULTAN WA,NOAA_HADS
12141300,TANW1,DD8A122C,SEW,WA,47.486111,-121.646667,47 29 10,121 38 48,MIDDLE FORK SNOQUALMIE RIVER NEAR TANNER WA,NOAA_HADS
12142000,SNQW1,DD8A27B6,SEW,WA,47.615,-121.712222,47 36 54,121 42 44,NF SNOQUALMIE RIVER NEAR SNOQUALMIE FALLS WA,NOAA_HADS
12143400,GARW1,DD8A34C0,SEW,WA,47.415278,-121.586111,47 24 55,121 35 10,SF SNOQUALMIE RIVER AB ALICE CREEK NEAR GARCIA WA,NOAA_HADS
12143600,SFSW1,DD1B96E4,SEW,WA,47.452778,-121.716667,47 27 10,121 43 00,SF SNOQUALMIE RIVER AT EDGEWICK WA,NOAA_HADS
12143900,BOXW1,DDD434EA,SEW,WA,47.448889,-121.730556,47 26 56,121 43 50,BOXLEY CREEK NEAR EDGEWICK WA,NOAA_HADS
12144000,SSNW1,1687D1AC,SEW,WA,47.493056,-121.788889,47 29 35,121 47 20,SF SNOQUALMIE RIVER AT NORTH BEND WA,NOAA_HADS
12144500,SQUW1,DE6513D2,SEW,WA,47.545278,-121.841111,47 32 43,121 50 28,SNOQUALMIE RIVER NEAR SNOQUALMIE WA,NOAA_HADS
12145500,RAGW1,DD12C0C4,SEW,WA,47.54,-121.907778,47 32 24,121 54 28,RAGING RIVER NEAR FALL CITY WA,NOAA_HADS
12147470,TNFW1,16F1F222,SEW,WA,47.719722,-121.743197,47 43 11,121 44 35.51,NF TOLT RIVER ABOVE YELLOW CREEK NR CARNATION WA,NOAA_HADS
12147500,NFTW1,DD8A77CA,SEW,WA,47.7125,-121.7875,47 42 45,121 47 15,NORTH FORK TOLT RIVER NEAR CARNATION WA,NOAA_HADS
12147600,IDXW1,D10CF3E2,SEW,WA,47.706944,-121.598889,47 42 25,121 35 56,SOUTH FORK TOLT RIVER NEAR INDEX WA,NOAA_HADS
12147900,TLRW1,17DA513E,SEW,WA,47.693889,-121.687778,47 41 38,121 41 16,SOUTH FORK TOLT RESERVOIR NEAR CARNATION WA,NOAA_HADS
12148000,STOW1,D10D019C,SEW,WA,47.689444,-121.712222,47 41 22,121 42 44,SOUTH FORK TOLT RIVER NEAR CARNATION WA,NOAA_HADS
12148300,SFTW1,DD5A11D6,SEW,WA,47.696944,-121.786111,47 41 49,121 47 10,SF TOLT RIVER BL REGULATING BASIN NR CARNATION WA,NOAA_HADS
12148500,TOLW1,DD8A4250,SEW,WA,47.695833,-121.822778,47 41 45,121 49 22,TOLT RIVER NEAR CARNATION WA,NOAA_HADS
12149000,CRNW1,DD8A64BC,SEW,WA,47.666111,-121.924167,47 39 58,121 55 27,SNOQUALMIE RIVER NEAR CARNATION WA,NOAA_HADS
12150400,SDVW1,DD12D3B2,SEW,WA,47.743333,-121.986667,47 44 36,121 59 12,SNOQUALMIE RIVER AT DUVALL WA,NOAA_HADS
12150800,MROW1,F00573D2,SEW,WA,47.831111,-122.047222,47 49 52,122 02 50,SNOHOMISH RIVER NEAR MONROE WA,NOAA_HADS
12155300,PILW1,17336772,SEW,WA,47.935,-122.071944,47 56 06,122 04 19,PILCHUCK RIVER NEAR SNOHOMISH WA,NOAA_HADS
12155500,SNAW1,170E8196,SEW,WA,47.912733,-122.106458,47 54 45.84,122 06 23.25,SNOHOMISH RIVER AT SNOHOMISH WA,NOAA_HADS
12157250,MNCW1,DDCF60A0,SEW,WA,48.058611,-122.266111,48 03 31,122 15 58,MISSION CREEK NEAR TULALIP WA,NOAA_HADS
12158040,TLCW1,DDCF553A,SEW,WA,48.068611,-122.286667,48 04 07,122 17 12,TULALIP CREEK NEAR TULALIP WA,NOAA_HADS
12161000,GFLW1,DD5A6746,SEW,WA,48.103889,-121.944444,48 06 14,121 56 40,SF STILLAGUAMISH RIVER NEAR GRANITE FALLS WA,NOAA_HADS
12167000,ARGW1,F0058356,SEW,WA,48.261667,-122.046389,48 15 42,122 02 47,NF STILLAGUAMISH RIVER NEAR ARLINGTON WA,NOAA_HADS
12170300,STWW1,169D4202,SEW,WA,48.211389,-122.336111,48 12 41,122 20 10,STILLAGUAMISH RIVER NEAR STANWOOD WA,NOAA_HADS
12175000,RODW1,1748479A,SEW,WA,48.732778,-121.067222,48 43 58,121 04 02,ROSS RESERVOIR NEAR NEWHALEM WA,NOAA_HADS
12175500,THNW1,D110E696,SEW,WA,48.672778,-121.071667,48 40 22,121 04 18,THUNDER CREEK NEAR NEWHALEM WA,NOAA_HADS
12176500,DIDW1,DDCF73D6,SEW,WA,48.715556,-121.131111,48 42 56,121 07 52,DIABLO RESERVOIR NEAR NEWHALEM WA,NOAA_HADS
12177510,STTW1,D110D30C,SEW,WA,48.717133,-121.149939,48 43 01.68,121 08 59.78,STETATTLE CREEK AT DIABLO WA,NOAA_HADS
12177700,GODW1,DDD2772E,SEW,WA,48.698056,-121.206944,48 41 53,121 12 25,GORGE RESERVOIR NEAR NEWHALEM WA,NOAA_HADS
12178000,GORW1,DE90E850,SEW,WA,48.671944,-121.245,48 40 19,121 14 42,SKAGIT RIVER AT NEWHALEM WA,NOAA_HADS
12178100,NEKW1,17170640,SEW,WA,48.660278,-121.246389,48 39 37,121 14 47,NEWHALEM CREEK NEAR NEWHALEM WA,NOAA_HADS
12179900,BCNW1,1790B042,SEW,WA,48.604722,-121.398333,48 36 17,121 23 54,BACON CREEK BELOW OAKES CREEK NEAR MARBLEMOUNT WA,NOAA_HADS
12181000,SRMW1,DE91078A,SEW,WA,48.533889,-121.428611,48 32 02,121 25 43,SKAGIT RIVER AT MARBLEMOUNT WA,NOAA_HADS
12182500,CSCW1,DD72D180,SEW,WA,48.526389,-121.414167,48 31 35,121 24 51,CASCADE RIVER AT MARBLEMOUNT WA,NOAA_HADS
12184800,SRKW1,DDC64010,SEW,WA,48.485,-121.593333,48 29 06,121 35 36,SKAGIT RIVER AT ROCKPORT WA,NOAA_HADS
12186000,WCHW1,DD88D2C6,SEW,WA,48.168889,-121.469444,48 10 08,121 28 10,SAUK RIVER AB WHITE CHUCK RIVER NR DARRINGTON WA,NOAA_HADS
12187500,SKDW1,16362CC8,SEW,WA,48.25,-121.583333,48 15 00,121 35 00,SAUK RIVER AT DARRINGTON WA,NOAA_HADS
12189500,SAKW1,DD0C63CA,SEW,WA,48.424722,-121.567222,48 25 29,121 34 02,SAUK RIVER NEAR SAUK WA,NOAA_HADS
12190400,BABW1,DDC5F490,SEW,WA,48.754167,-121.545833,48 45 15,121 32 45,BAKER RIVER AB BLUM CREEK NEAR CONCRETE WA,NOAA_HADS
12191600,UBDW1,DD72E41A,SEW,WA,48.649444,-121.689444,48 38 58,121 41 22,BAKER LAKE AT UPPER BAKER DAM NEAR CONCRETE WA,NOAA_HADS
12193000,SHDW1,DD731664,SEW,WA,48.548056,-121.739444,48 32 53,121 44 22,LAKE SHANNON AT CONCRETE WA,NOAA_HADS
12193400,SHAW1,DD130720,SEW,WA,48.540556,-121.742222,48 32 26,121 44 32,BAKER RIVER AT HENRY THOMPSON BR AT CONCRETE WA,NOAA_HADS
12194000,CONW1,DE90F5F4,SEW,WA,48.524444,-121.769722,48 31 28,121 46 11,SKAGIT RIVER NEAR CONCRETE WA,NOAA_HADS
12199000,SSWW1,DDD287AA,SEW,WA,48.484167,-122.241944,48 29 03,122 14 31,SKAGIT RIVER NEAR SEDRO WOOLLEY WA,NOAA_HADS
12200500,MVEW1,DD8AA1A2,SEW,WA,48.445,-122.334167,48 26 42,122 20 03,SKAGIT RIVER NEAR MOUNT VERNON WA,NOAA_HADS
12201500,SMRW1,DD7856C6,SEW,WA,48.546111,-122.336944,48 32 46,122 20 13,SAMISH RIVER NEAR BURLINGTON WA,NOAA_HADS
12205000,NFNW1,DD8A9438,SEW,WA,48.906111,-121.843056,48 54 22,121 50 35,NF NOOKSACK RIVER BL CASCADE CREEK NR GLACIER WA,NOAA_HADS
12208000,MFNW1,DDC63680,SEW,WA,48.779444,-122.105278,48 46 46,122 06 19,MF NOOKSACK RIVER NEAR DEMING WA,NOAA_HADS
12210000,NSSW1,DDC7F164,SEW,WA,48.677778,-122.165278,48 40 40,122 09 55,SF NOOKSACK RIVER AT SAXON BRIDGE WA,NOAA_HADS
12210220,JNCW1,DDEF54D4,SEW,WA,48.718611,-122.213056,48 43 07,122 12 47,JONES CREEK AT ACME WA,NOAA_HADS
12210700,NRKW1,DDCF8352,SEW,WA,48.841944,-122.293056,48 50 31,122 17 35,NOOKSACK RIVER AT NORTH CEDARVILLE WA,NOAA_HADS
12211190,NEEW1,DD7CF304,SEW,WA,48.913556,-122.339167,48 54 48.8,122 20 21.0,NOOKSACK R OVERFLOW AT EMERSON RD AT EVERSON WA,NOAA_HADS
12211195,NOEW1,DDEF91CA,SEW,WA,48.920278,-122.332778,48 55 13,122 19 58,NOOKSACK R OVERFLOW AT HIGHWAY 544 AT EVERSON WA,NOAA_HADS
12211200,NREW1,DD75F558,SEW,WA,48.918056,-122.346667,48 55 05,122 20 48,NOOKSACK RIVER AT EVERSON WA,NOAA_HADS
12211500,NKLW1,163E286E,SEW,WA,48.920556,-122.484444,48 55 14,122 29 04,NOOKSACK RIVER NEAR LYNDEN WA,NOAA_HADS
12213100,NKSW1,DD677126,SEW,WA,48.845,-122.588056,48 50 42,122 35 17,NOOKSACK RIVER AT FERNDALE WA,NOAA_HADS
12214500,SUMW1,163E435A,SEW,WA,48.975,-122.25,48 58 30,122 15 00,SUMAS RIVER NEAR SUMAS WA,NOAA_HADS
12395500,ATGW1,DE0A5478,OTX,WA,48.182222,-117.034167,48 10 56,117 02 03,PEND OREILLE RIVER AT NEWPORT WA,NOAA_HADS
12395950,POCW1,16DEF55E,OTX,WA,48.336111,-117.291944,48 20 10,117 17 31,PEND OREILLE RIVER AT CUSICK WA,NOAA_HADS
12396455,POIW1,DE012140,OTX,WA,48.741111,-117.412222,48 44 28,117 24 44,PEND OREILLE RIVER AT IONE WA,NOAA_HADS
12396500,BCAW1,DD7602D2,OTX,WA,48.781111,-117.415278,48 46 52,117 24 55,PEND OREILLE RIVER BELOW BOX CANYON NEAR IONE WA,NOAA_HADS
12398550,BWTW1,DE61B610,OTX,WA,48.988889,-117.348611,48 59 20,117 20 55,BOUNDARY RESERVOIR AT FOREBAY NR METALINE FALLS,NOAA_HADS
12398600,BDYW1,DE61730E,OTX,WA,48.998889,-117.3525,48 59 56,117 21 09,PEND OREILLE RIVER AT INTERNATIONAL BOUNDARY,NOAA_HADS
12399500,IBCW1,DDC5E7E6,OTX,WA,49.000833,-117.628333,49 00 03,117 37 42,COLUMBIA RIVER AT INTERNATIONAL BOUNDARY,NOAA_HADS
12399510,CIBW1,3483436A,OTX,WA,48.971389,-117.64,48 58 17,117 38 24,COLUMBIA RIVER AUX GAGE AT INTERNATIONAL BOUNDARY,NOAA_HADS
12401500,FRYW1,DD8C0194,OTX,WA,48.981389,-118.765278,48 58 53,118 45 55,KETTLE RIVER NEAR FERRY WA,NOAA_HADS
12404500,LAUW1,DD8C12E2,OTX,WA,48.984444,-118.215278,48 59 04,118 12 55,KETTLE RIVER NEAR LAURIER WA,NOAA_HADS
12409000,KTFW1,17977768,OTX,WA,48.594444,-118.061389,48 35 40,118 03 41,COLVILLE RIVER AT KETTLE FALLS WA,NOAA_HADS
12422000,SGRW1,15D610EC,OTX,WA,47.679167,-117.363611,47 40 45,117 21 49,SPOKANE RIVER BELOW N GREENE ST AT SPOKANE WA,NOAA_HADS
12422500,SPOW1,DDEB3408,OTX,WA,47.659444,-117.448056,47 39 34,117 26 53,SPOKANE RIVER AT SPOKANE WA,NOAA_HADS
12422990,HCTW1,DDDBC2FC,OTX,WA,47.202778,-117.039722,47 12 10,117 02 23,HANGMAN CREEK AT STATE LINE ROAD NEAR TEKOA WA,NOAA_HADS
12424000,HAGW1,DD70116A,OTX,WA,47.652778,-117.448611,47 39 10,117 26 55,HANGMAN CREEK AT SPOKANE WA,NOAA_HADS
12431000,LSDW1,DD3830FC,OTX,WA,47.784722,-117.403333,47 47 05,117 24 12,LITTLE SPOKANE RIVER AT DARTFORD WA,NOAA_HADS
12431500,LSRW1,16DED3B2,OTX,WA,47.781111,-117.495278,47 46 52,117 29 43,LITTLE SPOKANE RIVER NEAR DARTFORD WA,NOAA_HADS
12433200,CHKW1,DDF083B0,OTX,WA,47.863333,-117.857222,47 51 48,117 51 26,CHAMOKANE CREEK BELOW FALLS NEAR LONG LAKE WA,NOAA_HADS
12434590,KLLW1,D112C58E,OTX,WA,48.084444,-118.690278,48 05 04,118 41 25,SANPOIL RIVER ABOVE JACK CREEK AT KELLER WA,NOAA_HADS
12438000,COBW1,168996CE,OTX,WA,48.006667,-119.664167,48 00 24,119 39 51,COLUMBIA RIVER AT BRIDGEPORT WA,NOAA_HADS
12438905,ONMW1,DDD82600,OTX,WA,48.970369,-119.418519,48 58 13.33,119 25 06.67,NINEMILE CREEK AT EASTLAKE RD NEAR OROVILLE WA,NOAA_HADS
12439000,OKGW1,15E295B2,OTX,WA,48.956667,-119.438333,48 57 24,119 26 18,OSOYOOS LAKE NEAR OROVILLE WA,NOAA_HADS
12439500,OKAW1,DD763748,OTX,WA,48.930833,-119.419167,48 55 51,119 25 09,OKANOGAN RIVER AT OROVILLE WA,NOAA_HADS
12442500,NITW1,DE04E39E,OTX,WA,48.984722,-119.617222,48 59 05,119 37 02,SIMILKAMEEN RIVER NEAR NIGHTHAWK WA,NOAA_HADS
12444290,ANTW1,169CD59A,OTX,WA,48.759444,-119.408056,48 45 34,119 24 29,ANTOINE CREEK AT US HWY 97 NEAR ELLISFORDE WA,NOAA_HADS
12444550,BCRW1,DD09129A,OTX,WA,48.701389,-119.441667,48 42 05,119 26 30,BONAPARTE CREEK AT TONASKET WA,NOAA_HADS
12445000,TONW1,DD5B864E,OTX,WA,48.6325,-119.460556,48 37 57,119 27 38,OKANOGAN RIVER NEAR TONASKET WA,NOAA_HADS
12445500,JRVW1,169CE000,OTX,WA,48.497222,-119.525,48 29 50,119 31 30,JOHNSON CREEK NEAR RIVERSIDE WA,NOAA_HADS
12445900,OKCW1,169CF376,OTX,WA,48.367222,-119.443889,48 22 02,119 26 38,OMAK CREEK NEAR OMAK WA,NOAA_HADS
12446150,SALW1,16924490,OTX,WA,48.596389,-119.772778,48 35 47,119 46 22,NORTH FORK SALMON CREEK NEAR CONCONULLY WA,NOAA_HADS
12446400,SCCW1,1692627C,OTX,WA,48.541111,-119.763056,48 32 28,119 45 47,WEST FORK SALMON CREEK NEAR CONCONULLY WA,NOAA_HADS
12446995,SADW1,16361780,OTX,WA,48.405278,-119.620556,48 24 19,119 37 14,SALMON CREEK ABOVE DIVERSION NEAR OKANOGAN WA,NOAA_HADS
12447200,OKMW1,DDD8139A,OTX,WA,48.281389,-119.703333,48 16 53,119 42 12,OKANOGAN RIVER AT MALOTT WA,NOAA_HADS
12447285,LLPW1,16363FBE,OTX,WA,48.283333,-119.707222,48 17 00,119 42 26,LOUP LOUP CREEK AT MALOTT WA,NOAA_HADS
12447383,MZMW1,DE050296,OTX,WA,48.57425,-120.385861,48 34 27.3,120 23 09.1,METHOW RIVER ABOVE GOAT CREEK NEAR MAZAMA WA,NOAA_HADS
12447390,ACMW1,163647FC,OTX,WA,48.823056,-120.144722,48 49 23,120 08 41,ANDREWS CREEK NEAR MAZAMA WA,NOAA_HADS
12448000,WINW1,DE0511E0,OTX,WA,48.477222,-120.185278,48 28 38,120 11 07,CHEWUCH RIVER AT WINTHROP WA,NOAA_HADS
12448500,WTHW1,DD5B9538,OTX,WA,48.473611,-120.176111,48 28 25,120 10 34,METHOW RIVER AT WINTHROP WA,NOAA_HADS
12448998,TWIW1,DE05247A,OTX,WA,48.37,-120.1475,48 22 12,120 08 51,TWISP RIVER NEAR TWISP WA,NOAA_HADS
12449500,MOTW1,16DEB654,OTX,WA,48.365278,-120.115,48 21 55,120 06 54,METHOW RIVER AT TWISP WA,NOAA_HADS
12449950,PATW1,DD0AB56C,OTX,WA,48.0775,-119.983889,48 04 39,119 59 02,METHOW RIVER NEAR PATEROS WA,NOAA_HADS
12450650,WSBW1,168AA45A,OTX,WA,47.947778,-119.8625,47 56 52,119 51 45,WELLS POWERPLANT HEADWATER NEAR PATEROS WA,NOAA_HADS
12451000,STHW1,DDDEC53C,OTX,WA,48.329722,-120.690556,48 19 47,120 41 26,STEHEKIN RIVER AT STEHEKIN WA,NOAA_HADS
12451200,STKW1,171212F6,OTX,WA,48.306111,-120.653056,48 18 22,120 39 11,LAKE CHELAN AT PURPLE POINT AT STEHEKIN WA,NOAA_HADS
12452000,CHDW1,16DEE628,OTX,WA,47.836389,-120.060278,47 50 11,120 03 37,LAKE CHELAN AT CHELAN WA,NOAA_HADS
12452800,ARDW1,DD09A114,OTX,WA,47.818611,-120.421944,47 49 07,120 25 19,ENTIAT RIVER NEAR ARDENVOIR WA,NOAA_HADS
12452890,MRAW1,1739F342,OTX,WA,47.736944,-120.3675,47 44 13,120 22 03,MAD RIVER AT ARDENVOIR WA,NOAA_HADS
12452990,ENRW1,DE6607AA,OTX,WA,47.663333,-120.249444,47 39 48,120 14 58,ENTIAT RIVER NEAR ENTIAT WA,NOAA_HADS
12456500,CHIW1,DE04F0E8,OTX,WA,47.8375,-120.661111,47 50 15,120 39 40,CHIWAWA RIVER NEAR PLAIN WA,NOAA_HADS
12457000,WPLW1,DE00A5AE,OTX,WA,47.763056,-120.665,47 45 47,120 39 54,WENATCHEE RIVER AT PLAIN WA,NOAA_HADS
12458000,ICIW1,173AF44C,OTX,WA,47.541111,-120.718889,47 32 28,120 43 08,ICICLE CREEK ABOVE SNOW CREEK NEAR LEAVENWORTH WA,NOAA_HADS
12459000,PESW1,16392488,OTX,WA,47.583333,-120.618333,47 35 00,120 37 06,WENATCHEE RIVER AT PESHASTIN WA,NOAA_HADS
12462500,MONW1,DE0114DA,OTX,WA,47.499444,-120.423333,47 29 58,120 25 24,WENATCHEE RIVER AT MONITOR WA,NOAA_HADS
12465000,CRBW1,DE05370C,OTX,WA,47.360556,-118.848889,47 21 38,118 50 56,CRAB CREEK AT IRBY WA,NOAA_HADS
12467000,MSLW1,1636AADC,OTX,WA,47.189444,-119.264722,47 11 22,119 15 53,CRAB CREEK NEAR MOSES LAKE WA,NOAA_HADS
12471000,MLAW1,DD5675AC,OTX,WA,47.103056,-119.317222,47 06 11,119 19 02,MOSES LAKE AT MOSES LAKE WA,NOAA_HADS
12472600,CCBW1,1714F1CA,OTX,WA,46.83,-119.83,46 49 48,119 49 48,CRAB CREEK NEAR BEVERLY WA,NOAA_HADS
12472800,PRDW1,DD0E03D8,PDT,WA,46.628889,-119.863611,46 37 44,119 51 49,COLUMBIA RIVER BELOW PRIEST RAPIDS DAM WA,NOAA_HADS
12484500,UMTW1,DD00322A,PDT,WA,46.862778,-120.478889,46 51 46,120 28 44,YAKIMA RIVER AT UMTANUM WA,NOAA_HADS
12488500,AMRW1,DDDE26CE,PDT,WA,46.977778,-121.1675,46 58 40,121 10 03,AMERICAN RIVER NEAR NILE WA,NOAA_HADS
12500450,YUNW1,DDD596E8,PDT,WA,46.534444,-120.466111,46 32 04,120 27 58,YAKIMA RIVER ABOVE AHTANUM CREEK AT UNION GAP WA,NOAA_HADS
12502500,AHUW1,345B62DA,PDT,WA,46.536111,-120.472222,46 32 10,120 28 20,AHTANUM CREEK AT UNION GAP WA,NOAA_HADS
12506000,TOPW1,171193EC,PDT,WA,46.311111,-120.786944,46 18 40,120 47 13,TOPPENISH CREEK NEAR FORT SIMCOE WA,NOAA_HADS
12510500,KIOW1,162A41FE,PDT,WA,46.253611,-119.476944,46 15 13,119 28 37,YAKIMA RIVER AT KIONA WA,NOAA_HADS
12514400,CTCW1,D110C07A,PDT,WA,46.224167,-119.115278,46 13 27,119 06 55,COLUMBIA RIVER BELOW HWY 395 BRIDGE AT PASCO WA,NOAA_HADS
13334300,ANAW1,DD5CA296,OTX,WA,46.097222,-116.976667,46 05 50,116 58 36,SNAKE RIVER NEAR ANATONE WA,NOAA_HADS
13335050,ACAW1,17B9A486,OTX,WA,46.340833,-117.055,46 20 27,117 03 18,ASOTIN CREEK AT ASOTIN WA,NOAA_HADS
13344500,TUCW1,172F310C,PDT,WA,46.505556,-118.065278,46 30 20,118 03 55,TUCANNON RIVER NEAR STARBUCK WA,NOAA_HADS
13348000,PULW1,DE3A417E,OTX,WA,46.7325,-117.18,46 43 57,117 10 48,SOUTH FORK PALOUSE RIVER AT PULLMAN WA,NOAA_HADS
13351000,HOPW1,DE00F5D2,OTX,WA,46.758611,-118.147778,46 45 31,118 08 52,PALOUSE RIVER AT HOOPER WA,NOAA_HADS
14013000,MLKW1,DDEB8786,PDT,WA,46.008056,-118.1175,46 00 29,118 07 03,MILL CREEK NEAR WALLA WALLA WA,NOAA_HADS
14013700,FMBW1,DDF1075E,PDT,WA,46.085833,-118.227222,46 05 09,118 13 38,MILL CREEK AT FIVE MILE RD BR NR WALLA WALLA WA,NOAA_HADS
14015000,MLLW1,DE5545DE,PDT,WA,46.076389,-118.2725,46 04 35,118 16 21,MILL CREEK AT WALLA WALLA WA,NOAA_HADS
14016820,TGAW1,DDF48858,PDT,WA,46.277042,-118.111572,46 16 37.35,118 06 41.66,TOUCHET RIVER AT GALLAHER RD NEAR WAITSBURG WA,NOAA_HADS
14016940,CMWW1,DDF49B2E,PDT,WA,46.222464,-118.129006,46 13 20.87,118 07 44.42,COPPEI CREEK AT MCCOWN ROAD NEAR WAITSBURG WA,NOAA_HADS
14018500,TCHW1,DDD5859E,PDT,WA,46.027778,-118.728611,46 01 40,118 43 43,WALLA WALLA RIVER NEAR TOUCHET WA,NOAA_HADS
14107000,KLCW1,DD5DB31A,PDT,WA,46.265,-121.243889,46 15 54,121 14 38,KLICKITAT RIVER ABOVE WEST FORK NEAR GLENWOOD WA,NOAA_HADS
14111400,KCKW1,DE3A5208,PDT,WA,45.9625,-121.101111,45 57 45,121 06 04,KLICKITAT RIVER BL SUMMIT CREEK NEAR GLENWOOD WA,NOAA_HADS
14113000,PITW1,178924E2,PDT,WA,45.756667,-121.208889,45 45 24,121 12 32,KLICKITAT RIVER NEAR PITT WA,NOAA_HADS
14123500,UNDW1,DD799122,PQR,WA,45.752222,-121.525833,45 45 08,121 31 33,WHITE SALMON RIVER NEAR UNDERWOOD WA,NOAA_HADS
14128500,WCNW1,16DCB3A0,PQR,WA,45.726944,-121.793611,45 43 37,121 47 37,WIND RIVER NEAR CARSON WA,NOAA_HADS
14128600,STVW1,162E4A16,PQR,WA,45.699444,-121.867222,45 41 58,121 52 02,COLUMBIA RIVER AT STEVENSON WA,NOAA_HADS
14128895,HNBW1,17B186CC,PQR,WA,45.636306,-121.982472,45 38 10.7,121 58 56.9,HAMILTON CREEK NEAR MOUTH AT N BONNEVILLE WA,NOAA_HADS
14216000,LRCW1,DDD2B230,PQR,WA,46.060556,-121.983333,46 03 38,121 59 00,LEWIS RIVER ABOVE MUDDY RIVER NEAR COUGAR WA,NOAA_HADS
14216500,MUDW1,DD78635C,PQR,WA,46.075833,-121.9975,46 04 33,121 59 51,MUDDY RIVER BELOW CLEAR CREEK NEAR COUGAR WA,NOAA_HADS
14217599,SFRW1,DD7B51C8,PQR,WA,46.062778,-122.131111,46 03 46,122 07 52,SWIFT RESERVOIR 3.2 MI EAST OF DAM NEAR COUGAR WA,NOAA_HADS
14218480,YARW1,178CF54A,PQR,WA,46.032778,-122.311667,46 01 58,122 18 42,YALE RESERVOIR NEAR COUGAR WA,NOAA_HADS
14219000,CCAW1,DDD52566,PQR,WA,45.94,-122.315833,45 56 24,122 18 57,CANYON CREEK NEAR AMBOY WA,NOAA_HADS
14219800,SYCW1,DE613004,PQR,WA,46.004722,-122.343056,46 00 17,122 20 35,SPEELYAI CREEK NEAR COUGAR WA,NOAA_HADS
14219950,MEYW1,1796F386,PQR,WA,45.971389,-122.383889,45 58 17,122 23 02,LAKE MERWIN NEAR CHELATCHIE WA,NOAA_HADS
14220500,MERW1,DE910958,PQR,WA,45.951944,-122.562778,45 57 07,122 33 46,LEWIS RIVER AT ARIEL WA,NOAA_HADS
14222500,HSSW1,DD78702A,PQR,WA,45.836944,-122.465,45 50 13,122 27 54,EAST FORK LEWIS RIVER NEAR HEISSON WA,NOAA_HADS
14226500,PACW1,DDC8B4FC,SEW,WA,46.613056,-121.678056,46 36 47,121 40 41,COWLITZ RIVER AT PACKWOOD WA,NOAA_HADS
14231000,RAWW1,DDEB277E,SEW,WA,46.531944,-121.956944,46 31 55,121 57 25,COWLITZ RIVER AT RANDLE WA,NOAA_HADS
14231900,CIYW1,DD55D25A,SEW,WA,46.444167,-121.838889,46 26 39,121 50 20,CISPUS RIVER AB YELLOWJACKET CREEK NEAR RANDLE WA,NOAA_HADS
14233500,COKW1,DE641128,SEW,WA,46.466389,-122.107778,46 27 59,122 06 28,COWLITZ RIVER NEAR KOSMOS WA,NOAA_HADS
14236200,TILW1,17BE70DA,SEW,WA,46.595556,-122.458333,46 35 44,122 27 30,TILTON RIVER AB BEAR CANYON CREEK NEAR CINEBAR WA,NOAA_HADS
14238000,MAYW1,DE539378,PQR,WA,46.510556,-122.615,46 30 38,122 36 54,COWLITZ RIVER BELOW MAYFIELD DAM WA,NOAA_HADS
14240304,SPIW1,DDEB51EE,SEW,WA,46.276389,-122.161389,46 16 35,122 09 41,SPIRIT LAKE AT TUNNEL AT SPIRIT LAKE WA,NOAA_HADS
14240311,SPTW1,DDEB6474,PQR,WA,46.282222,-122.195278,46 16 56,122 11 43,SPIRIT LAKE TUNNEL OUTLET NR SPIRIT LAKE WA,NOAA_HADS
14240446,SCSW1,DF077050,PQR,WA,46.256389,-122.274444,46 15 23,122 16 28,CASTLE LAKE NEAR MOUNT ST. HELENS WA,NOAA_HADS
14240525,SRBW1,17D581C4,PQR,WA,46.371944,-122.577778,46 22 19,122 34 40,NF TOUTLE RIVER BELOW SRS NEAR KID VALLEY WA,NOAA_HADS
14242580,TOTW1,D110F5E0,PQR,WA,46.335,-122.840833,46 20 06,122 50 27,TOUTLE RIVER AT TOWER ROAD NEAR SILVER LAKE WA,NOAA_HADS
14243000,CASW1,171A73B6,PQR,WA,46.275,-122.913333,46 16 30,122 54 48,COWLITZ RIVER AT CASTLE ROCK WA,NOAA_HADS
453845121564001,CCIW1,CE7AA806,PQR,WA,45.645833,-121.944444,45 38 45,121 56 40,COLUMBIA RIVER AT CASCADE ISLAND WA,NOAA_HADS
455657120395300,SSPW1,1719B1A6,PDT,WA,45.949167,-120.664722,45 56 57,120 39 53,SATUS PASS P. NR GOLDENDALE WA,NOAA_HADS
455959121323700,MTAW1,DDDEB3AC,PDT,WA,45.999722,-121.543611,45 59 59,121 32 37,MT. ADAMS P. NR TROUT LAKE WA,NOAA_HADS
463958120275701,NOOW1,DE657634,OTX,WA,46.666189,-120.4659,46 39 58.28,120 27 57.24,14N/19E-28N02,NOAA_HADS
471340117045400,TEKW1,D112A068,OTX,WA,47.227778,-117.081667,47 13 40,117 04 54,TEKOA P. NR TEKOA WA,NOAA_HADS
471700123380000,EKMW1,DD0B4712,SEW,WA,47.283333,-123.633333,47 17 00,123 38 00,ELK MEADOWS PRECIPITATION SITE,NOAA_HADS
471938120245200,MCRW1,DE6543AE,OTX,WA,47.327222,-120.414444,47 19 38,120 24 52,PV1 PRECIP SITE ABV MISSION CR NR WENATCHEE WA,NOAA_HADS
472215120264100,PEAW1,DE6550D8,OTX,WA,47.370833,-120.444722,47 22 15,120 26 41,PV3 PRECIP SITE PEAVINE CANYON NEAR WENATCHEE WA,NOAA_HADS
472423120261300,NCAW1,DE656542,OTX,WA,47.406389,-120.436944,47 24 23,120 26 13,CN3 PRECIP SITE NUMBER ONE CANYON NR WENATCHEE WA,NOAA_HADS
472615120255800,NOCW1,DE6586B0,OTX,WA,47.4375,-120.432778,47 26 15,120 25 58,CN1 PRECIP SITE NUMBER ONE CANYON NR WENATCHEE WA,NOAA_HADS
474525120161000,BYRW1,DE6595C6,OTX,WA,47.756944,-120.269444,47 45 25,120 16 10,BD2 PRECIP SITE BYRD CANYON NEAR ENTIAT WA,NOAA_HADS
475014120475400,LWNW1,1639392C,OTX,WA,47.837222,-120.798333,47 50 14,120 47 54,LAKE WENATCHEE P. NR LEAVENWORTH WA,NOAA_HADS
475647120145000,SRDW1,DE5FB408,OTX,WA,47.946389,-120.247222,47 56 47,120 14 50,FC1 PRECIP SITE SLIDE RIDGE NEAR MANSON WA,NOAA_HADS
475955120220601,BZRW1,DE66A752,OTX,WA,47.998478,-120.368364,47 59 54.52,120 22 06.11,BARNEY ZEL RIDGE NEAR MANSON WA,NOAA_HADS
481626117425600,CHEW1,16397A26,OTX,WA,48.273333,-117.74,48 16 24,117 44 24,CHEWELAH P. AT CHEWELAH WA,NOAA_HADS
481834120373800,HZDW1,169583BA,OTX,WA,48.309639,-120.627281,48 18 34.7,120 37 38.21,PRECIP SITE ABV HAZARD CREEK NEAR STEHEKIN WA,NOAA_HADS
481903120355600,PRPW1,16DCA0D6,OTX,WA,48.31755,-120.599,48 19 03.18,120 35 56.4,PRECIP SITE AT PURPLE PASS NEAR STEHEKIN WA,NOAA_HADS
485851117212800,BDSW1,16E9A166,OTX,WA,48.980833,-117.357778,48 58 51,117 21 28,BOUNDARY P. NR METALINE WA,NOAA_HADS
8065980,ATAW1,16DC65C8,OTX,WA,30.860786,-95.433553,30 51 38.83,095 26 00.79,HARMON CK NR RIVERSIDE TX,NOAA_HADS
